<?xml version='1.0' encoding='UTF-8'?>
<gpx xmlns="http://www.topografix.com/GPX/1/1" xmlns:xsi="http://www.w3.org/2001/XMLSchema-instance" creator="StravaGPX" version="1.1" xsi:schemaLocation="http://www.topografix.com/GPX/1/1 http://www.topografix.com/GPX/1/1/gpx.xsd">
 <metadata>
  <time>2025-11-29T21:45:16Z</time>
 </metadata>
 <trk>
  <name>Budlaan - Kang-irag</name>
  <type>hiking</type>
  <trkseg>
   <trkpt lat="10.3838540" lon="123.8865660">
    <ele>281.0</ele>
    <time>2025-11-29T21:45:16Z</time>
   </trkpt>
   <trkpt lat="10.3838120" lon="123.8864120">
    <ele>280.7</ele>
    <time>2025-11-29T21:45:30Z</time>
   </trkpt>
   <trkpt lat="10.3837220" lon="123.8862920">
    <ele>280.5</ele>
    <time>2025-11-29T21:45:42Z</time>
   </trkpt>
   <trkpt lat="10.3837350" lon="123.8861920">
    <ele>280.3</ele>
    <time>2025-11-29T21:45:53Z</time>
   </trkpt>
   <trkpt lat="10.3836950" lon="123.8859860">
    <ele>278.8</ele>
    <time>2025-11-29T21:46:16Z</time>
   </trkpt>
   <trkpt lat="10.3835090" lon="123.8857310">
    <ele>277.0</ele>
    <time>2025-11-29T21:46:43Z</time>
   </trkpt>
   <trkpt lat="10.3834310" lon="123.8857090">
    <ele>276.5</ele>
    <time>2025-11-29T21:46:52Z</time>
   </trkpt>
   <trkpt lat="10.3834100" lon="123.8856920">
    <ele>276.3</ele>
    <time>2025-11-29T21:46:56Z</time>
   </trkpt>
   <trkpt lat="10.3834090" lon="123.8856500">
    <ele>276.1</ele>
    <time>2025-11-29T21:47:00Z</time>
   </trkpt>
   <trkpt lat="10.3833900" lon="123.8856200">
    <ele>275.8</ele>
    <time>2025-11-29T21:47:04Z</time>
   </trkpt>
   <trkpt lat="10.3833480" lon="123.8856190">
    <ele>275.5</ele>
    <time>2025-11-29T21:47:10Z</time>
   </trkpt>
   <trkpt lat="10.3832230" lon="123.8855090">
    <ele>274.3</ele>
    <time>2025-11-29T21:47:26Z</time>
   </trkpt>
   <trkpt lat="10.3831000" lon="123.8854310">
    <ele>273.1</ele>
    <time>2025-11-29T21:47:42Z</time>
   </trkpt>
   <trkpt lat="10.3830780" lon="123.8853980">
    <ele>272.8</ele>
    <time>2025-11-29T21:47:46Z</time>
   </trkpt>
   <trkpt lat="10.3830690" lon="123.8853400">
    <ele>272.3</ele>
    <time>2025-11-29T21:47:52Z</time>
   </trkpt>
   <trkpt lat="10.3830440" lon="123.8852960">
    <ele>271.9</ele>
    <time>2025-11-29T21:47:57Z</time>
   </trkpt>
   <trkpt lat="10.3830530" lon="123.8851860">
    <ele>271.1</ele>
    <time>2025-11-29T21:48:06Z</time>
   </trkpt>
   <trkpt lat="10.3830160" lon="123.8850340">
    <ele>270.4</ele>
    <time>2025-11-29T21:48:20Z</time>
   </trkpt>
   <trkpt lat="10.3829050" lon="123.8848840">
    <ele>269.4</ele>
    <time>2025-11-29T21:48:42Z</time>
   </trkpt>
   <trkpt lat="10.3828900" lon="123.8848320">
    <ele>269.1</ele>
    <time>2025-11-29T21:48:48Z</time>
   </trkpt>
   <trkpt lat="10.3827780" lon="123.8847540">
    <ele>268.7</ele>
    <time>2025-11-29T21:49:01Z</time>
   </trkpt>
   <trkpt lat="10.3827720" lon="123.8846670">
    <ele>268.6</ele>
    <time>2025-11-29T21:49:09Z</time>
   </trkpt>
   <trkpt lat="10.3827140" lon="123.8845670">
    <ele>268.6</ele>
    <time>2025-11-29T21:49:22Z</time>
   </trkpt>
   <trkpt lat="10.3826960" lon="123.8844920">
    <ele>268.5</ele>
    <time>2025-11-29T21:49:30Z</time>
   </trkpt>
   <trkpt lat="10.3826880" lon="123.8843500">
    <ele>268.1</ele>
    <time>2025-11-29T21:49:42Z</time>
   </trkpt>
   <trkpt lat="10.3826760" lon="123.8843180">
    <ele>268.0</ele>
    <time>2025-11-29T21:49:45Z</time>
   </trkpt>
   <trkpt lat="10.3826450" lon="123.8843070">
    <ele>267.7</ele>
    <time>2025-11-29T21:49:49Z</time>
   </trkpt>
   <trkpt lat="10.3826130" lon="123.8841960">
    <ele>266.8</ele>
    <time>2025-11-29T21:50:04Z</time>
   </trkpt>
   <trkpt lat="10.3826580" lon="123.8841090">
    <ele>266.0</ele>
    <time>2025-11-29T21:50:13Z</time>
   </trkpt>
   <trkpt lat="10.3827270" lon="123.8840740">
    <ele>265.4</ele>
    <time>2025-11-29T21:50:21Z</time>
   </trkpt>
   <trkpt lat="10.3827600" lon="123.8840020">
    <ele>264.8</ele>
    <time>2025-11-29T21:50:30Z</time>
   </trkpt>
   <trkpt lat="10.3828210" lon="123.8839700">
    <ele>264.4</ele>
    <time>2025-11-29T21:50:37Z</time>
   </trkpt>
   <trkpt lat="10.3828850" lon="123.8839710">
    <ele>264.1</ele>
    <time>2025-11-29T21:50:42Z</time>
   </trkpt>
   <trkpt lat="10.3829430" lon="123.8839010">
    <ele>263.5</ele>
    <time>2025-11-29T21:50:49Z</time>
   </trkpt>
   <trkpt lat="10.3829770" lon="123.8839000">
    <ele>263.3</ele>
    <time>2025-11-29T21:50:53Z</time>
   </trkpt>
   <trkpt lat="10.3829980" lon="123.8838770">
    <ele>263.1</ele>
    <time>2025-11-29T21:50:56Z</time>
   </trkpt>
   <trkpt lat="10.3830540" lon="123.8838570">
    <ele>262.6</ele>
    <time>2025-11-29T21:51:01Z</time>
   </trkpt>
   <trkpt lat="10.3831280" lon="123.8837030">
    <ele>260.4</ele>
    <time>2025-11-29T21:51:25Z</time>
   </trkpt>
   <trkpt lat="10.3832680" lon="123.8835890">
    <ele>257.2</ele>
    <time>2025-11-29T21:51:49Z</time>
   </trkpt>
   <trkpt lat="10.3832850" lon="123.8835440">
    <ele>256.4</ele>
    <time>2025-11-29T21:51:54Z</time>
   </trkpt>
   <trkpt lat="10.3833490" lon="123.8834950">
    <ele>255.0</ele>
    <time>2025-11-29T21:51:59Z</time>
   </trkpt>
   <trkpt lat="10.3834490" lon="123.8834880">
    <ele>253.0</ele>
    <time>2025-11-29T21:52:07Z</time>
   </trkpt>
   <trkpt lat="10.3835800" lon="123.8834330">
    <ele>250.1</ele>
    <time>2025-11-29T21:52:21Z</time>
   </trkpt>
   <trkpt lat="10.3835840" lon="123.8834120">
    <ele>249.6</ele>
    <time>2025-11-29T21:52:25Z</time>
   </trkpt>
   <trkpt lat="10.3836850" lon="123.8833060">
    <ele>246.7</ele>
    <time>2025-11-29T21:52:39Z</time>
   </trkpt>
   <trkpt lat="10.3836890" lon="123.8832380">
    <ele>245.4</ele>
    <time>2025-11-29T21:52:45Z</time>
   </trkpt>
   <trkpt lat="10.3836700" lon="123.8832160">
    <ele>244.9</ele>
    <time>2025-11-29T21:52:50Z</time>
   </trkpt>
   <trkpt lat="10.3836830" lon="123.8831770">
    <ele>244.0</ele>
    <time>2025-11-29T21:52:56Z</time>
   </trkpt>
   <trkpt lat="10.3836710" lon="123.8830920">
    <ele>242.2</ele>
    <time>2025-11-29T21:53:06Z</time>
   </trkpt>
   <trkpt lat="10.3835970" lon="123.8829110">
    <ele>238.2</ele>
    <time>2025-11-29T21:53:23Z</time>
   </trkpt>
   <trkpt lat="10.3836190" lon="123.8827800">
    <ele>236.0</ele>
    <time>2025-11-29T21:53:34Z</time>
   </trkpt>
   <trkpt lat="10.3836170" lon="123.8826700">
    <ele>234.6</ele>
    <time>2025-11-29T21:53:47Z</time>
   </trkpt>
   <trkpt lat="10.3836340" lon="123.8826050">
    <ele>234.0</ele>
    <time>2025-11-29T21:53:52Z</time>
   </trkpt>
   <trkpt lat="10.3836060" lon="123.8825350">
    <ele>233.4</ele>
    <time>2025-11-29T21:54:01Z</time>
   </trkpt>
   <trkpt lat="10.3836630" lon="123.8825510">
    <ele>233.0</ele>
    <time>2025-11-29T21:54:11Z</time>
   </trkpt>
   <trkpt lat="10.3836090" lon="123.8825110">
    <ele>232.5</ele>
    <time>2025-11-29T21:54:21Z</time>
   </trkpt>
   <trkpt lat="10.3835750" lon="123.8824110">
    <ele>232.0</ele>
    <time>2025-11-29T21:54:32Z</time>
   </trkpt>
   <trkpt lat="10.3835730" lon="123.8823260">
    <ele>231.7</ele>
    <time>2025-11-29T21:54:39Z</time>
   </trkpt>
   <trkpt lat="10.3835380" lon="123.8822450">
    <ele>231.7</ele>
    <time>2025-11-29T21:54:50Z</time>
   </trkpt>
   <trkpt lat="10.3835380" lon="123.8821710">
    <ele>231.7</ele>
    <time>2025-11-29T21:55:00Z</time>
   </trkpt>
   <trkpt lat="10.3835610" lon="123.8821280">
    <ele>231.8</ele>
    <time>2025-11-29T21:55:05Z</time>
   </trkpt>
   <trkpt lat="10.3835860" lon="123.8821120">
    <ele>231.8</ele>
    <time>2025-11-29T21:55:08Z</time>
   </trkpt>
   <trkpt lat="10.3836590" lon="123.8821030">
    <ele>232.2</ele>
    <time>2025-11-29T21:55:18Z</time>
   </trkpt>
   <trkpt lat="10.3837240" lon="123.8820990">
    <ele>232.8</ele>
    <time>2025-11-29T21:55:24Z</time>
   </trkpt>
   <trkpt lat="10.3837590" lon="123.8821120">
    <ele>233.2</ele>
    <time>2025-11-29T21:55:30Z</time>
   </trkpt>
   <trkpt lat="10.3839350" lon="123.8820950">
    <ele>235.7</ele>
    <time>2025-11-29T21:55:48Z</time>
   </trkpt>
   <trkpt lat="10.3839660" lon="123.8821030">
    <ele>236.2</ele>
    <time>2025-11-29T21:55:52Z</time>
   </trkpt>
   <trkpt lat="10.3840310" lon="123.8821640">
    <ele>237.8</ele>
    <time>2025-11-29T21:56:02Z</time>
   </trkpt>
   <trkpt lat="10.3840910" lon="123.8821610">
    <ele>238.8</ele>
    <time>2025-11-29T21:56:09Z</time>
   </trkpt>
   <trkpt lat="10.3841170" lon="123.8821890">
    <ele>239.5</ele>
    <time>2025-11-29T21:56:14Z</time>
   </trkpt>
   <trkpt lat="10.3841160" lon="123.8822270">
    <ele>240.2</ele>
    <time>2025-11-29T21:56:18Z</time>
   </trkpt>
   <trkpt lat="10.3841310" lon="123.8822400">
    <ele>240.5</ele>
    <time>2025-11-29T21:56:20Z</time>
   </trkpt>
   <trkpt lat="10.3842150" lon="123.8822250">
    <ele>241.9</ele>
    <time>2025-11-29T21:56:27Z</time>
   </trkpt>
   <trkpt lat="10.3843210" lon="123.8822700">
    <ele>243.6</ele>
    <time>2025-11-29T21:56:37Z</time>
   </trkpt>
   <trkpt lat="10.3843980" lon="123.8822540">
    <ele>244.7</ele>
    <time>2025-11-29T21:56:46Z</time>
   </trkpt>
   <trkpt lat="10.3844640" lon="123.8822810">
    <ele>245.7</ele>
    <time>2025-11-29T21:56:54Z</time>
   </trkpt>
   <trkpt lat="10.3846010" lon="123.8821830">
    <ele>248.2</ele>
    <time>2025-11-29T21:57:16Z</time>
   </trkpt>
   <trkpt lat="10.3846370" lon="123.8820850">
    <ele>249.7</ele>
    <time>2025-11-29T21:57:31Z</time>
   </trkpt>
   <trkpt lat="10.3846660" lon="123.8820510">
    <ele>250.5</ele>
    <time>2025-11-29T21:57:35Z</time>
   </trkpt>
   <trkpt lat="10.3847530" lon="123.8820700">
    <ele>251.9</ele>
    <time>2025-11-29T21:57:44Z</time>
   </trkpt>
   <trkpt lat="10.3848160" lon="123.8821290">
    <ele>253.3</ele>
    <time>2025-11-29T21:57:51Z</time>
   </trkpt>
   <trkpt lat="10.3851180" lon="123.8822880">
    <ele>258.2</ele>
    <time>2025-11-29T21:58:27Z</time>
   </trkpt>
   <trkpt lat="10.3852120" lon="123.8823000">
    <ele>259.0</ele>
    <time>2025-11-29T21:58:41Z</time>
   </trkpt>
   <trkpt lat="10.3853340" lon="123.8822690">
    <ele>259.6</ele>
    <time>2025-11-29T21:58:51Z</time>
   </trkpt>
   <trkpt lat="10.3853920" lon="123.8822900">
    <ele>259.8</ele>
    <time>2025-11-29T21:58:58Z</time>
   </trkpt>
   <trkpt lat="10.3853990" lon="123.8823170">
    <ele>259.9</ele>
    <time>2025-11-29T21:59:04Z</time>
   </trkpt>
   <trkpt lat="10.3856380" lon="123.8822950">
    <ele>260.5</ele>
    <time>2025-11-29T21:59:28Z</time>
   </trkpt>
   <trkpt lat="10.3856610" lon="123.8822440">
    <ele>260.8</ele>
    <time>2025-11-29T21:59:43Z</time>
   </trkpt>
   <trkpt lat="10.3856570" lon="123.8821690">
    <ele>261.3</ele>
    <time>2025-11-29T21:59:54Z</time>
   </trkpt>
   <trkpt lat="10.3856590" lon="123.8821890">
    <ele>261.5</ele>
    <time>2025-11-29T22:00:09Z</time>
   </trkpt>
   <trkpt lat="10.3857200" lon="123.8822320">
    <ele>262.3</ele>
    <time>2025-11-29T22:00:26Z</time>
   </trkpt>
   <trkpt lat="10.3857420" lon="123.8822720">
    <ele>263.0</ele>
    <time>2025-11-29T22:02:59Z</time>
   </trkpt>
   <trkpt lat="10.3858830" lon="123.8823080">
    <ele>265.0</ele>
    <time>2025-11-29T22:03:17Z</time>
   </trkpt>
   <trkpt lat="10.3859320" lon="123.8823030">
    <ele>265.6</ele>
    <time>2025-11-29T22:03:23Z</time>
   </trkpt>
   <trkpt lat="10.3860000" lon="123.8823550">
    <ele>266.8</ele>
    <time>2025-11-29T22:03:31Z</time>
   </trkpt>
   <trkpt lat="10.3860670" lon="123.8823320">
    <ele>267.6</ele>
    <time>2025-11-29T22:03:39Z</time>
   </trkpt>
   <trkpt lat="10.3861080" lon="123.8823350">
    <ele>268.1</ele>
    <time>2025-11-29T22:03:45Z</time>
   </trkpt>
   <trkpt lat="10.3861470" lon="123.8822580">
    <ele>269.0</ele>
    <time>2025-11-29T22:03:58Z</time>
   </trkpt>
   <trkpt lat="10.3862430" lon="123.8821870">
    <ele>269.9</ele>
    <time>2025-11-29T22:04:10Z</time>
   </trkpt>
   <trkpt lat="10.3863150" lon="123.8821720">
    <ele>270.5</ele>
    <time>2025-11-29T22:04:18Z</time>
   </trkpt>
   <trkpt lat="10.3863620" lon="123.8821280">
    <ele>271.0</ele>
    <time>2025-11-29T22:04:26Z</time>
   </trkpt>
   <trkpt lat="10.3863730" lon="123.8820620">
    <ele>271.5</ele>
    <time>2025-11-29T22:04:34Z</time>
   </trkpt>
   <trkpt lat="10.3863970" lon="123.8820370">
    <ele>271.8</ele>
    <time>2025-11-29T22:04:38Z</time>
   </trkpt>
   <trkpt lat="10.3864020" lon="123.8819850">
    <ele>272.3</ele>
    <time>2025-11-29T22:04:45Z</time>
   </trkpt>
   <trkpt lat="10.3864450" lon="123.8819320">
    <ele>273.1</ele>
    <time>2025-11-29T22:04:52Z</time>
   </trkpt>
   <trkpt lat="10.3864580" lon="123.8818130">
    <ele>274.6</ele>
    <time>2025-11-29T22:05:04Z</time>
   </trkpt>
   <trkpt lat="10.3864850" lon="123.8817260">
    <ele>275.6</ele>
    <time>2025-11-29T22:05:14Z</time>
   </trkpt>
   <trkpt lat="10.3865280" lon="123.8816970">
    <ele>276.2</ele>
    <time>2025-11-29T22:05:36Z</time>
   </trkpt>
   <trkpt lat="10.3865370" lon="123.8816400">
    <ele>276.9</ele>
    <time>2025-11-29T22:05:43Z</time>
   </trkpt>
   <trkpt lat="10.3865680" lon="123.8815780">
    <ele>277.6</ele>
    <time>2025-11-29T22:05:50Z</time>
   </trkpt>
   <trkpt lat="10.3865920" lon="123.8815780">
    <ele>277.9</ele>
    <time>2025-11-29T22:05:55Z</time>
   </trkpt>
   <trkpt lat="10.3865780" lon="123.8815620">
    <ele>278.2</ele>
    <time>2025-11-29T22:06:01Z</time>
   </trkpt>
   <trkpt lat="10.3865780" lon="123.8815750">
    <ele>278.4</ele>
    <time>2025-11-29T22:06:30Z</time>
   </trkpt>
   <trkpt lat="10.3866120" lon="123.8815380">
    <ele>278.8</ele>
    <time>2025-11-29T22:06:36Z</time>
   </trkpt>
   <trkpt lat="10.3866270" lon="123.8814930">
    <ele>279.3</ele>
    <time>2025-11-29T22:06:41Z</time>
   </trkpt>
   <trkpt lat="10.3866950" lon="123.8814750">
    <ele>279.9</ele>
    <time>2025-11-29T22:06:52Z</time>
   </trkpt>
   <trkpt lat="10.3867570" lon="123.8814050">
    <ele>280.5</ele>
    <time>2025-11-29T22:07:01Z</time>
   </trkpt>
   <trkpt lat="10.3868360" lon="123.8813790">
    <ele>281.0</ele>
    <time>2025-11-29T22:07:09Z</time>
   </trkpt>
   <trkpt lat="10.3869160" lon="123.8813080">
    <ele>281.4</ele>
    <time>2025-11-29T22:07:19Z</time>
   </trkpt>
   <trkpt lat="10.3871030" lon="123.8812280">
    <ele>282.2</ele>
    <time>2025-11-29T22:07:40Z</time>
   </trkpt>
   <trkpt lat="10.3872580" lon="123.8811390">
    <ele>282.7</ele>
    <time>2025-11-29T22:08:02Z</time>
   </trkpt>
   <trkpt lat="10.3873230" lon="123.8810590">
    <ele>283.0</ele>
    <time>2025-11-29T22:08:12Z</time>
   </trkpt>
   <trkpt lat="10.3873840" lon="123.8810340">
    <ele>283.1</ele>
    <time>2025-11-29T22:08:19Z</time>
   </trkpt>
   <trkpt lat="10.3875230" lon="123.8808110">
    <ele>283.6</ele>
    <time>2025-11-29T22:08:55Z</time>
   </trkpt>
   <trkpt lat="10.3876410" lon="123.8807110">
    <ele>283.6</ele>
    <time>2025-11-29T22:09:06Z</time>
   </trkpt>
   <trkpt lat="10.3877540" lon="123.8805770">
    <ele>283.1</ele>
    <time>2025-11-29T22:09:26Z</time>
   </trkpt>
   <trkpt lat="10.3877550" lon="123.8805060">
    <ele>282.8</ele>
    <time>2025-11-29T22:09:38Z</time>
   </trkpt>
   <trkpt lat="10.3877100" lon="123.8803710">
    <ele>281.9</ele>
    <time>2025-11-29T22:09:54Z</time>
   </trkpt>
   <trkpt lat="10.3877230" lon="123.8803320">
    <ele>281.6</ele>
    <time>2025-11-29T22:10:01Z</time>
   </trkpt>
   <trkpt lat="10.3877140" lon="123.8803200">
    <ele>281.5</ele>
    <time>2025-11-29T22:10:05Z</time>
   </trkpt>
   <trkpt lat="10.3877270" lon="123.8803000">
    <ele>281.3</ele>
    <time>2025-11-29T22:10:09Z</time>
   </trkpt>
   <trkpt lat="10.3877570" lon="123.8803030">
    <ele>281.0</ele>
    <time>2025-11-29T22:10:14Z</time>
   </trkpt>
   <trkpt lat="10.3877390" lon="123.8802560">
    <ele>280.6</ele>
    <time>2025-11-29T22:10:42Z</time>
   </trkpt>
   <trkpt lat="10.3878040" lon="123.8801490">
    <ele>275.1</ele>
    <time>2025-11-29T22:11:32Z</time>
   </trkpt>
   <trkpt lat="10.3877830" lon="123.8800820">
    <ele>271.5</ele>
    <time>2025-11-29T22:11:48Z</time>
   </trkpt>
   <trkpt lat="10.3877920" lon="123.8800700">
    <ele>270.7</ele>
    <time>2025-11-29T22:11:50Z</time>
   </trkpt>
   <trkpt lat="10.3878180" lon="123.8800800">
    <ele>269.3</ele>
    <time>2025-11-29T22:11:56Z</time>
   </trkpt>
   <trkpt lat="10.3878550" lon="123.8799540">
    <ele>262.4</ele>
    <time>2025-11-29T22:12:35Z</time>
   </trkpt>
   <trkpt lat="10.3878910" lon="123.8799060">
    <ele>259.1</ele>
    <time>2025-11-29T22:12:45Z</time>
   </trkpt>
   <trkpt lat="10.3879920" lon="123.8799490">
    <ele>255.8</ele>
    <time>2025-11-29T22:13:36Z</time>
   </trkpt>
   <trkpt lat="10.3880070" lon="123.8799770">
    <ele>254.9</ele>
    <time>2025-11-29T22:13:41Z</time>
   </trkpt>
   <trkpt lat="10.3880450" lon="123.8799970">
    <ele>253.5</ele>
    <time>2025-11-29T22:14:50Z</time>
   </trkpt>
   <trkpt lat="10.3881350" lon="123.8799860">
    <ele>250.9</ele>
    <time>2025-11-29T22:15:05Z</time>
   </trkpt>
   <trkpt lat="10.3881060" lon="123.8799260">
    <ele>249.2</ele>
    <time>2025-11-29T22:15:20Z</time>
   </trkpt>
   <trkpt lat="10.3881350" lon="123.8798840">
    <ele>247.8</ele>
    <time>2025-11-29T22:15:27Z</time>
   </trkpt>
   <trkpt lat="10.3881350" lon="123.8798720">
    <ele>247.5</ele>
    <time>2025-11-29T22:15:29Z</time>
   </trkpt>
   <trkpt lat="10.3881180" lon="123.8798730">
    <ele>247.1</ele>
    <time>2025-11-29T22:15:34Z</time>
   </trkpt>
   <trkpt lat="10.3881600" lon="123.8798730">
    <ele>245.9</ele>
    <time>2025-11-29T22:15:50Z</time>
   </trkpt>
   <trkpt lat="10.3881690" lon="123.8798480">
    <ele>244.9</ele>
    <time>2025-11-29T22:16:04Z</time>
   </trkpt>
   <trkpt lat="10.3882260" lon="123.8798100">
    <ele>243.1</ele>
    <time>2025-11-29T22:16:14Z</time>
   </trkpt>
   <trkpt lat="10.3882710" lon="123.8797400">
    <ele>241.1</ele>
    <time>2025-11-29T22:16:36Z</time>
   </trkpt>
   <trkpt lat="10.3883370" lon="123.8797300">
    <ele>239.2</ele>
    <time>2025-11-29T22:17:36Z</time>
   </trkpt>
   <trkpt lat="10.3882840" lon="123.8797260">
    <ele>237.9</ele>
    <time>2025-11-29T22:18:54Z</time>
   </trkpt>
   <trkpt lat="10.3882660" lon="123.8797090">
    <ele>237.2</ele>
    <time>2025-11-29T22:18:58Z</time>
   </trkpt>
   <trkpt lat="10.3883150" lon="123.8797570">
    <ele>235.7</ele>
    <time>2025-11-29T22:19:29Z</time>
   </trkpt>
   <trkpt lat="10.3883590" lon="123.8796790">
    <ele>233.7</ele>
    <time>2025-11-29T22:21:07Z</time>
   </trkpt>
   <trkpt lat="10.3883180" lon="123.8796560">
    <ele>232.7</ele>
    <time>2025-11-29T22:21:57Z</time>
   </trkpt>
   <trkpt lat="10.3883590" lon="123.8796130">
    <ele>231.5</ele>
    <time>2025-11-29T22:22:51Z</time>
   </trkpt>
   <trkpt lat="10.3883020" lon="123.8796780">
    <ele>230.1</ele>
    <time>2025-11-29T22:24:38Z</time>
   </trkpt>
   <trkpt lat="10.3883730" lon="123.8796980">
    <ele>229.0</ele>
    <time>2025-11-29T22:27:01Z</time>
   </trkpt>
   <trkpt lat="10.3883520" lon="123.8797270">
    <ele>229.2</ele>
    <time>2025-11-29T22:27:57Z</time>
   </trkpt>
   <trkpt lat="10.3883630" lon="123.8796550">
    <ele>229.6</ele>
    <time>2025-11-29T22:28:38Z</time>
   </trkpt>
   <trkpt lat="10.3883680" lon="123.8796670">
    <ele>229.6</ele>
    <time>2025-11-29T22:28:43Z</time>
   </trkpt>
   <trkpt lat="10.3883700" lon="123.8796550">
    <ele>229.7</ele>
    <time>2025-11-29T22:29:34Z</time>
   </trkpt>
   <trkpt lat="10.3883880" lon="123.8796550">
    <ele>229.8</ele>
    <time>2025-11-29T22:29:36Z</time>
   </trkpt>
   <trkpt lat="10.3884220" lon="123.8796750">
    <ele>230.1</ele>
    <time>2025-11-29T22:29:43Z</time>
   </trkpt>
   <trkpt lat="10.3884420" lon="123.8796250">
    <ele>230.6</ele>
    <time>2025-11-29T22:30:04Z</time>
   </trkpt>
   <trkpt lat="10.3883900" lon="123.8796350">
    <ele>230.9</ele>
    <time>2025-11-29T22:30:08Z</time>
   </trkpt>
   <trkpt lat="10.3884620" lon="123.8796380">
    <ele>231.5</ele>
    <time>2025-11-29T22:30:24Z</time>
   </trkpt>
   <trkpt lat="10.3884920" lon="123.8796050">
    <ele>232.0</ele>
    <time>2025-11-29T22:31:02Z</time>
   </trkpt>
   <trkpt lat="10.3884630" lon="123.8796330">
    <ele>232.5</ele>
    <time>2025-11-29T22:31:32Z</time>
   </trkpt>
   <trkpt lat="10.3884170" lon="123.8796330">
    <ele>232.9</ele>
    <time>2025-11-29T22:31:43Z</time>
   </trkpt>
   <trkpt lat="10.3884460" lon="123.8795920">
    <ele>233.5</ele>
    <time>2025-11-29T22:31:48Z</time>
   </trkpt>
   <trkpt lat="10.3884550" lon="123.8795300">
    <ele>234.3</ele>
    <time>2025-11-29T22:32:00Z</time>
   </trkpt>
   <trkpt lat="10.3884650" lon="123.8795380">
    <ele>234.4</ele>
    <time>2025-11-29T22:32:03Z</time>
   </trkpt>
   <trkpt lat="10.3884430" lon="123.8795380">
    <ele>234.7</ele>
    <time>2025-11-29T22:32:10Z</time>
   </trkpt>
   <trkpt lat="10.3884050" lon="123.8795780">
    <ele>235.4</ele>
    <time>2025-11-29T22:32:16Z</time>
   </trkpt>
   <trkpt lat="10.3883680" lon="123.8795700">
    <ele>235.9</ele>
    <time>2025-11-29T22:32:20Z</time>
   </trkpt>
   <trkpt lat="10.3884020" lon="123.8795520">
    <ele>236.4</ele>
    <time>2025-11-29T22:32:28Z</time>
   </trkpt>
   <trkpt lat="10.3884030" lon="123.8795170">
    <ele>236.9</ele>
    <time>2025-11-29T22:32:32Z</time>
   </trkpt>
   <trkpt lat="10.3884270" lon="123.8795000">
    <ele>237.3</ele>
    <time>2025-11-29T22:32:35Z</time>
   </trkpt>
   <trkpt lat="10.3884570" lon="123.8794980">
    <ele>237.7</ele>
    <time>2025-11-29T22:32:40Z</time>
   </trkpt>
   <trkpt lat="10.3884400" lon="123.8795380">
    <ele>238.2</ele>
    <time>2025-11-29T22:33:01Z</time>
   </trkpt>
   <trkpt lat="10.3884230" lon="123.8795420">
    <ele>238.5</ele>
    <time>2025-11-29T22:33:04Z</time>
   </trkpt>
   <trkpt lat="10.3884730" lon="123.8795180">
    <ele>239.7</ele>
    <time>2025-11-29T22:33:17Z</time>
   </trkpt>
   <trkpt lat="10.3884430" lon="123.8795100">
    <ele>240.1</ele>
    <time>2025-11-29T22:33:22Z</time>
   </trkpt>
   <trkpt lat="10.3884520" lon="123.8795200">
    <ele>240.5</ele>
    <time>2025-11-29T22:33:27Z</time>
   </trkpt>
   <trkpt lat="10.3884100" lon="123.8795250">
    <ele>241.0</ele>
    <time>2025-11-29T22:33:33Z</time>
   </trkpt>
   <trkpt lat="10.3884700" lon="123.8794700">
    <ele>242.0</ele>
    <time>2025-11-29T22:33:48Z</time>
   </trkpt>
   <trkpt lat="10.3883970" lon="123.8794700">
    <ele>242.8</ele>
    <time>2025-11-29T22:34:00Z</time>
   </trkpt>
   <trkpt lat="10.3884280" lon="123.8794050">
    <ele>243.9</ele>
    <time>2025-11-29T22:34:15Z</time>
   </trkpt>
   <trkpt lat="10.3884220" lon="123.8794270">
    <ele>244.1</ele>
    <time>2025-11-29T22:34:19Z</time>
   </trkpt>
   <trkpt lat="10.3884400" lon="123.8794400">
    <ele>244.3</ele>
    <time>2025-11-29T22:34:26Z</time>
   </trkpt>
   <trkpt lat="10.3884430" lon="123.8794270">
    <ele>244.4</ele>
    <time>2025-11-29T22:34:33Z</time>
   </trkpt>
   <trkpt lat="10.3884670" lon="123.8794300">
    <ele>244.6</ele>
    <time>2025-11-29T22:34:43Z</time>
   </trkpt>
   <trkpt lat="10.3884250" lon="123.8794700">
    <ele>245.1</ele>
    <time>2025-11-29T22:34:47Z</time>
   </trkpt>
   <trkpt lat="10.3884670" lon="123.8794730">
    <ele>245.4</ele>
    <time>2025-11-29T22:34:56Z</time>
   </trkpt>
   <trkpt lat="10.3884920" lon="123.8794900">
    <ele>245.6</ele>
    <time>2025-11-29T22:34:59Z</time>
   </trkpt>
   <trkpt lat="10.3885030" lon="123.8794830">
    <ele>245.6</ele>
    <time>2025-11-29T22:35:01Z</time>
   </trkpt>
   <trkpt lat="10.3885050" lon="123.8794330">
    <ele>245.9</ele>
    <time>2025-11-29T22:35:03Z</time>
   </trkpt>
   <trkpt lat="10.3884900" lon="123.8794250">
    <ele>246.0</ele>
    <time>2025-11-29T22:35:05Z</time>
   </trkpt>
   <trkpt lat="10.3884920" lon="123.8794430">
    <ele>246.1</ele>
    <time>2025-11-29T22:35:10Z</time>
   </trkpt>
   <trkpt lat="10.3884750" lon="123.8794570">
    <ele>246.3</ele>
    <time>2025-11-29T22:35:12Z</time>
   </trkpt>
   <trkpt lat="10.3884870" lon="123.8794580">
    <ele>246.4</ele>
    <time>2025-11-29T22:35:16Z</time>
   </trkpt>
   <trkpt lat="10.3884780" lon="123.8794250">
    <ele>246.5</ele>
    <time>2025-11-29T22:35:22Z</time>
   </trkpt>
   <trkpt lat="10.3884980" lon="123.8793920">
    <ele>246.6</ele>
    <time>2025-11-29T22:35:27Z</time>
   </trkpt>
   <trkpt lat="10.3885470" lon="123.8793970">
    <ele>246.8</ele>
    <time>2025-11-29T22:35:32Z</time>
   </trkpt>
   <trkpt lat="10.3885530" lon="123.8794220">
    <ele>246.9</ele>
    <time>2025-11-29T22:35:36Z</time>
   </trkpt>
   <trkpt lat="10.3885470" lon="123.8794100">
    <ele>247.0</ele>
    <time>2025-11-29T22:35:39Z</time>
   </trkpt>
   <trkpt lat="10.3885280" lon="123.8794280">
    <ele>247.0</ele>
    <time>2025-11-29T22:35:42Z</time>
   </trkpt>
   <trkpt lat="10.3885270" lon="123.8794750">
    <ele>247.1</ele>
    <time>2025-11-29T22:35:50Z</time>
   </trkpt>
   <trkpt lat="10.3884180" lon="123.8794720">
    <ele>247.4</ele>
    <time>2025-11-29T22:37:07Z</time>
   </trkpt>
   <trkpt lat="10.3884680" lon="123.8794800">
    <ele>247.5</ele>
    <time>2025-11-29T22:39:44Z</time>
   </trkpt>
   <trkpt lat="10.3884980" lon="123.8794520">
    <ele>247.6</ele>
    <time>2025-11-29T22:40:22Z</time>
   </trkpt>
   <trkpt lat="10.3884820" lon="123.8794250">
    <ele>247.7</ele>
    <time>2025-11-29T22:42:47Z</time>
   </trkpt>
   <trkpt lat="10.3884340" lon="123.8794030">
    <ele>247.9</ele>
    <time>2025-11-29T22:44:14Z</time>
   </trkpt>
   <trkpt lat="10.3883810" lon="123.8794240">
    <ele>248.1</ele>
    <time>2025-11-29T22:45:27Z</time>
   </trkpt>
   <trkpt lat="10.3883970" lon="123.8793350">
    <ele>248.3</ele>
    <time>2025-11-29T22:45:51Z</time>
   </trkpt>
   <trkpt lat="10.3883700" lon="123.8792700">
    <ele>248.6</ele>
    <time>2025-11-29T22:48:07Z</time>
   </trkpt>
   <trkpt lat="10.3883670" lon="123.8793120">
    <ele>248.8</ele>
    <time>2025-11-29T22:48:47Z</time>
   </trkpt>
   <trkpt lat="10.3883520" lon="123.8792470">
    <ele>249.1</ele>
    <time>2025-11-29T22:50:53Z</time>
   </trkpt>
   <trkpt lat="10.3883570" lon="123.8791980">
    <ele>249.3</ele>
    <time>2025-11-29T22:51:31Z</time>
   </trkpt>
   <trkpt lat="10.3884450" lon="123.8791300">
    <ele>249.9</ele>
    <time>2025-11-29T22:52:31Z</time>
   </trkpt>
   <trkpt lat="10.3884700" lon="123.8791570">
    <ele>250.1</ele>
    <time>2025-11-29T22:52:52Z</time>
   </trkpt>
   <trkpt lat="10.3884730" lon="123.8790970">
    <ele>250.4</ele>
    <time>2025-11-29T22:53:20Z</time>
   </trkpt>
   <trkpt lat="10.3884420" lon="123.8790800">
    <ele>250.6</ele>
    <time>2025-11-29T22:53:28Z</time>
   </trkpt>
   <trkpt lat="10.3884570" lon="123.8790680">
    <ele>250.7</ele>
    <time>2025-11-29T22:53:30Z</time>
   </trkpt>
   <trkpt lat="10.3884220" lon="123.8790900">
    <ele>250.9</ele>
    <time>2025-11-29T22:53:52Z</time>
   </trkpt>
   <trkpt lat="10.3884300" lon="123.8790730">
    <ele>251.0</ele>
    <time>2025-11-29T22:53:56Z</time>
   </trkpt>
   <trkpt lat="10.3884050" lon="123.8790670">
    <ele>251.1</ele>
    <time>2025-11-29T22:54:00Z</time>
   </trkpt>
   <trkpt lat="10.3883980" lon="123.8790880">
    <ele>251.3</ele>
    <time>2025-11-29T22:54:08Z</time>
   </trkpt>
   <trkpt lat="10.3884250" lon="123.8791000">
    <ele>251.5</ele>
    <time>2025-11-29T22:54:12Z</time>
   </trkpt>
   <trkpt lat="10.3884420" lon="123.8790870">
    <ele>251.6</ele>
    <time>2025-11-29T22:54:15Z</time>
   </trkpt>
   <trkpt lat="10.3884180" lon="123.8790250">
    <ele>252.0</ele>
    <time>2025-11-29T22:54:28Z</time>
   </trkpt>
   <trkpt lat="10.3884500" lon="123.8790430">
    <ele>252.2</ele>
    <time>2025-11-29T22:54:38Z</time>
   </trkpt>
   <trkpt lat="10.3884680" lon="123.8790730">
    <ele>252.4</ele>
    <time>2025-11-29T22:54:50Z</time>
   </trkpt>
   <trkpt lat="10.3885260" lon="123.8790920">
    <ele>252.9</ele>
    <time>2025-11-29T22:55:00Z</time>
   </trkpt>
   <trkpt lat="10.3884820" lon="123.8790450">
    <ele>253.3</ele>
    <time>2025-11-29T22:55:28Z</time>
   </trkpt>
   <trkpt lat="10.3884770" lon="123.8790170">
    <ele>253.4</ele>
    <time>2025-11-29T22:55:32Z</time>
   </trkpt>
   <trkpt lat="10.3884470" lon="123.8790000">
    <ele>253.6</ele>
    <time>2025-11-29T22:55:59Z</time>
   </trkpt>
   <trkpt lat="10.3884600" lon="123.8789350">
    <ele>254.1</ele>
    <time>2025-11-29T22:56:06Z</time>
   </trkpt>
   <trkpt lat="10.3884430" lon="123.8789350">
    <ele>254.2</ele>
    <time>2025-11-29T22:56:09Z</time>
   </trkpt>
   <trkpt lat="10.3884080" lon="123.8789800">
    <ele>254.6</ele>
    <time>2025-11-29T22:56:43Z</time>
   </trkpt>
   <trkpt lat="10.3884080" lon="123.8789320">
    <ele>254.9</ele>
    <time>2025-11-29T22:56:46Z</time>
   </trkpt>
   <trkpt lat="10.3884320" lon="123.8788600">
    <ele>255.4</ele>
    <time>2025-11-29T22:56:54Z</time>
   </trkpt>
   <trkpt lat="10.3884030" lon="123.8788930">
    <ele>255.7</ele>
    <time>2025-11-29T22:56:59Z</time>
   </trkpt>
   <trkpt lat="10.3883980" lon="123.8788530">
    <ele>256.0</ele>
    <time>2025-11-29T22:57:26Z</time>
   </trkpt>
   <trkpt lat="10.3883480" lon="123.8788750">
    <ele>256.4</ele>
    <time>2025-11-29T22:57:47Z</time>
   </trkpt>
   <trkpt lat="10.3883830" lon="123.8789020">
    <ele>256.8</ele>
    <time>2025-11-29T22:58:08Z</time>
   </trkpt>
   <trkpt lat="10.3883440" lon="123.8788790">
    <ele>257.1</ele>
    <time>2025-11-29T22:58:14Z</time>
   </trkpt>
   <trkpt lat="10.3883030" lon="123.8788870">
    <ele>257.4</ele>
    <time>2025-11-29T22:58:27Z</time>
   </trkpt>
   <trkpt lat="10.3882720" lon="123.8788650">
    <ele>257.6</ele>
    <time>2025-11-29T22:58:32Z</time>
   </trkpt>
   <trkpt lat="10.3882320" lon="123.8788620">
    <ele>257.9</ele>
    <time>2025-11-29T22:58:40Z</time>
   </trkpt>
   <trkpt lat="10.3881850" lon="123.8789000">
    <ele>258.3</ele>
    <time>2025-11-29T22:59:01Z</time>
   </trkpt>
   <trkpt lat="10.3881980" lon="123.8788920">
    <ele>258.4</ele>
    <time>2025-11-29T22:59:04Z</time>
   </trkpt>
   <trkpt lat="10.3881920" lon="123.8788750">
    <ele>258.5</ele>
    <time>2025-11-29T22:59:09Z</time>
   </trkpt>
   <trkpt lat="10.3881100" lon="123.8787980">
    <ele>259.2</ele>
    <time>2025-11-29T22:59:37Z</time>
   </trkpt>
   <trkpt lat="10.3881850" lon="123.8787610">
    <ele>259.4</ele>
    <time>2025-11-29T22:59:49Z</time>
   </trkpt>
   <trkpt lat="10.3881020" lon="123.8785250">
    <ele>259.8</ele>
    <time>2025-11-29T23:01:54Z</time>
   </trkpt>
   <trkpt lat="10.3881830" lon="123.8784570">
    <ele>260.7</ele>
    <time>2025-11-29T23:02:35Z</time>
   </trkpt>
   <trkpt lat="10.3882450" lon="123.8784450">
    <ele>261.3</ele>
    <time>2025-11-29T23:02:43Z</time>
   </trkpt>
   <trkpt lat="10.3882150" lon="123.8784050">
    <ele>261.8</ele>
    <time>2025-11-29T23:03:04Z</time>
   </trkpt>
   <trkpt lat="10.3882330" lon="123.8784030">
    <ele>261.9</ele>
    <time>2025-11-29T23:03:10Z</time>
   </trkpt>
   <trkpt lat="10.3882700" lon="123.8783280">
    <ele>262.2</ele>
    <time>2025-11-29T23:03:23Z</time>
   </trkpt>
   <trkpt lat="10.3883450" lon="123.8783080">
    <ele>262.6</ele>
    <time>2025-11-29T23:03:36Z</time>
   </trkpt>
   <trkpt lat="10.3883750" lon="123.8782470">
    <ele>263.0</ele>
    <time>2025-11-29T23:03:43Z</time>
   </trkpt>
   <trkpt lat="10.3883900" lon="123.8781480">
    <ele>263.7</ele>
    <time>2025-11-29T23:04:49Z</time>
   </trkpt>
   <trkpt lat="10.3883750" lon="123.8781050">
    <ele>264.1</ele>
    <time>2025-11-29T23:04:54Z</time>
   </trkpt>
   <trkpt lat="10.3883630" lon="123.8781070">
    <ele>264.2</ele>
    <time>2025-11-29T23:04:56Z</time>
   </trkpt>
   <trkpt lat="10.3883420" lon="123.8780730">
    <ele>264.5</ele>
    <time>2025-11-29T23:05:17Z</time>
   </trkpt>
   <trkpt lat="10.3883430" lon="123.8780450">
    <ele>264.8</ele>
    <time>2025-11-29T23:05:22Z</time>
   </trkpt>
   <trkpt lat="10.3883700" lon="123.8780350">
    <ele>265.1</ele>
    <time>2025-11-29T23:05:27Z</time>
   </trkpt>
   <trkpt lat="10.3884670" lon="123.8780970">
    <ele>266.2</ele>
    <time>2025-11-29T23:05:59Z</time>
   </trkpt>
   <trkpt lat="10.3885680" lon="123.8781130">
    <ele>267.4</ele>
    <time>2025-11-29T23:06:30Z</time>
   </trkpt>
   <trkpt lat="10.3886750" lon="123.8780630">
    <ele>268.8</ele>
    <time>2025-11-29T23:06:46Z</time>
   </trkpt>
   <trkpt lat="10.3886670" lon="123.8779880">
    <ele>269.7</ele>
    <time>2025-11-29T23:07:02Z</time>
   </trkpt>
   <trkpt lat="10.3887220" lon="123.8779320">
    <ele>270.7</ele>
    <time>2025-11-29T23:07:16Z</time>
   </trkpt>
   <trkpt lat="10.3887380" lon="123.8778370">
    <ele>271.9</ele>
    <time>2025-11-29T23:07:40Z</time>
   </trkpt>
   <trkpt lat="10.3887420" lon="123.8778940">
    <ele>272.6</ele>
    <time>2025-11-29T23:07:52Z</time>
   </trkpt>
   <trkpt lat="10.3888280" lon="123.8778700">
    <ele>273.5</ele>
    <time>2025-11-29T23:08:18Z</time>
   </trkpt>
   <trkpt lat="10.3889370" lon="123.8777990">
    <ele>274.8</ele>
    <time>2025-11-29T23:08:30Z</time>
   </trkpt>
   <trkpt lat="10.3889740" lon="123.8778160">
    <ele>275.2</ele>
    <time>2025-11-29T23:08:37Z</time>
   </trkpt>
   <trkpt lat="10.3889560" lon="123.8777890">
    <ele>275.5</ele>
    <time>2025-11-29T23:08:43Z</time>
   </trkpt>
   <trkpt lat="10.3890020" lon="123.8778330">
    <ele>276.0</ele>
    <time>2025-11-29T23:08:57Z</time>
   </trkpt>
   <trkpt lat="10.3890940" lon="123.8777930">
    <ele>277.0</ele>
    <time>2025-11-29T23:09:18Z</time>
   </trkpt>
   <trkpt lat="10.3890250" lon="123.8777650">
    <ele>277.6</ele>
    <time>2025-11-29T23:09:23Z</time>
   </trkpt>
   <trkpt lat="10.3890290" lon="123.8777410">
    <ele>277.8</ele>
    <time>2025-11-29T23:09:25Z</time>
   </trkpt>
   <trkpt lat="10.3889830" lon="123.8777120">
    <ele>278.3</ele>
    <time>2025-11-29T23:09:40Z</time>
   </trkpt>
   <trkpt lat="10.3890070" lon="123.8776070">
    <ele>279.3</ele>
    <time>2025-11-29T23:09:53Z</time>
   </trkpt>
   <trkpt lat="10.3890330" lon="123.8776600">
    <ele>279.8</ele>
    <time>2025-11-29T23:10:01Z</time>
   </trkpt>
   <trkpt lat="10.3890320" lon="123.8776710">
    <ele>280.0</ele>
    <time>2025-11-29T23:10:03Z</time>
   </trkpt>
   <trkpt lat="10.3890020" lon="123.8776620">
    <ele>280.5</ele>
    <time>2025-11-29T23:10:38Z</time>
   </trkpt>
   <trkpt lat="10.3889560" lon="123.8775940">
    <ele>281.4</ele>
    <time>2025-11-29T23:10:47Z</time>
   </trkpt>
   <trkpt lat="10.3889680" lon="123.8775720">
    <ele>281.8</ele>
    <time>2025-11-29T23:10:54Z</time>
   </trkpt>
   <trkpt lat="10.3889980" lon="123.8775950">
    <ele>282.2</ele>
    <time>2025-11-29T23:10:58Z</time>
   </trkpt>
   <trkpt lat="10.3889910" lon="123.8775620">
    <ele>282.6</ele>
    <time>2025-11-29T23:11:00Z</time>
   </trkpt>
   <trkpt lat="10.3889480" lon="123.8775670">
    <ele>283.1</ele>
    <time>2025-11-29T23:11:06Z</time>
   </trkpt>
   <trkpt lat="10.3889540" lon="123.8775830">
    <ele>283.3</ele>
    <time>2025-11-29T23:11:10Z</time>
   </trkpt>
   <trkpt lat="10.3889820" lon="123.8775920">
    <ele>283.9</ele>
    <time>2025-11-29T23:11:21Z</time>
   </trkpt>
   <trkpt lat="10.3889660" lon="123.8776090">
    <ele>284.3</ele>
    <time>2025-11-29T23:11:25Z</time>
   </trkpt>
   <trkpt lat="10.3889470" lon="123.8775960">
    <ele>284.7</ele>
    <time>2025-11-29T23:11:34Z</time>
   </trkpt>
   <trkpt lat="10.3889620" lon="123.8775920">
    <ele>285.0</ele>
    <time>2025-11-29T23:11:38Z</time>
   </trkpt>
   <trkpt lat="10.3889450" lon="123.8775890">
    <ele>285.2</ele>
    <time>2025-11-29T23:11:44Z</time>
   </trkpt>
   <trkpt lat="10.3889720" lon="123.8776130">
    <ele>285.8</ele>
    <time>2025-11-29T23:12:10Z</time>
   </trkpt>
   <trkpt lat="10.3889930" lon="123.8776040">
    <ele>286.2</ele>
    <time>2025-11-29T23:12:15Z</time>
   </trkpt>
   <trkpt lat="10.3889910" lon="123.8776140">
    <ele>286.3</ele>
    <time>2025-11-29T23:12:19Z</time>
   </trkpt>
   <trkpt lat="10.3889880" lon="123.8775900">
    <ele>286.7</ele>
    <time>2025-11-29T23:12:25Z</time>
   </trkpt>
   <trkpt lat="10.3890120" lon="123.8776340">
    <ele>287.5</ele>
    <time>2025-11-29T23:12:38Z</time>
   </trkpt>
   <trkpt lat="10.3889780" lon="123.8776170">
    <ele>288.0</ele>
    <time>2025-11-29T23:12:47Z</time>
   </trkpt>
   <trkpt lat="10.3889700" lon="123.8776310">
    <ele>288.2</ele>
    <time>2025-11-29T23:12:50Z</time>
   </trkpt>
   <trkpt lat="10.3889880" lon="123.8776530">
    <ele>288.6</ele>
    <time>2025-11-29T23:12:57Z</time>
   </trkpt>
   <trkpt lat="10.3889790" lon="123.8776350">
    <ele>288.8</ele>
    <time>2025-11-29T23:12:59Z</time>
   </trkpt>
   <trkpt lat="10.3889690" lon="123.8776400">
    <ele>289.0</ele>
    <time>2025-11-29T23:13:03Z</time>
   </trkpt>
   <trkpt lat="10.3889810" lon="123.8776580">
    <ele>289.3</ele>
    <time>2025-11-29T23:13:06Z</time>
   </trkpt>
   <trkpt lat="10.3889920" lon="123.8776250">
    <ele>289.7</ele>
    <time>2025-11-29T23:13:21Z</time>
   </trkpt>
   <trkpt lat="10.3890480" lon="123.8776670">
    <ele>290.6</ele>
    <time>2025-11-29T23:13:35Z</time>
   </trkpt>
   <trkpt lat="10.3890650" lon="123.8776630">
    <ele>290.9</ele>
    <time>2025-11-29T23:13:40Z</time>
   </trkpt>
   <trkpt lat="10.3890720" lon="123.8776850">
    <ele>291.2</ele>
    <time>2025-11-29T23:13:42Z</time>
   </trkpt>
   <trkpt lat="10.3890260" lon="123.8776510">
    <ele>291.9</ele>
    <time>2025-11-29T23:13:51Z</time>
   </trkpt>
   <trkpt lat="10.3890600" lon="123.8777400">
    <ele>293.0</ele>
    <time>2025-11-29T23:14:04Z</time>
   </trkpt>
   <trkpt lat="10.3890500" lon="123.8777460">
    <ele>293.1</ele>
    <time>2025-11-29T23:14:11Z</time>
   </trkpt>
   <trkpt lat="10.3890380" lon="123.8777020">
    <ele>293.6</ele>
    <time>2025-11-29T23:14:17Z</time>
   </trkpt>
   <trkpt lat="10.3890550" lon="123.8776900">
    <ele>293.9</ele>
    <time>2025-11-29T23:14:26Z</time>
   </trkpt>
   <trkpt lat="10.3890530" lon="123.8777030">
    <ele>294.0</ele>
    <time>2025-11-29T23:14:29Z</time>
   </trkpt>
   <trkpt lat="10.3890430" lon="123.8776900">
    <ele>294.5</ele>
    <time>2025-11-29T23:14:42Z</time>
   </trkpt>
   <trkpt lat="10.3889930" lon="123.8775880">
    <ele>295.6</ele>
    <time>2025-11-29T23:15:29Z</time>
   </trkpt>
   <trkpt lat="10.3889840" lon="123.8775930">
    <ele>295.7</ele>
    <time>2025-11-29T23:15:32Z</time>
   </trkpt>
   <trkpt lat="10.3889910" lon="123.8776220">
    <ele>296.0</ele>
    <time>2025-11-29T23:15:42Z</time>
   </trkpt>
   <trkpt lat="10.3890060" lon="123.8775970">
    <ele>296.3</ele>
    <time>2025-11-29T23:15:45Z</time>
   </trkpt>
   <trkpt lat="10.3890260" lon="123.8776110">
    <ele>296.6</ele>
    <time>2025-11-29T23:15:47Z</time>
   </trkpt>
   <trkpt lat="10.3890020" lon="123.8776440">
    <ele>297.1</ele>
    <time>2025-11-29T23:15:55Z</time>
   </trkpt>
   <trkpt lat="10.3890100" lon="123.8776630">
    <ele>297.4</ele>
    <time>2025-11-29T23:16:01Z</time>
   </trkpt>
   <trkpt lat="10.3890000" lon="123.8776400">
    <ele>297.7</ele>
    <time>2025-11-29T23:16:09Z</time>
   </trkpt>
   <trkpt lat="10.3890480" lon="123.8776600">
    <ele>298.3</ele>
    <time>2025-11-29T23:16:19Z</time>
   </trkpt>
   <trkpt lat="10.3890540" lon="123.8776690">
    <ele>298.4</ele>
    <time>2025-11-29T23:16:20Z</time>
   </trkpt>
   <trkpt lat="10.3890300" lon="123.8776850">
    <ele>298.7</ele>
    <time>2025-11-29T23:16:29Z</time>
   </trkpt>
   <trkpt lat="10.3890610" lon="123.8776470">
    <ele>299.3</ele>
    <time>2025-11-29T23:16:38Z</time>
   </trkpt>
   <trkpt lat="10.3890800" lon="123.8776590">
    <ele>299.6</ele>
    <time>2025-11-29T23:16:43Z</time>
   </trkpt>
   <trkpt lat="10.3890690" lon="123.8776970">
    <ele>300.1</ele>
    <time>2025-11-29T23:17:01Z</time>
   </trkpt>
   <trkpt lat="10.3890460" lon="123.8776800">
    <ele>300.4</ele>
    <time>2025-11-29T23:17:03Z</time>
   </trkpt>
   <trkpt lat="10.3890260" lon="123.8775870">
    <ele>301.6</ele>
    <time>2025-11-29T23:17:28Z</time>
   </trkpt>
   <trkpt lat="10.3890050" lon="123.8775880">
    <ele>301.8</ele>
    <time>2025-11-29T23:17:30Z</time>
   </trkpt>
   <trkpt lat="10.3889850" lon="123.8776200">
    <ele>302.3</ele>
    <time>2025-11-29T23:17:35Z</time>
   </trkpt>
   <trkpt lat="10.3889980" lon="123.8775850">
    <ele>302.8</ele>
    <time>2025-11-29T23:17:43Z</time>
   </trkpt>
   <trkpt lat="10.3889900" lon="123.8775550">
    <ele>303.2</ele>
    <time>2025-11-29T23:17:48Z</time>
   </trkpt>
   <trkpt lat="10.3890080" lon="123.8775270">
    <ele>303.6</ele>
    <time>2025-11-29T23:17:52Z</time>
   </trkpt>
   <trkpt lat="10.3890000" lon="123.8775580">
    <ele>304.1</ele>
    <time>2025-11-29T23:18:00Z</time>
   </trkpt>
   <trkpt lat="10.3890120" lon="123.8775520">
    <ele>304.2</ele>
    <time>2025-11-29T23:18:03Z</time>
   </trkpt>
   <trkpt lat="10.3890370" lon="123.8775120">
    <ele>304.8</ele>
    <time>2025-11-29T23:18:08Z</time>
   </trkpt>
   <trkpt lat="10.3890330" lon="123.8775020">
    <ele>304.9</ele>
    <time>2025-11-29T23:18:11Z</time>
   </trkpt>
   <trkpt lat="10.3890120" lon="123.8775150">
    <ele>305.2</ele>
    <time>2025-11-29T23:18:16Z</time>
   </trkpt>
   <trkpt lat="10.3890150" lon="123.8774900">
    <ele>305.6</ele>
    <time>2025-11-29T23:18:21Z</time>
   </trkpt>
   <trkpt lat="10.3890900" lon="123.8774580">
    <ele>306.6</ele>
    <time>2025-11-29T23:18:35Z</time>
   </trkpt>
   <trkpt lat="10.3891070" lon="123.8774730">
    <ele>306.9</ele>
    <time>2025-11-29T23:18:39Z</time>
   </trkpt>
   <trkpt lat="10.3891250" lon="123.8774570">
    <ele>307.2</ele>
    <time>2025-11-29T23:18:42Z</time>
   </trkpt>
   <trkpt lat="10.3890970" lon="123.8774570">
    <ele>307.6</ele>
    <time>2025-11-29T23:18:51Z</time>
   </trkpt>
   <trkpt lat="10.3891000" lon="123.8774220">
    <ele>308.0</ele>
    <time>2025-11-29T23:18:59Z</time>
   </trkpt>
   <trkpt lat="10.3891250" lon="123.8774320">
    <ele>308.5</ele>
    <time>2025-11-29T23:19:06Z</time>
   </trkpt>
   <trkpt lat="10.3891120" lon="123.8774420">
    <ele>308.6</ele>
    <time>2025-11-29T23:19:08Z</time>
   </trkpt>
   <trkpt lat="10.3891180" lon="123.8774170">
    <ele>308.9</ele>
    <time>2025-11-29T23:19:11Z</time>
   </trkpt>
   <trkpt lat="10.3891070" lon="123.8774070">
    <ele>309.1</ele>
    <time>2025-11-29T23:19:14Z</time>
   </trkpt>
   <trkpt lat="10.3891180" lon="123.8773970">
    <ele>309.3</ele>
    <time>2025-11-29T23:19:16Z</time>
   </trkpt>
   <trkpt lat="10.3891080" lon="123.8773850">
    <ele>309.4</ele>
    <time>2025-11-29T23:19:19Z</time>
   </trkpt>
   <trkpt lat="10.3891530" lon="123.8773850">
    <ele>309.9</ele>
    <time>2025-11-29T23:19:24Z</time>
   </trkpt>
   <trkpt lat="10.3892080" lon="123.8773380">
    <ele>310.8</ele>
    <time>2025-11-29T23:19:41Z</time>
   </trkpt>
   <trkpt lat="10.3891630" lon="123.8773880">
    <ele>311.6</ele>
    <time>2025-11-29T23:20:02Z</time>
   </trkpt>
   <trkpt lat="10.3892120" lon="123.8773970">
    <ele>312.1</ele>
    <time>2025-11-29T23:20:10Z</time>
   </trkpt>
   <trkpt lat="10.3892150" lon="123.8773720">
    <ele>312.5</ele>
    <time>2025-11-29T23:20:17Z</time>
   </trkpt>
   <trkpt lat="10.3892530" lon="123.8773300">
    <ele>313.3</ele>
    <time>2025-11-29T23:21:15Z</time>
   </trkpt>
   <trkpt lat="10.3892380" lon="123.8772420">
    <ele>314.9</ele>
    <time>2025-11-29T23:21:36Z</time>
   </trkpt>
   <trkpt lat="10.3893400" lon="123.8771800">
    <ele>318.3</ele>
    <time>2025-11-29T23:22:16Z</time>
   </trkpt>
   <trkpt lat="10.3894050" lon="123.8772000">
    <ele>322.0</ele>
    <time>2025-11-29T23:23:53Z</time>
   </trkpt>
   <trkpt lat="10.3894120" lon="123.8771680">
    <ele>322.6</ele>
    <time>2025-11-29T23:26:19Z</time>
   </trkpt>
   <trkpt lat="10.3894730" lon="123.8771580">
    <ele>323.9</ele>
    <time>2025-11-29T23:28:16Z</time>
   </trkpt>
   <trkpt lat="10.3895640" lon="123.8771000">
    <ele>325.5</ele>
    <time>2025-11-29T23:28:28Z</time>
   </trkpt>
   <trkpt lat="10.3896330" lon="123.8769990">
    <ele>327.2</ele>
    <time>2025-11-29T23:28:40Z</time>
   </trkpt>
   <trkpt lat="10.3896740" lon="123.8769630">
    <ele>327.8</ele>
    <time>2025-11-29T23:28:46Z</time>
   </trkpt>
   <trkpt lat="10.3897320" lon="123.8768200">
    <ele>329.6</ele>
    <time>2025-11-29T23:29:07Z</time>
   </trkpt>
   <trkpt lat="10.3897680" lon="123.8767750">
    <ele>330.3</ele>
    <time>2025-11-29T23:29:19Z</time>
   </trkpt>
   <trkpt lat="10.3898800" lon="123.8766920">
    <ele>332.2</ele>
    <time>2025-11-29T23:29:45Z</time>
   </trkpt>
   <trkpt lat="10.3899330" lon="123.8766330">
    <ele>333.4</ele>
    <time>2025-11-29T23:30:13Z</time>
   </trkpt>
   <trkpt lat="10.3900600" lon="123.8765500">
    <ele>335.6</ele>
    <time>2025-11-29T23:30:46Z</time>
   </trkpt>
   <trkpt lat="10.3900810" lon="123.8765530">
    <ele>335.9</ele>
    <time>2025-11-29T23:30:50Z</time>
   </trkpt>
   <trkpt lat="10.3901480" lon="123.8764690">
    <ele>337.3</ele>
    <time>2025-11-29T23:31:06Z</time>
   </trkpt>
   <trkpt lat="10.3902030" lon="123.8764280">
    <ele>338.2</ele>
    <time>2025-11-29T23:31:15Z</time>
   </trkpt>
   <trkpt lat="10.3902080" lon="123.8763770">
    <ele>338.8</ele>
    <time>2025-11-29T23:31:22Z</time>
   </trkpt>
   <trkpt lat="10.3902600" lon="123.8763100">
    <ele>339.9</ele>
    <time>2025-11-29T23:31:33Z</time>
   </trkpt>
   <trkpt lat="10.3904060" lon="123.8762570">
    <ele>342.0</ele>
    <time>2025-11-29T23:31:52Z</time>
   </trkpt>
   <trkpt lat="10.3904990" lon="123.8761900">
    <ele>343.6</ele>
    <time>2025-11-29T23:32:08Z</time>
   </trkpt>
   <trkpt lat="10.3905440" lon="123.8761780">
    <ele>344.2</ele>
    <time>2025-11-29T23:32:15Z</time>
   </trkpt>
   <trkpt lat="10.3906480" lon="123.8760580">
    <ele>346.4</ele>
    <time>2025-11-29T23:32:40Z</time>
   </trkpt>
   <trkpt lat="10.3908090" lon="123.8759800">
    <ele>348.8</ele>
    <time>2025-11-29T23:33:07Z</time>
   </trkpt>
   <trkpt lat="10.3908680" lon="123.8759580">
    <ele>349.7</ele>
    <time>2025-11-29T23:33:21Z</time>
   </trkpt>
   <trkpt lat="10.3909940" lon="123.8759490">
    <ele>351.4</ele>
    <time>2025-11-29T23:34:07Z</time>
   </trkpt>
   <trkpt lat="10.3910210" lon="123.8759790">
    <ele>352.1</ele>
    <time>2025-11-29T23:34:15Z</time>
   </trkpt>
   <trkpt lat="10.3910530" lon="123.8759900">
    <ele>352.7</ele>
    <time>2025-11-29T23:34:24Z</time>
   </trkpt>
   <trkpt lat="10.3911140" lon="123.8760740">
    <ele>355.9</ele>
    <time>2025-11-29T23:34:53Z</time>
   </trkpt>
   <trkpt lat="10.3911670" lon="123.8760720">
    <ele>358.6</ele>
    <time>2025-11-29T23:36:38Z</time>
   </trkpt>
   <trkpt lat="10.3912060" lon="123.8760950">
    <ele>360.6</ele>
    <time>2025-11-29T23:36:42Z</time>
   </trkpt>
   <trkpt lat="10.3912850" lon="123.8761070">
    <ele>361.4</ele>
    <time>2025-11-29T23:36:54Z</time>
   </trkpt>
   <trkpt lat="10.3913230" lon="123.8761370">
    <ele>363.1</ele>
    <time>2025-11-29T23:37:04Z</time>
   </trkpt>
   <trkpt lat="10.3914250" lon="123.8761530">
    <ele>364.3</ele>
    <time>2025-11-29T23:37:22Z</time>
   </trkpt>
   <trkpt lat="10.3914430" lon="123.8762260">
    <ele>366.6</ele>
    <time>2025-11-29T23:38:06Z</time>
   </trkpt>
   <trkpt lat="10.3915280" lon="123.8762610">
    <ele>368.4</ele>
    <time>2025-11-29T23:38:13Z</time>
   </trkpt>
   <trkpt lat="10.3916040" lon="123.8762650">
    <ele>369.1</ele>
    <time>2025-11-29T23:38:20Z</time>
   </trkpt>
   <trkpt lat="10.3916890" lon="123.8763240">
    <ele>371.6</ele>
    <time>2025-11-29T23:38:28Z</time>
   </trkpt>
   <trkpt lat="10.3917660" lon="123.8764200">
    <ele>376.0</ele>
    <time>2025-11-29T23:38:49Z</time>
   </trkpt>
   <trkpt lat="10.3919230" lon="123.8764900">
    <ele>380.6</ele>
    <time>2025-11-29T23:39:17Z</time>
   </trkpt>
   <trkpt lat="10.3919420" lon="123.8764580">
    <ele>378.6</ele>
    <time>2025-11-29T23:39:40Z</time>
   </trkpt>
   <trkpt lat="10.3919860" lon="123.8764920">
    <ele>381.0</ele>
    <time>2025-11-29T23:39:58Z</time>
   </trkpt>
   <trkpt lat="10.3920280" lon="123.8764750">
    <ele>380.9</ele>
    <time>2025-11-29T23:40:05Z</time>
   </trkpt>
   <trkpt lat="10.3920880" lon="123.8764920">
    <ele>380.9</ele>
    <time>2025-11-29T23:40:14Z</time>
   </trkpt>
   <trkpt lat="10.3921380" lon="123.8765500">
    <ele>382.8</ele>
    <time>2025-11-29T23:40:22Z</time>
   </trkpt>
   <trkpt lat="10.3922360" lon="123.8766030">
    <ele>386.7</ele>
    <time>2025-11-29T23:40:39Z</time>
   </trkpt>
   <trkpt lat="10.3922620" lon="123.8766040">
    <ele>386.4</ele>
    <time>2025-11-29T23:40:46Z</time>
   </trkpt>
   <trkpt lat="10.3922930" lon="123.8766500">
    <ele>388.5</ele>
    <time>2025-11-29T23:40:54Z</time>
   </trkpt>
   <trkpt lat="10.3923560" lon="123.8767000">
    <ele>390.0</ele>
    <time>2025-11-29T23:41:24Z</time>
   </trkpt>
   <trkpt lat="10.3925750" lon="123.8767420">
    <ele>391.2</ele>
    <time>2025-11-29T23:42:20Z</time>
   </trkpt>
   <trkpt lat="10.3926000" lon="123.8767650">
    <ele>391.4</ele>
    <time>2025-11-29T23:42:26Z</time>
   </trkpt>
   <trkpt lat="10.3926330" lon="123.8767710">
    <ele>391.4</ele>
    <time>2025-11-29T23:42:31Z</time>
   </trkpt>
   <trkpt lat="10.3926870" lon="123.8768300">
    <ele>394.9</ele>
    <time>2025-11-29T23:42:43Z</time>
   </trkpt>
   <trkpt lat="10.3926910" lon="123.8768740">
    <ele>396.7</ele>
    <time>2025-11-29T23:42:50Z</time>
   </trkpt>
   <trkpt lat="10.3927330" lon="123.8769190">
    <ele>398.0</ele>
    <time>2025-11-29T23:42:58Z</time>
   </trkpt>
   <trkpt lat="10.3927620" lon="123.8769300">
    <ele>398.1</ele>
    <time>2025-11-29T23:43:02Z</time>
   </trkpt>
   <trkpt lat="10.3927540" lon="123.8770120">
    <ele>400.9</ele>
    <time>2025-11-29T23:43:16Z</time>
   </trkpt>
   <trkpt lat="10.3927790" lon="123.8769970">
    <ele>400.4</ele>
    <time>2025-11-29T23:43:24Z</time>
   </trkpt>
   <trkpt lat="10.3927860" lon="123.8770150">
    <ele>400.5</ele>
    <time>2025-11-29T23:43:33Z</time>
   </trkpt>
   <trkpt lat="10.3928080" lon="123.8770150">
    <ele>400.6</ele>
    <time>2025-11-29T23:43:39Z</time>
   </trkpt>
   <trkpt lat="10.3928020" lon="123.8770510">
    <ele>402.0</ele>
    <time>2025-11-29T23:44:01Z</time>
   </trkpt>
   <trkpt lat="10.3927790" lon="123.8770520">
    <ele>402.0</ele>
    <time>2025-11-29T23:44:06Z</time>
   </trkpt>
   <trkpt lat="10.3928050" lon="123.8770390">
    <ele>402.5</ele>
    <time>2025-11-29T23:44:50Z</time>
   </trkpt>
   <trkpt lat="10.3927910" lon="123.8770450">
    <ele>402.6</ele>
    <time>2025-11-29T23:44:55Z</time>
   </trkpt>
   <trkpt lat="10.3928130" lon="123.8770910">
    <ele>403.5</ele>
    <time>2025-11-29T23:45:05Z</time>
   </trkpt>
   <trkpt lat="10.3928440" lon="123.8771120">
    <ele>403.5</ele>
    <time>2025-11-29T23:45:11Z</time>
   </trkpt>
   <trkpt lat="10.3928660" lon="123.8771640">
    <ele>405.7</ele>
    <time>2025-11-29T23:45:20Z</time>
   </trkpt>
   <trkpt lat="10.3929280" lon="123.8771800">
    <ele>405.6</ele>
    <time>2025-11-29T23:45:29Z</time>
   </trkpt>
   <trkpt lat="10.3929360" lon="123.8772380">
    <ele>406.4</ele>
    <time>2025-11-29T23:45:40Z</time>
   </trkpt>
   <trkpt lat="10.3929870" lon="123.8773110">
    <ele>408.2</ele>
    <time>2025-11-29T23:45:54Z</time>
   </trkpt>
   <trkpt lat="10.3930950" lon="123.8774250">
    <ele>410.9</ele>
    <time>2025-11-29T23:46:15Z</time>
   </trkpt>
   <trkpt lat="10.3931440" lon="123.8774440">
    <ele>410.2</ele>
    <time>2025-11-29T23:46:22Z</time>
   </trkpt>
   <trkpt lat="10.3931870" lon="123.8774820">
    <ele>410.6</ele>
    <time>2025-11-29T23:46:29Z</time>
   </trkpt>
   <trkpt lat="10.3932210" lon="123.8775430">
    <ele>411.0</ele>
    <time>2025-11-29T23:46:35Z</time>
   </trkpt>
   <trkpt lat="10.3932610" lon="123.8775670">
    <ele>411.5</ele>
    <time>2025-11-29T23:46:42Z</time>
   </trkpt>
   <trkpt lat="10.3933790" lon="123.8775560">
    <ele>410.0</ele>
    <time>2025-11-29T23:47:02Z</time>
   </trkpt>
   <trkpt lat="10.3934150" lon="123.8775780">
    <ele>409.6</ele>
    <time>2025-11-29T23:47:12Z</time>
   </trkpt>
   <trkpt lat="10.3934690" lon="123.8775660">
    <ele>409.9</ele>
    <time>2025-11-29T23:48:20Z</time>
   </trkpt>
   <trkpt lat="10.3935950" lon="123.8773900">
    <ele>408.0</ele>
    <time>2025-11-29T23:49:08Z</time>
   </trkpt>
   <trkpt lat="10.3937130" lon="123.8772980">
    <ele>407.5</ele>
    <time>2025-11-29T23:49:28Z</time>
   </trkpt>
   <trkpt lat="10.3937340" lon="123.8772560">
    <ele>407.5</ele>
    <time>2025-11-29T23:49:33Z</time>
   </trkpt>
   <trkpt lat="10.3937890" lon="123.8772240">
    <ele>407.7</ele>
    <time>2025-11-29T23:49:39Z</time>
   </trkpt>
   <trkpt lat="10.3938590" lon="123.8772290">
    <ele>408.0</ele>
    <time>2025-11-29T23:49:48Z</time>
   </trkpt>
   <trkpt lat="10.3939150" lon="123.8772700">
    <ele>408.4</ele>
    <time>2025-11-29T23:49:57Z</time>
   </trkpt>
   <trkpt lat="10.3939720" lon="123.8772800">
    <ele>408.8</ele>
    <time>2025-11-29T23:50:05Z</time>
   </trkpt>
   <trkpt lat="10.3940310" lon="123.8773300">
    <ele>409.1</ele>
    <time>2025-11-29T23:50:20Z</time>
   </trkpt>
   <trkpt lat="10.3941230" lon="123.8773620">
    <ele>409.4</ele>
    <time>2025-11-29T23:50:33Z</time>
   </trkpt>
   <trkpt lat="10.3941910" lon="123.8774110">
    <ele>409.7</ele>
    <time>2025-11-29T23:50:42Z</time>
   </trkpt>
   <trkpt lat="10.3943100" lon="123.8774610">
    <ele>410.1</ele>
    <time>2025-11-29T23:50:57Z</time>
   </trkpt>
   <trkpt lat="10.3944660" lon="123.8774620">
    <ele>410.9</ele>
    <time>2025-11-29T23:51:20Z</time>
   </trkpt>
   <trkpt lat="10.3944940" lon="123.8774350">
    <ele>411.1</ele>
    <time>2025-11-29T23:51:25Z</time>
   </trkpt>
   <trkpt lat="10.3945110" lon="123.8773910">
    <ele>411.4</ele>
    <time>2025-11-29T23:51:33Z</time>
   </trkpt>
   <trkpt lat="10.3946650" lon="123.8773000">
    <ele>412.8</ele>
    <time>2025-11-29T23:51:58Z</time>
   </trkpt>
   <trkpt lat="10.3947250" lon="123.8771860">
    <ele>414.0</ele>
    <time>2025-11-29T23:52:19Z</time>
   </trkpt>
   <trkpt lat="10.3949180" lon="123.8769790">
    <ele>416.7</ele>
    <time>2025-11-29T23:52:50Z</time>
   </trkpt>
   <trkpt lat="10.3950170" lon="123.8768360">
    <ele>418.6</ele>
    <time>2025-11-29T23:53:12Z</time>
   </trkpt>
   <trkpt lat="10.3950200" lon="123.8768010">
    <ele>419.0</ele>
    <time>2025-11-29T23:53:16Z</time>
   </trkpt>
   <trkpt lat="10.3950440" lon="123.8767720">
    <ele>419.5</ele>
    <time>2025-11-29T23:53:21Z</time>
   </trkpt>
   <trkpt lat="10.3950560" lon="123.8766370">
    <ele>421.0</ele>
    <time>2025-11-29T23:53:35Z</time>
   </trkpt>
   <trkpt lat="10.3950830" lon="123.8765750">
    <ele>421.6</ele>
    <time>2025-11-29T23:53:50Z</time>
   </trkpt>
   <trkpt lat="10.3950940" lon="123.8766170">
    <ele>422.0</ele>
    <time>2025-11-29T23:54:02Z</time>
   </trkpt>
   <trkpt lat="10.3950720" lon="123.8765570">
    <ele>422.3</ele>
    <time>2025-11-29T23:56:26Z</time>
   </trkpt>
   <trkpt lat="10.3950960" lon="123.8765770">
    <ele>422.5</ele>
    <time>2025-11-29T23:57:02Z</time>
   </trkpt>
   <trkpt lat="10.3950850" lon="123.8766020">
    <ele>422.6</ele>
    <time>2025-11-29T23:57:33Z</time>
   </trkpt>
   <trkpt lat="10.3950790" lon="123.8765820">
    <ele>422.6</ele>
    <time>2025-11-29T23:58:12Z</time>
   </trkpt>
   <trkpt lat="10.3950800" lon="123.8766140">
    <ele>422.7</ele>
    <time>2025-11-29T23:58:25Z</time>
   </trkpt>
   <trkpt lat="10.3951080" lon="123.8766220">
    <ele>422.8</ele>
    <time>2025-11-29T23:59:43Z</time>
   </trkpt>
   <trkpt lat="10.3950900" lon="123.8765870">
    <ele>422.9</ele>
    <time>2025-11-30T00:00:17Z</time>
   </trkpt>
   <trkpt lat="10.3951020" lon="123.8765830">
    <ele>423.0</ele>
    <time>2025-11-30T00:01:07Z</time>
   </trkpt>
   <trkpt lat="10.3950750" lon="123.8765700">
    <ele>423.1</ele>
    <time>2025-11-30T00:02:24Z</time>
   </trkpt>
   <trkpt lat="10.3950950" lon="123.8765650">
    <ele>423.1</ele>
    <time>2025-11-30T00:02:53Z</time>
   </trkpt>
   <trkpt lat="10.3950660" lon="123.8766420">
    <ele>423.4</ele>
    <time>2025-11-30T00:03:14Z</time>
   </trkpt>
   <trkpt lat="10.3950840" lon="123.8766240">
    <ele>423.6</ele>
    <time>2025-11-30T00:03:43Z</time>
   </trkpt>
   <trkpt lat="10.3950980" lon="123.8766300">
    <ele>423.6</ele>
    <time>2025-11-30T00:03:49Z</time>
   </trkpt>
   <trkpt lat="10.3951120" lon="123.8765980">
    <ele>423.7</ele>
    <time>2025-11-30T00:03:57Z</time>
   </trkpt>
   <trkpt lat="10.3951020" lon="123.8765720">
    <ele>423.8</ele>
    <time>2025-11-30T00:04:01Z</time>
   </trkpt>
   <trkpt lat="10.3950770" lon="123.8765590">
    <ele>423.9</ele>
    <time>2025-11-30T00:04:07Z</time>
   </trkpt>
   <trkpt lat="10.3950840" lon="123.8765420">
    <ele>423.9</ele>
    <time>2025-11-30T00:04:13Z</time>
   </trkpt>
   <trkpt lat="10.3951900" lon="123.8764280">
    <ele>424.1</ele>
    <time>2025-11-30T00:04:36Z</time>
   </trkpt>
   <trkpt lat="10.3954380" lon="123.8762340">
    <ele>424.1</ele>
    <time>2025-11-30T00:05:15Z</time>
   </trkpt>
   <trkpt lat="10.3954950" lon="123.8762200">
    <ele>424.1</ele>
    <time>2025-11-30T00:05:24Z</time>
   </trkpt>
   <trkpt lat="10.3955290" lon="123.8761880">
    <ele>424.2</ele>
    <time>2025-11-30T00:05:30Z</time>
   </trkpt>
   <trkpt lat="10.3955550" lon="123.8761040">
    <ele>424.4</ele>
    <time>2025-11-30T00:05:38Z</time>
   </trkpt>
   <trkpt lat="10.3955610" lon="123.8759820">
    <ele>425.2</ele>
    <time>2025-11-30T00:05:53Z</time>
   </trkpt>
   <trkpt lat="10.3956130" lon="123.8758710">
    <ele>426.2</ele>
    <time>2025-11-30T00:06:08Z</time>
   </trkpt>
   <trkpt lat="10.3956350" lon="123.8757740">
    <ele>427.0</ele>
    <time>2025-11-30T00:06:20Z</time>
   </trkpt>
   <trkpt lat="10.3957280" lon="123.8756160">
    <ele>428.7</ele>
    <time>2025-11-30T00:06:42Z</time>
   </trkpt>
   <trkpt lat="10.3958310" lon="123.8755250">
    <ele>430.5</ele>
    <time>2025-11-30T00:06:57Z</time>
   </trkpt>
   <trkpt lat="10.3958850" lon="123.8753770">
    <ele>431.4</ele>
    <time>2025-11-30T00:07:13Z</time>
   </trkpt>
   <trkpt lat="10.3959470" lon="123.8753120">
    <ele>431.6</ele>
    <time>2025-11-30T00:07:24Z</time>
   </trkpt>
   <trkpt lat="10.3959770" lon="123.8752480">
    <ele>431.8</ele>
    <time>2025-11-30T00:07:30Z</time>
   </trkpt>
   <trkpt lat="10.3960330" lon="123.8751880">
    <ele>431.8</ele>
    <time>2025-11-30T00:07:40Z</time>
   </trkpt>
   <trkpt lat="10.3960440" lon="123.8751510">
    <ele>431.8</ele>
    <time>2025-11-30T00:07:47Z</time>
   </trkpt>
   <trkpt lat="10.3961080" lon="123.8751090">
    <ele>431.6</ele>
    <time>2025-11-30T00:07:59Z</time>
   </trkpt>
   <trkpt lat="10.3961770" lon="123.8751190">
    <ele>431.9</ele>
    <time>2025-11-30T00:08:11Z</time>
   </trkpt>
   <trkpt lat="10.3962180" lon="123.8751070">
    <ele>432.6</ele>
    <time>2025-11-30T00:08:17Z</time>
   </trkpt>
   <trkpt lat="10.3962830" lon="123.8750250">
    <ele>434.4</ele>
    <time>2025-11-30T00:08:29Z</time>
   </trkpt>
   <trkpt lat="10.3963500" lon="123.8748990">
    <ele>436.4</ele>
    <time>2025-11-30T00:08:45Z</time>
   </trkpt>
   <trkpt lat="10.3963630" lon="123.8748210">
    <ele>437.1</ele>
    <time>2025-11-30T00:08:57Z</time>
   </trkpt>
   <trkpt lat="10.3964070" lon="123.8747340">
    <ele>437.9</ele>
    <time>2025-11-30T00:09:10Z</time>
   </trkpt>
   <trkpt lat="10.3964220" lon="123.8746230">
    <ele>438.8</ele>
    <time>2025-11-30T00:09:27Z</time>
   </trkpt>
   <trkpt lat="10.3965370" lon="123.8743980">
    <ele>442.8</ele>
    <time>2025-11-30T00:10:04Z</time>
   </trkpt>
   <trkpt lat="10.3965520" lon="123.8741990">
    <ele>446.6</ele>
    <time>2025-11-30T00:10:26Z</time>
   </trkpt>
   <trkpt lat="10.3965320" lon="123.8741850">
    <ele>446.9</ele>
    <time>2025-11-30T00:10:34Z</time>
   </trkpt>
   <trkpt lat="10.3965220" lon="123.8741530">
    <ele>447.3</ele>
    <time>2025-11-30T00:10:52Z</time>
   </trkpt>
   <trkpt lat="10.3965200" lon="123.8740710">
    <ele>448.2</ele>
    <time>2025-11-30T00:10:58Z</time>
   </trkpt>
   <trkpt lat="10.3965890" lon="123.8739760">
    <ele>449.4</ele>
    <time>2025-11-30T00:11:09Z</time>
   </trkpt>
   <trkpt lat="10.3965980" lon="123.8739190">
    <ele>450.2</ele>
    <time>2025-11-30T00:11:19Z</time>
   </trkpt>
   <trkpt lat="10.3966840" lon="123.8738300">
    <ele>452.0</ele>
    <time>2025-11-30T00:11:35Z</time>
   </trkpt>
   <trkpt lat="10.3967220" lon="123.8737080">
    <ele>453.9</ele>
    <time>2025-11-30T00:11:50Z</time>
   </trkpt>
   <trkpt lat="10.3967190" lon="123.8736680">
    <ele>454.5</ele>
    <time>2025-11-30T00:11:54Z</time>
   </trkpt>
   <trkpt lat="10.3967410" lon="123.8736220">
    <ele>455.3</ele>
    <time>2025-11-30T00:11:59Z</time>
   </trkpt>
   <trkpt lat="10.3967820" lon="123.8736030">
    <ele>456.2</ele>
    <time>2025-11-30T00:12:16Z</time>
   </trkpt>
   <trkpt lat="10.3968730" lon="123.8734890">
    <ele>459.2</ele>
    <time>2025-11-30T00:12:30Z</time>
   </trkpt>
   <trkpt lat="10.3970430" lon="123.8733610">
    <ele>463.6</ele>
    <time>2025-11-30T00:12:54Z</time>
   </trkpt>
   <trkpt lat="10.3970700" lon="123.8733060">
    <ele>464.6</ele>
    <time>2025-11-30T00:13:03Z</time>
   </trkpt>
   <trkpt lat="10.3972130" lon="123.8732030">
    <ele>467.1</ele>
    <time>2025-11-30T00:13:25Z</time>
   </trkpt>
   <trkpt lat="10.3972810" lon="123.8731800">
    <ele>468.1</ele>
    <time>2025-11-30T00:13:35Z</time>
   </trkpt>
   <trkpt lat="10.3973500" lon="123.8731270">
    <ele>469.5</ele>
    <time>2025-11-30T00:13:42Z</time>
   </trkpt>
   <trkpt lat="10.3974770" lon="123.8730670">
    <ele>472.1</ele>
    <time>2025-11-30T00:13:57Z</time>
   </trkpt>
   <trkpt lat="10.3975370" lon="123.8730410">
    <ele>473.8</ele>
    <time>2025-11-30T00:17:41Z</time>
   </trkpt>
   <trkpt lat="10.3976480" lon="123.8730390">
    <ele>476.4</ele>
    <time>2025-11-30T00:17:58Z</time>
   </trkpt>
   <trkpt lat="10.3976820" lon="123.8729730">
    <ele>478.2</ele>
    <time>2025-11-30T00:18:05Z</time>
   </trkpt>
   <trkpt lat="10.3977080" lon="123.8728420">
    <ele>481.6</ele>
    <time>2025-11-30T00:18:19Z</time>
   </trkpt>
   <trkpt lat="10.3977960" lon="123.8727330">
    <ele>485.3</ele>
    <time>2025-11-30T00:18:39Z</time>
   </trkpt>
   <trkpt lat="10.3978520" lon="123.8727020">
    <ele>486.9</ele>
    <time>2025-11-30T00:18:45Z</time>
   </trkpt>
   <trkpt lat="10.3979120" lon="123.8726920">
    <ele>488.4</ele>
    <time>2025-11-30T00:18:51Z</time>
   </trkpt>
   <trkpt lat="10.3979290" lon="123.8726660">
    <ele>489.1</ele>
    <time>2025-11-30T00:18:54Z</time>
   </trkpt>
   <trkpt lat="10.3980030" lon="123.8726330">
    <ele>490.9</ele>
    <time>2025-11-30T00:19:03Z</time>
   </trkpt>
   <trkpt lat="10.3980230" lon="123.8726490">
    <ele>491.9</ele>
    <time>2025-11-30T00:19:13Z</time>
   </trkpt>
   <trkpt lat="10.3980240" lon="123.8726340">
    <ele>492.2</ele>
    <time>2025-11-30T00:19:16Z</time>
   </trkpt>
   <trkpt lat="10.3980430" lon="123.8726350">
    <ele>492.7</ele>
    <time>2025-11-30T00:19:20Z</time>
   </trkpt>
   <trkpt lat="10.3980470" lon="123.8726720">
    <ele>493.5</ele>
    <time>2025-11-30T00:19:25Z</time>
   </trkpt>
   <trkpt lat="10.3980290" lon="123.8726340">
    <ele>494.4</ele>
    <time>2025-11-30T00:19:42Z</time>
   </trkpt>
   <trkpt lat="10.3980700" lon="123.8726120">
    <ele>495.8</ele>
    <time>2025-11-30T00:21:17Z</time>
   </trkpt>
   <trkpt lat="10.3980730" lon="123.8725570">
    <ele>497.1</ele>
    <time>2025-11-30T00:21:37Z</time>
   </trkpt>
   <trkpt lat="10.3982570" lon="123.8724100">
    <ele>502.5</ele>
    <time>2025-11-30T00:22:43Z</time>
   </trkpt>
   <trkpt lat="10.3985320" lon="123.8723180">
    <ele>509.5</ele>
    <time>2025-11-30T00:23:19Z</time>
   </trkpt>
   <trkpt lat="10.3986190" lon="123.8722310">
    <ele>512.5</ele>
    <time>2025-11-30T00:23:32Z</time>
   </trkpt>
   <trkpt lat="10.3986400" lon="123.8721830">
    <ele>513.8</ele>
    <time>2025-11-30T00:23:38Z</time>
   </trkpt>
   <trkpt lat="10.3986290" lon="123.8721770">
    <ele>514.3</ele>
    <time>2025-11-30T00:23:45Z</time>
   </trkpt>
   <trkpt lat="10.3986610" lon="123.8721410">
    <ele>515.4</ele>
    <time>2025-11-30T00:23:51Z</time>
   </trkpt>
   <trkpt lat="10.3987200" lon="123.8720200">
    <ele>518.6</ele>
    <time>2025-11-30T00:24:05Z</time>
   </trkpt>
   <trkpt lat="10.3988480" lon="123.8719190">
    <ele>522.8</ele>
    <time>2025-11-30T00:24:36Z</time>
   </trkpt>
   <trkpt lat="10.3988690" lon="123.8719480">
    <ele>523.8</ele>
    <time>2025-11-30T00:24:41Z</time>
   </trkpt>
   <trkpt lat="10.3988620" lon="123.8720530">
    <ele>526.4</ele>
    <time>2025-11-30T00:24:53Z</time>
   </trkpt>
   <trkpt lat="10.3989050" lon="123.8721200">
    <ele>528.4</ele>
    <time>2025-11-30T00:25:02Z</time>
   </trkpt>
   <trkpt lat="10.3990640" lon="123.8722010">
    <ele>532.8</ele>
    <time>2025-11-30T00:31:26Z</time>
   </trkpt>
   <trkpt lat="10.3991630" lon="123.8723020">
    <ele>536.6</ele>
    <time>2025-11-30T00:31:42Z</time>
   </trkpt>
   <trkpt lat="10.3992220" lon="123.8723220">
    <ele>538.3</ele>
    <time>2025-11-30T00:31:47Z</time>
   </trkpt>
   <trkpt lat="10.3992730" lon="123.8723650">
    <ele>540.1</ele>
    <time>2025-11-30T00:31:55Z</time>
   </trkpt>
   <trkpt lat="10.3993350" lon="123.8723800">
    <ele>541.8</ele>
    <time>2025-11-30T00:32:05Z</time>
   </trkpt>
   <trkpt lat="10.3994820" lon="123.8723890">
    <ele>545.2</ele>
    <time>2025-11-30T00:32:18Z</time>
   </trkpt>
   <trkpt lat="10.3996220" lon="123.8723610">
    <ele>547.3</ele>
    <time>2025-11-30T00:32:35Z</time>
   </trkpt>
   <trkpt lat="10.3997490" lon="123.8722740">
    <ele>548.3</ele>
    <time>2025-11-30T00:32:55Z</time>
   </trkpt>
   <trkpt lat="10.3998830" lon="123.8722400">
    <ele>548.9</ele>
    <time>2025-11-30T00:34:02Z</time>
   </trkpt>
   <trkpt lat="10.3999500" lon="123.8722800">
    <ele>550.3</ele>
    <time>2025-11-30T00:34:14Z</time>
   </trkpt>
   <trkpt lat="10.4000400" lon="123.8722810">
    <ele>552.8</ele>
    <time>2025-11-30T00:34:25Z</time>
   </trkpt>
   <trkpt lat="10.4001250" lon="123.8723190">
    <ele>553.0</ele>
    <time>2025-11-30T00:34:44Z</time>
   </trkpt>
   <trkpt lat="10.4001600" lon="123.8723020">
    <ele>555.1</ele>
    <time>2025-11-30T00:34:52Z</time>
   </trkpt>
   <trkpt lat="10.4002330" lon="123.8723230">
    <ele>552.1</ele>
    <time>2025-11-30T00:36:24Z</time>
   </trkpt>
   <trkpt lat="10.4003260" lon="123.8722980">
    <ele>555.6</ele>
    <time>2025-11-30T00:36:43Z</time>
   </trkpt>
   <trkpt lat="10.4004390" lon="123.8723060">
    <ele>557.2</ele>
    <time>2025-11-30T00:37:01Z</time>
   </trkpt>
   <trkpt lat="10.4005560" lon="123.8722790">
    <ele>559.3</ele>
    <time>2025-11-30T00:37:18Z</time>
   </trkpt>
   <trkpt lat="10.4005940" lon="123.8722520">
    <ele>561.0</ele>
    <time>2025-11-30T00:37:27Z</time>
   </trkpt>
   <trkpt lat="10.4006490" lon="123.8722530">
    <ele>561.5</ele>
    <time>2025-11-30T00:37:35Z</time>
   </trkpt>
   <trkpt lat="10.4007100" lon="123.8722050">
    <ele>563.9</ele>
    <time>2025-11-30T00:37:44Z</time>
   </trkpt>
   <trkpt lat="10.4007450" lon="123.8721560">
    <ele>565.2</ele>
    <time>2025-11-30T00:37:53Z</time>
   </trkpt>
   <trkpt lat="10.4007680" lon="123.8720880">
    <ele>566.4</ele>
    <time>2025-11-30T00:38:05Z</time>
   </trkpt>
   <trkpt lat="10.4007750" lon="123.8721020">
    <ele>565.5</ele>
    <time>2025-11-30T00:38:12Z</time>
   </trkpt>
   <trkpt lat="10.4007580" lon="123.8721200">
    <ele>565.4</ele>
    <time>2025-11-30T00:38:19Z</time>
   </trkpt>
   <trkpt lat="10.4008000" lon="123.8720000">
    <ele>566.7</ele>
    <time>2025-11-30T00:38:57Z</time>
   </trkpt>
   <trkpt lat="10.4007670" lon="123.8719300">
    <ele>566.1</ele>
    <time>2025-11-30T00:39:05Z</time>
   </trkpt>
   <trkpt lat="10.4007040" lon="123.8718490">
    <ele>564.9</ele>
    <time>2025-11-30T00:39:14Z</time>
   </trkpt>
   <trkpt lat="10.4005610" lon="123.8717770">
    <ele>562.6</ele>
    <time>2025-11-30T00:39:27Z</time>
   </trkpt>
   <trkpt lat="10.4004380" lon="123.8717910">
    <ele>560.8</ele>
    <time>2025-11-30T00:44:33Z</time>
   </trkpt>
   <trkpt lat="10.4001490" lon="123.8717470">
    <ele>558.9</ele>
    <time>2025-11-30T00:45:22Z</time>
   </trkpt>
   <trkpt lat="10.3999900" lon="123.8717730">
    <ele>558.8</ele>
    <time>2025-11-30T00:45:39Z</time>
   </trkpt>
   <trkpt lat="10.3999220" lon="123.8717300">
    <ele>558.8</ele>
    <time>2025-11-30T00:45:48Z</time>
   </trkpt>
   <trkpt lat="10.3998770" lon="123.8716490">
    <ele>558.8</ele>
    <time>2025-11-30T00:46:00Z</time>
   </trkpt>
   <trkpt lat="10.3998960" lon="123.8716360">
    <ele>558.8</ele>
    <time>2025-11-30T00:46:07Z</time>
   </trkpt>
   <trkpt lat="10.3998780" lon="123.8716380">
    <ele>558.7</ele>
    <time>2025-11-30T00:46:15Z</time>
   </trkpt>
   <trkpt lat="10.3998720" lon="123.8716190">
    <ele>558.7</ele>
    <time>2025-11-30T00:46:29Z</time>
   </trkpt>
   <trkpt lat="10.3998940" lon="123.8715000">
    <ele>558.7</ele>
    <time>2025-11-30T00:48:58Z</time>
   </trkpt>
   <trkpt lat="10.3999120" lon="123.8715520">
    <ele>558.7</ele>
    <time>2025-11-30T00:49:09Z</time>
   </trkpt>
   <trkpt lat="10.3998990" lon="123.8715970">
    <ele>558.7</ele>
    <time>2025-11-30T00:49:18Z</time>
   </trkpt>
   <trkpt lat="10.3999200" lon="123.8715820">
    <ele>558.7</ele>
    <time>2025-11-30T00:49:27Z</time>
   </trkpt>
   <trkpt lat="10.3999310" lon="123.8716150">
    <ele>558.7</ele>
    <time>2025-11-30T00:49:30Z</time>
   </trkpt>
   <trkpt lat="10.3999200" lon="123.8716360">
    <ele>558.6</ele>
    <time>2025-11-30T00:49:34Z</time>
   </trkpt>
   <trkpt lat="10.3999310" lon="123.8716410">
    <ele>558.6</ele>
    <time>2025-11-30T00:49:36Z</time>
   </trkpt>
   <trkpt lat="10.3999360" lon="123.8716250">
    <ele>558.6</ele>
    <time>2025-11-30T00:49:39Z</time>
   </trkpt>
   <trkpt lat="10.3999410" lon="123.8716410">
    <ele>558.6</ele>
    <time>2025-11-30T00:49:41Z</time>
   </trkpt>
   <trkpt lat="10.3999430" lon="123.8716290">
    <ele>558.6</ele>
    <time>2025-11-30T00:49:42Z</time>
   </trkpt>
   <trkpt lat="10.3999130" lon="123.8716290">
    <ele>558.6</ele>
    <time>2025-11-30T00:49:56Z</time>
   </trkpt>
   <trkpt lat="10.3999420" lon="123.8716080">
    <ele>558.6</ele>
    <time>2025-11-30T00:50:05Z</time>
   </trkpt>
   <trkpt lat="10.3999450" lon="123.8715750">
    <ele>558.6</ele>
    <time>2025-11-30T00:50:09Z</time>
   </trkpt>
   <trkpt lat="10.3999180" lon="123.8713980">
    <ele>558.6</ele>
    <time>2025-11-30T00:50:24Z</time>
   </trkpt>
   <trkpt lat="10.3999450" lon="123.8715710">
    <ele>558.5</ele>
    <time>2025-11-30T00:50:49Z</time>
   </trkpt>
   <trkpt lat="10.3999030" lon="123.8715050">
    <ele>558.5</ele>
    <time>2025-11-30T00:51:02Z</time>
   </trkpt>
   <trkpt lat="10.3999050" lon="123.8714950">
    <ele>558.5</ele>
    <time>2025-11-30T00:51:05Z</time>
   </trkpt>
   <trkpt lat="10.3999260" lon="123.8715020">
    <ele>558.5</ele>
    <time>2025-11-30T00:51:14Z</time>
   </trkpt>
   <trkpt lat="10.3999040" lon="123.8715560">
    <ele>558.5</ele>
    <time>2025-11-30T00:51:22Z</time>
   </trkpt>
   <trkpt lat="10.3999460" lon="123.8715880">
    <ele>558.5</ele>
    <time>2025-11-30T00:52:18Z</time>
   </trkpt>
   <trkpt lat="10.3999470" lon="123.8715750">
    <ele>558.5</ele>
    <time>2025-11-30T00:52:21Z</time>
   </trkpt>
   <trkpt lat="10.3999210" lon="123.8715820">
    <ele>558.5</ele>
    <time>2025-11-30T00:52:27Z</time>
   </trkpt>
   <trkpt lat="10.3999140" lon="123.8716320">
    <ele>558.5</ele>
    <time>2025-11-30T00:52:31Z</time>
   </trkpt>
   <trkpt lat="10.3998970" lon="123.8716280">
    <ele>558.5</ele>
    <time>2025-11-30T00:52:38Z</time>
   </trkpt>
   <trkpt lat="10.3998920" lon="123.8715870">
    <ele>558.5</ele>
    <time>2025-11-30T00:52:56Z</time>
   </trkpt>
   <trkpt lat="10.3998720" lon="123.8715890">
    <ele>558.5</ele>
    <time>2025-11-30T00:53:02Z</time>
   </trkpt>
   <trkpt lat="10.3998770" lon="123.8715530">
    <ele>558.5</ele>
    <time>2025-11-30T00:53:06Z</time>
   </trkpt>
   <trkpt lat="10.3998470" lon="123.8716180">
    <ele>558.5</ele>
    <time>2025-11-30T00:53:32Z</time>
   </trkpt>
   <trkpt lat="10.3998980" lon="123.8716050">
    <ele>558.5</ele>
    <time>2025-11-30T00:54:58Z</time>
   </trkpt>
   <trkpt lat="10.3999160" lon="123.8715860">
    <ele>558.5</ele>
    <time>2025-11-30T00:55:05Z</time>
   </trkpt>
   <trkpt lat="10.3998870" lon="123.8716050">
    <ele>558.5</ele>
    <time>2025-11-30T00:55:27Z</time>
   </trkpt>
   <trkpt lat="10.3998980" lon="123.8716020">
    <ele>558.5</ele>
    <time>2025-11-30T00:55:30Z</time>
   </trkpt>
   <trkpt lat="10.3998680" lon="123.8715800">
    <ele>558.5</ele>
    <time>2025-11-30T00:56:25Z</time>
   </trkpt>
   <trkpt lat="10.3998800" lon="123.8715400">
    <ele>558.5</ele>
    <time>2025-11-30T00:56:34Z</time>
   </trkpt>
   <trkpt lat="10.3998900" lon="123.8715430">
    <ele>558.5</ele>
    <time>2025-11-30T00:56:36Z</time>
   </trkpt>
   <trkpt lat="10.3998720" lon="123.8715550">
    <ele>558.5</ele>
    <time>2025-11-30T00:57:31Z</time>
   </trkpt>
  </trkseg>
 </trk>
</gpx>