<?xml version='1.0' encoding='UTF-8'?>
<gpx xmlns="http://www.topografix.com/GPX/1/1" xmlns:xsi="http://www.w3.org/2001/XMLSchema-instance" creator="StravaGPX" version="1.1" xsi:schemaLocation="http://www.topografix.com/GPX/1/1 http://www.topografix.com/GPX/1/1/gpx.xsd">
 <metadata>
  <name>Budlaan Falls to Holiday Pool</name>
  <author>
   <name>John Patrick Echavez</name>
   <link href="https://www.strava.com/athletes/127986198" />
  </author>
  <copyright author="OpenStreetMap contributors">
   <year>2020</year>
   <license>https://www.openstreetmap.org/copyright</license>
  </copyright>
  <link href="https://www.strava.com/routes/3533428188609823312" />
 </metadata>
 <trk>
  <name>Budlaan Falls to Holiday Pool</name>
  <link href="https://www.strava.com/routes/3533428188609823312" />
  <type>hiking</type>
  <trkseg>
   <trkpt lat="10.383750000000001" lon="123.88635000000001">
    <ele>278.27000000000004</ele>
   </trkpt>
   <trkpt lat="10.383730000000002" lon="123.88622000000001">
    <ele>277.88</ele>
   </trkpt>
   <trkpt lat="10.383740000000001" lon="123.88609000000001">
    <ele>277.16</ele>
   </trkpt>
   <trkpt lat="10.38367" lon="123.88587000000001">
    <ele>275.36000000000007</ele>
   </trkpt>
   <trkpt lat="10.383500000000002" lon="123.88568000000001">
    <ele>273.96000000000004</ele>
   </trkpt>
   <trkpt lat="10.383270000000001" lon="123.88552000000001">
    <ele>271.62</ele>
   </trkpt>
   <trkpt lat="10.383120000000002" lon="123.88535000000002">
    <ele>269.13000000000005</ele>
   </trkpt>
   <trkpt lat="10.382980000000002" lon="123.88499000000002">
    <ele>266.97</ele>
   </trkpt>
   <trkpt lat="10.38268" lon="123.88449000000001">
    <ele>264.79</ele>
   </trkpt>
   <trkpt lat="10.382650000000002" lon="123.88432000000002">
    <ele>264.1</ele>
   </trkpt>
   <trkpt lat="10.38273" lon="123.88415">
    <ele>262.32</ele>
   </trkpt>
   <trkpt lat="10.382940000000001" lon="123.88398000000001">
    <ele>260.62</ele>
   </trkpt>
   <trkpt lat="10.3832" lon="123.88371000000001">
    <ele>257.37000000000006</ele>
   </trkpt>
   <trkpt lat="10.38338" lon="123.88355000000001">
    <ele>253.59000000000003</ele>
   </trkpt>
   <trkpt lat="10.383550000000001" lon="123.88349000000001">
    <ele>250.25000000000003</ele>
   </trkpt>
   <trkpt lat="10.383700000000001" lon="123.8833">
    <ele>244.07</ele>
   </trkpt>
   <trkpt lat="10.38366" lon="123.88306000000001">
    <ele>239.22</ele>
   </trkpt>
   <trkpt lat="10.383650000000001" lon="123.88270000000001">
    <ele>233.65</ele>
   </trkpt>
   <trkpt lat="10.383560000000001" lon="123.88232">
    <ele>230.67000000000002</ele>
   </trkpt>
   <trkpt lat="10.383650000000001" lon="123.88219000000001">
    <ele>230.49000000000004</ele>
   </trkpt>
   <trkpt lat="10.38372" lon="123.88213">
    <ele>230.67000000000002</ele>
   </trkpt>
   <trkpt lat="10.38391" lon="123.88215000000001">
    <ele>232.33</ele>
   </trkpt>
   <trkpt lat="10.384170000000001" lon="123.88227">
    <ele>239.08</ele>
   </trkpt>
   <trkpt lat="10.384390000000002" lon="123.88232">
    <ele>242.32</ele>
   </trkpt>
   <trkpt lat="10.384590000000001" lon="123.88224000000001">
    <ele>246.72000000000003</ele>
   </trkpt>
   <trkpt lat="10.384770000000001" lon="123.88213">
    <ele>249.88000000000002</ele>
   </trkpt>
   <trkpt lat="10.38526" lon="123.88233000000001">
    <ele>258.15999999999997</ele>
   </trkpt>
   <trkpt lat="10.385530000000001" lon="123.88230000000001">
    <ele>259.53000000000003</ele>
   </trkpt>
   <trkpt lat="10.386080000000002" lon="123.88238000000001">
    <ele>263.87000000000006</ele>
   </trkpt>
   <trkpt lat="10.38626" lon="123.88226000000002">
    <ele>268.24</ele>
   </trkpt>
   <trkpt lat="10.38643" lon="123.88207000000001">
    <ele>271.22</ele>
   </trkpt>
   <trkpt lat="10.386600000000001" lon="123.88166000000001">
    <ele>274.89000000000004</ele>
   </trkpt>
   <trkpt lat="10.38673" lon="123.88146">
    <ele>278.92</ele>
   </trkpt>
   <trkpt lat="10.387170000000001" lon="123.88123000000002">
    <ele>282.54</ele>
   </trkpt>
   <trkpt lat="10.387360000000001" lon="123.88107000000001">
    <ele>283.75</ele>
   </trkpt>
   <trkpt lat="10.38774" lon="123.88063000000001">
    <ele>284.37</ele>
   </trkpt>
   <trkpt lat="10.38779" lon="123.88040000000001">
    <ele>283.18000000000006</ele>
   </trkpt>
   <trkpt lat="10.38775" lon="123.88024000000001">
    <ele>281.48</ele>
   </trkpt>
   <trkpt lat="10.387820000000001" lon="123.88003">
    <ele>260.83</ele>
   </trkpt>
   <trkpt lat="10.387910000000002" lon="123.87995000000001">
    <ele>248.00000000000003</ele>
   </trkpt>
   <trkpt lat="10.388010000000001" lon="123.87997000000001">
    <ele>244.33</ele>
   </trkpt>
   <trkpt lat="10.38823" lon="123.87980000000002">
    <ele>232.37</ele>
   </trkpt>
   <trkpt lat="10.388240000000001" lon="123.87970000000001">
    <ele>230.95000000000002</ele>
   </trkpt>
   <trkpt lat="10.38836" lon="123.87966000000002">
    <ele>229.0</ele>
   </trkpt>
   <trkpt lat="10.388250000000001" lon="123.87970000000001">
    <ele>231.17000000000002</ele>
   </trkpt>
   <trkpt lat="10.38823" lon="123.87980000000002">
    <ele>232.37</ele>
   </trkpt>
   <trkpt lat="10.388010000000001" lon="123.87997000000001">
    <ele>244.33</ele>
   </trkpt>
   <trkpt lat="10.387910000000002" lon="123.87995000000001">
    <ele>248.00000000000003</ele>
   </trkpt>
   <trkpt lat="10.387860000000002" lon="123.87976">
    <ele>249.52</ele>
   </trkpt>
   <trkpt lat="10.387910000000002" lon="123.87958">
    <ele>246.14000000000001</ele>
   </trkpt>
   <trkpt lat="10.388010000000001" lon="123.87934000000001">
    <ele>248.43</ele>
   </trkpt>
   <trkpt lat="10.388100000000001" lon="123.87920000000001">
    <ele>256.01</ele>
   </trkpt>
   <trkpt lat="10.387960000000001" lon="123.87902000000001">
    <ele>259.72</ele>
   </trkpt>
   <trkpt lat="10.38795" lon="123.87891">
    <ele>259.33</ele>
   </trkpt>
   <trkpt lat="10.38803" lon="123.87877000000002">
    <ele>259.21</ele>
   </trkpt>
   <trkpt lat="10.388060000000001" lon="123.87852000000001">
    <ele>258.99</ele>
   </trkpt>
   <trkpt lat="10.388290000000001" lon="123.87850000000002">
    <ele>262.20000000000005</ele>
   </trkpt>
   <trkpt lat="10.388380000000002" lon="123.87846">
    <ele>263.81000000000006</ele>
   </trkpt>
   <trkpt lat="10.388440000000001" lon="123.87832000000002">
    <ele>268.78000000000003</ele>
   </trkpt>
   <trkpt lat="10.38855" lon="123.87823000000002">
    <ele>273.08000000000004</ele>
   </trkpt>
   <trkpt lat="10.38864" lon="123.87797">
    <ele>281.35</ele>
   </trkpt>
   <trkpt lat="10.388810000000001" lon="123.87786000000001">
    <ele>287.67</ele>
   </trkpt>
   <trkpt lat="10.389000000000001" lon="123.87780000000001">
    <ele>291.40000000000003</ele>
   </trkpt>
   <trkpt lat="10.389050000000001" lon="123.87773000000001">
    <ele>293.40000000000003</ele>
   </trkpt>
   <trkpt lat="10.388990000000002" lon="123.87749000000001">
    <ele>300.74</ele>
   </trkpt>
   <trkpt lat="10.38912" lon="123.87746000000001">
    <ele>303.39000000000004</ele>
   </trkpt>
   <trkpt lat="10.389270000000002" lon="123.87722000000001">
    <ele>310.07</ele>
   </trkpt>
   <trkpt lat="10.389470000000001" lon="123.87717">
    <ele>316.13</ele>
   </trkpt>
   <trkpt lat="10.38964" lon="123.87700000000001">
    <ele>319.64000000000004</ele>
   </trkpt>
   <trkpt lat="10.38963" lon="123.87692000000001">
    <ele>321.17</ele>
   </trkpt>
   <trkpt lat="10.38972" lon="123.87674000000001">
    <ele>324.53000000000003</ele>
   </trkpt>
   <trkpt lat="10.389750000000001" lon="123.87673000000001">
    <ele>324.53000000000003</ele>
   </trkpt>
   <trkpt lat="10.389710000000001" lon="123.87674000000001">
    <ele>324.08000000000004</ele>
   </trkpt>
   <trkpt lat="10.389940000000001" lon="123.87669000000001">
    <ele>327.56</ele>
   </trkpt>
   <trkpt lat="10.390130000000001" lon="123.87646000000001">
    <ele>334.55</ele>
   </trkpt>
   <trkpt lat="10.390260000000001" lon="123.87635000000002">
    <ele>336.38</ele>
   </trkpt>
   <trkpt lat="10.390440000000002" lon="123.87625000000001">
    <ele>339.73</ele>
   </trkpt>
   <trkpt lat="10.390680000000001" lon="123.87607000000001">
    <ele>343.74000000000007</ele>
   </trkpt>
   <trkpt lat="10.39094" lon="123.87594000000001">
    <ele>347.91</ele>
   </trkpt>
   <trkpt lat="10.39094" lon="123.87591">
    <ele>347.91</ele>
   </trkpt>
   <trkpt lat="10.39093" lon="123.87594000000001">
    <ele>356.56000000000006</ele>
   </trkpt>
   <trkpt lat="10.39118" lon="123.87613">
    <ele>365.55</ele>
   </trkpt>
   <trkpt lat="10.391350000000001" lon="123.87623">
    <ele>369.61</ele>
   </trkpt>
   <trkpt lat="10.391440000000001" lon="123.87622">
    <ele>370.13</ele>
   </trkpt>
   <trkpt lat="10.3915" lon="123.87629000000001">
    <ele>371.58000000000004</ele>
   </trkpt>
   <trkpt lat="10.392270000000002" lon="123.87664000000001">
    <ele>388.20000000000005</ele>
   </trkpt>
   <trkpt lat="10.392420000000001" lon="123.87677000000001">
    <ele>392.86</ele>
   </trkpt>
   <trkpt lat="10.392700000000001" lon="123.87680000000002">
    <ele>393.74</ele>
   </trkpt>
   <trkpt lat="10.39287" lon="123.87685">
    <ele>394.73</ele>
   </trkpt>
   <trkpt lat="10.3931" lon="123.87703">
    <ele>399.54</ele>
   </trkpt>
   <trkpt lat="10.3933" lon="123.87703">
    <ele>398.11</ele>
   </trkpt>
   <trkpt lat="10.39339" lon="123.87705000000001">
    <ele>397.52000000000004</ele>
   </trkpt>
   <trkpt lat="10.39344" lon="123.87713000000001">
    <ele>398.92</ele>
   </trkpt>
   <trkpt lat="10.39352" lon="123.87718000000001">
    <ele>399.4800000000001</ele>
   </trkpt>
   <trkpt lat="10.393640000000001" lon="123.87733000000001">
    <ele>404.21</ele>
   </trkpt>
   <trkpt lat="10.393730000000001" lon="123.87727000000001">
    <ele>405.99</ele>
   </trkpt>
   <trkpt lat="10.393830000000001" lon="123.87726">
    <ele>406.1</ele>
   </trkpt>
   <trkpt lat="10.394120000000001" lon="123.87735">
    <ele>408.07000000000005</ele>
   </trkpt>
   <trkpt lat="10.39441" lon="123.87753000000001">
    <ele>410.92</ele>
   </trkpt>
   <trkpt lat="10.394720000000001" lon="123.87727000000001">
    <ele>415.37</ele>
   </trkpt>
   <trkpt lat="10.395040000000002" lon="123.87693000000002">
    <ele>422.45000000000005</ele>
   </trkpt>
   <trkpt lat="10.39512" lon="123.87664000000001">
    <ele>423.46000000000004</ele>
   </trkpt>
   <trkpt lat="10.39563" lon="123.87575000000001">
    <ele>425.94000000000005</ele>
   </trkpt>
   <trkpt lat="10.39591" lon="123.87536000000001">
    <ele>430.39000000000004</ele>
   </trkpt>
   <trkpt lat="10.396040000000001" lon="123.87528">
    <ele>430.6</ele>
   </trkpt>
   <trkpt lat="10.396270000000001" lon="123.87496000000002">
    <ele>433.43</ele>
   </trkpt>
   <trkpt lat="10.39647" lon="123.87457">
    <ele>438.64000000000004</ele>
   </trkpt>
   <trkpt lat="10.39643" lon="123.87433000000001">
    <ele>443.78000000000003</ele>
   </trkpt>
   <trkpt lat="10.396450000000002" lon="123.87418000000001">
    <ele>446.23</ele>
   </trkpt>
   <trkpt lat="10.39677" lon="123.87376">
    <ele>454.1</ele>
   </trkpt>
   <trkpt lat="10.396830000000001" lon="123.87346000000001">
    <ele>461.4800000000001</ele>
   </trkpt>
   <trkpt lat="10.39694" lon="123.87324000000001">
    <ele>465.87000000000006</ele>
   </trkpt>
   <trkpt lat="10.397160000000001" lon="123.87309">
    <ele>471.81000000000006</ele>
   </trkpt>
   <trkpt lat="10.397440000000001" lon="123.87307000000001">
    <ele>477.12000000000006</ele>
   </trkpt>
   <trkpt lat="10.397950000000002" lon="123.8726">
    <ele>499.41</ele>
   </trkpt>
   <trkpt lat="10.398670000000001" lon="123.87223000000002">
    <ele>519.1300000000001</ele>
   </trkpt>
   <trkpt lat="10.398940000000001" lon="123.87214000000002">
    <ele>529.1700000000001</ele>
   </trkpt>
   <trkpt lat="10.399450000000002" lon="123.87231000000001">
    <ele>544.6700000000001</ele>
   </trkpt>
   <trkpt lat="10.399780000000002" lon="123.87226000000001">
    <ele>549.1600000000001</ele>
   </trkpt>
   <trkpt lat="10.399920000000002" lon="123.87212000000001">
    <ele>550.6600000000001</ele>
   </trkpt>
   <trkpt lat="10.40018" lon="123.87199000000001">
    <ele>553.9000000000001</ele>
   </trkpt>
   <trkpt lat="10.400310000000001" lon="123.87180000000001">
    <ele>558.98</ele>
   </trkpt>
   <trkpt lat="10.4008" lon="123.87179">
    <ele>567.2</ele>
   </trkpt>
   <trkpt lat="10.400310000000001" lon="123.87180000000001">
    <ele>559.0</ele>
   </trkpt>
   <trkpt lat="10.400220000000001" lon="123.87178000000002">
    <ele>559.07</ele>
   </trkpt>
   <trkpt lat="10.400060000000002" lon="123.87160000000002">
    <ele>559.01</ele>
   </trkpt>
   <trkpt lat="10.3999" lon="123.87103">
    <ele>561.32</ele>
   </trkpt>
   <trkpt lat="10.399640000000002" lon="123.87029000000001">
    <ele>560.21</ele>
   </trkpt>
   <trkpt lat="10.399410000000001" lon="123.86980000000001">
    <ele>560.1700000000001</ele>
   </trkpt>
   <trkpt lat="10.398470000000001" lon="123.86931000000001">
    <ele>554.0</ele>
   </trkpt>
   <trkpt lat="10.39774" lon="123.86926000000001">
    <ele>546.62</ele>
   </trkpt>
   <trkpt lat="10.39736" lon="123.86905000000002">
    <ele>538.35</ele>
   </trkpt>
   <trkpt lat="10.39723" lon="123.86864000000001">
    <ele>541.5699999999999</ele>
   </trkpt>
   <trkpt lat="10.397250000000001" lon="123.86859000000001">
    <ele>532.0</ele>
   </trkpt>
   <trkpt lat="10.39708" lon="123.86833000000001">
    <ele>530.64</ele>
   </trkpt>
   <trkpt lat="10.39685" lon="123.86784000000002">
    <ele>529.05</ele>
   </trkpt>
   <trkpt lat="10.39686" lon="123.86752000000001">
    <ele>534.4000000000001</ele>
   </trkpt>
   <trkpt lat="10.396560000000001" lon="123.86753000000002">
    <ele>531.3</ele>
   </trkpt>
   <trkpt lat="10.396270000000001" lon="123.86742000000001">
    <ele>525.1800000000001</ele>
   </trkpt>
   <trkpt lat="10.39619" lon="123.86707000000001">
    <ele>528.13</ele>
   </trkpt>
   <trkpt lat="10.39624" lon="123.86675000000001">
    <ele>529.1800000000001</ele>
   </trkpt>
   <trkpt lat="10.396210000000002" lon="123.86651">
    <ele>527.4300000000001</ele>
   </trkpt>
   <trkpt lat="10.396310000000001" lon="123.86638">
    <ele>529.44</ele>
   </trkpt>
   <trkpt lat="10.39628" lon="123.8662">
    <ele>528.8000000000001</ele>
   </trkpt>
   <trkpt lat="10.39629" lon="123.86624">
    <ele>533.8000000000001</ele>
   </trkpt>
   <trkpt lat="10.3961" lon="123.86628">
    <ele>530.61</ele>
   </trkpt>
   <trkpt lat="10.395840000000002" lon="123.86647">
    <ele>524.6200000000001</ele>
   </trkpt>
   <trkpt lat="10.39583" lon="123.86658000000001">
    <ele>522.9</ele>
   </trkpt>
   <trkpt lat="10.395750000000001" lon="123.86672000000002">
    <ele>520.5500000000001</ele>
   </trkpt>
   <trkpt lat="10.39559" lon="123.86678">
    <ele>519.6</ele>
   </trkpt>
   <trkpt lat="10.395470000000001" lon="123.86686000000002">
    <ele>517.23</ele>
   </trkpt>
   <trkpt lat="10.39517" lon="123.867">
    <ele>511.57000000000005</ele>
   </trkpt>
   <trkpt lat="10.39484" lon="123.86721000000001">
    <ele>506.46000000000004</ele>
   </trkpt>
   <trkpt lat="10.394810000000001" lon="123.86734000000001">
    <ele>503.53000000000003</ele>
   </trkpt>
   <trkpt lat="10.394720000000001" lon="123.86749">
    <ele>498.86</ele>
   </trkpt>
   <trkpt lat="10.39447" lon="123.86766000000001">
    <ele>492.18000000000006</ele>
   </trkpt>
   <trkpt lat="10.39417" lon="123.86778000000001">
    <ele>488.28000000000003</ele>
   </trkpt>
   <trkpt lat="10.393930000000001" lon="123.86781">
    <ele>479.37</ele>
   </trkpt>
   <trkpt lat="10.393770000000002" lon="123.86780000000002">
    <ele>474.66</ele>
   </trkpt>
   <trkpt lat="10.393600000000001" lon="123.86784000000002">
    <ele>471.6</ele>
   </trkpt>
   <trkpt lat="10.39347" lon="123.86802000000002">
    <ele>470.82</ele>
   </trkpt>
   <trkpt lat="10.39319" lon="123.86834">
    <ele>471.41</ele>
   </trkpt>
   <trkpt lat="10.392800000000001" lon="123.8683">
    <ele>471.12</ele>
   </trkpt>
   <trkpt lat="10.39259" lon="123.86840000000001">
    <ele>470.36000000000007</ele>
   </trkpt>
   <trkpt lat="10.39245" lon="123.86853">
    <ele>468.72</ele>
   </trkpt>
   <trkpt lat="10.392280000000001" lon="123.86858000000001">
    <ele>467.27</ele>
   </trkpt>
   <trkpt lat="10.392180000000002" lon="123.86872000000001">
    <ele>465.40000000000003</ele>
   </trkpt>
   <trkpt lat="10.39197" lon="123.86894000000001">
    <ele>460.89</ele>
   </trkpt>
   <trkpt lat="10.391770000000001" lon="123.86912000000001">
    <ele>459.02000000000004</ele>
   </trkpt>
   <trkpt lat="10.391340000000001" lon="123.86917000000001">
    <ele>452.05000000000007</ele>
   </trkpt>
   <trkpt lat="10.391150000000001" lon="123.86933">
    <ele>450.12</ele>
   </trkpt>
   <trkpt lat="10.39076" lon="123.86942">
    <ele>445.35</ele>
   </trkpt>
   <trkpt lat="10.39033" lon="123.86949000000001">
    <ele>438.03000000000003</ele>
   </trkpt>
   <trkpt lat="10.389800000000001" lon="123.86968000000002">
    <ele>428.90000000000003</ele>
   </trkpt>
   <trkpt lat="10.389280000000001" lon="123.86978">
    <ele>423.81</ele>
   </trkpt>
   <trkpt lat="10.388940000000002" lon="123.86992000000001">
    <ele>420.63000000000005</ele>
   </trkpt>
   <trkpt lat="10.38859" lon="123.86997000000001">
    <ele>418.19000000000005</ele>
   </trkpt>
   <trkpt lat="10.38836" lon="123.87010000000001">
    <ele>417.34000000000003</ele>
   </trkpt>
   <trkpt lat="10.387910000000002" lon="123.87031">
    <ele>413.07000000000005</ele>
   </trkpt>
   <trkpt lat="10.387160000000002" lon="123.87036">
    <ele>405.81000000000006</ele>
   </trkpt>
   <trkpt lat="10.386610000000001" lon="123.87025000000001">
    <ele>403.07000000000005</ele>
   </trkpt>
   <trkpt lat="10.386450000000002" lon="123.86996">
    <ele>399.9200000000001</ele>
   </trkpt>
   <trkpt lat="10.38639" lon="123.8696">
    <ele>396.02000000000004</ele>
   </trkpt>
   <trkpt lat="10.385660000000001" lon="123.86948000000001">
    <ele>392.45</ele>
   </trkpt>
   <trkpt lat="10.38541" lon="123.86931000000001">
    <ele>391.09000000000003</ele>
   </trkpt>
   <trkpt lat="10.3853" lon="123.86901000000002">
    <ele>391.3</ele>
   </trkpt>
   <trkpt lat="10.385240000000001" lon="123.86849000000001">
    <ele>383.71999999999997</ele>
   </trkpt>
   <trkpt lat="10.38433" lon="123.86774000000001">
    <ele>366.66</ele>
   </trkpt>
   <trkpt lat="10.38415" lon="123.86774000000001">
    <ele>363.69</ele>
   </trkpt>
   <trkpt lat="10.383650000000001" lon="123.86815000000001">
    <ele>358.93</ele>
   </trkpt>
   <trkpt lat="10.382750000000001" lon="123.86791000000001">
    <ele>373.46</ele>
   </trkpt>
   <trkpt lat="10.382470000000001" lon="123.86845000000001">
    <ele>383.73</ele>
   </trkpt>
   <trkpt lat="10.38213" lon="123.86871000000001">
    <ele>399.0</ele>
   </trkpt>
   <trkpt lat="10.38197" lon="123.86895000000001">
    <ele>398.17</ele>
   </trkpt>
   <trkpt lat="10.381770000000001" lon="123.86850000000001">
    <ele>408.46000000000004</ele>
   </trkpt>
   <trkpt lat="10.38136" lon="123.86813000000001">
    <ele>429.64</ele>
   </trkpt>
   <trkpt lat="10.38075" lon="123.86784000000002">
    <ele>435.21000000000004</ele>
   </trkpt>
   <trkpt lat="10.380080000000001" lon="123.86758">
    <ele>444.59000000000003</ele>
   </trkpt>
   <trkpt lat="10.37977" lon="123.8675">
    <ele>448.82000000000005</ele>
   </trkpt>
   <trkpt lat="10.37941" lon="123.86733000000001">
    <ele>448.70000000000005</ele>
   </trkpt>
   <trkpt lat="10.37894" lon="123.86728000000001">
    <ele>440.69</ele>
   </trkpt>
   <trkpt lat="10.37878" lon="123.86772">
    <ele>444.00000000000006</ele>
   </trkpt>
   <trkpt lat="10.378900000000002" lon="123.86822000000001">
    <ele>445.40000000000003</ele>
   </trkpt>
   <trkpt lat="10.37908" lon="123.86864000000001">
    <ele>449.67</ele>
   </trkpt>
  </trkseg>
 </trk>
</gpx>