<?xml version='1.0' encoding='UTF-8'?>
<gpx xmlns="http://www.topografix.com/GPX/1/1" xmlns:xsi="http://www.w3.org/2001/XMLSchema-instance" creator="StravaGPX" version="1.1" xsi:schemaLocation="http://www.topografix.com/GPX/1/1 http://www.topografix.com/GPX/1/1/gpx.xsd">
 <metadata>
  <time>2026-03-21T21:20:59Z</time>
 </metadata>
 <trk>
  <name>Lake Lhuillier via Bonita Trail</name>
  <type>hiking</type>
  <trkseg>
   <trkpt lat="10.3694660" lon="123.9178090">
    <ele>43.0</ele>
    <time>2026-03-21T21:20:59Z</time>
   </trkpt>
   <trkpt lat="10.3694850" lon="123.9177750">
    <ele>43.1</ele>
    <time>2026-03-21T21:21:12Z</time>
   </trkpt>
   <trkpt lat="10.3694820" lon="123.9177280">
    <ele>43.2</ele>
    <time>2026-03-21T21:21:20Z</time>
   </trkpt>
   <trkpt lat="10.3694380" lon="123.9175440">
    <ele>43.7</ele>
    <time>2026-03-21T21:21:40Z</time>
   </trkpt>
   <trkpt lat="10.3694340" lon="123.9174150">
    <ele>44.0</ele>
    <time>2026-03-21T21:21:52Z</time>
   </trkpt>
   <trkpt lat="10.3693310" lon="123.9172770">
    <ele>44.5</ele>
    <time>2026-03-21T21:22:08Z</time>
   </trkpt>
   <trkpt lat="10.3693140" lon="123.9171630">
    <ele>44.8</ele>
    <time>2026-03-21T21:22:20Z</time>
   </trkpt>
   <trkpt lat="10.3693970" lon="123.9170510">
    <ele>45.2</ele>
    <time>2026-03-21T21:22:31Z</time>
   </trkpt>
   <trkpt lat="10.3693940" lon="123.9170320">
    <ele>45.3</ele>
    <time>2026-03-21T21:22:34Z</time>
   </trkpt>
   <trkpt lat="10.3693600" lon="123.9170160">
    <ele>45.4</ele>
    <time>2026-03-21T21:22:39Z</time>
   </trkpt>
   <trkpt lat="10.3693620" lon="123.9169930">
    <ele>45.5</ele>
    <time>2026-03-21T21:22:42Z</time>
   </trkpt>
   <trkpt lat="10.3694860" lon="123.9168650">
    <ele>45.8</ele>
    <time>2026-03-21T21:22:56Z</time>
   </trkpt>
   <trkpt lat="10.3695130" lon="123.9167940">
    <ele>45.7</ele>
    <time>2026-03-21T21:23:02Z</time>
   </trkpt>
   <trkpt lat="10.3695640" lon="123.9167450">
    <ele>45.6</ele>
    <time>2026-03-21T21:23:10Z</time>
   </trkpt>
   <trkpt lat="10.3696410" lon="123.9167360">
    <ele>45.6</ele>
    <time>2026-03-21T21:23:18Z</time>
   </trkpt>
   <trkpt lat="10.3697070" lon="123.9167000">
    <ele>45.6</ele>
    <time>2026-03-21T21:23:24Z</time>
   </trkpt>
   <trkpt lat="10.3697460" lon="123.9167110">
    <ele>45.5</ele>
    <time>2026-03-21T21:23:28Z</time>
   </trkpt>
   <trkpt lat="10.3697810" lon="123.9166840">
    <ele>45.5</ele>
    <time>2026-03-21T21:23:32Z</time>
   </trkpt>
   <trkpt lat="10.3699040" lon="123.9166470">
    <ele>45.3</ele>
    <time>2026-03-21T21:23:47Z</time>
   </trkpt>
   <trkpt lat="10.3699820" lon="123.9165990">
    <ele>45.2</ele>
    <time>2026-03-21T21:23:56Z</time>
   </trkpt>
   <trkpt lat="10.3700610" lon="123.9166100">
    <ele>45.1</ele>
    <time>2026-03-21T21:24:04Z</time>
   </trkpt>
   <trkpt lat="10.3702020" lon="123.9166910">
    <ele>44.8</ele>
    <time>2026-03-21T21:24:20Z</time>
   </trkpt>
   <trkpt lat="10.3702600" lon="123.9167510">
    <ele>44.7</ele>
    <time>2026-03-21T21:24:28Z</time>
   </trkpt>
   <trkpt lat="10.3703950" lon="123.9168140">
    <ele>44.4</ele>
    <time>2026-03-21T21:24:42Z</time>
   </trkpt>
   <trkpt lat="10.3705240" lon="123.9168190">
    <ele>44.2</ele>
    <time>2026-03-21T21:24:55Z</time>
   </trkpt>
   <trkpt lat="10.3706430" lon="123.9167790">
    <ele>44.0</ele>
    <time>2026-03-21T21:25:08Z</time>
   </trkpt>
   <trkpt lat="10.3706720" lon="123.9167850">
    <ele>44.0</ele>
    <time>2026-03-21T21:25:11Z</time>
   </trkpt>
   <trkpt lat="10.3707160" lon="123.9168330">
    <ele>43.9</ele>
    <time>2026-03-21T21:25:17Z</time>
   </trkpt>
   <trkpt lat="10.3708440" lon="123.9168820">
    <ele>43.8</ele>
    <time>2026-03-21T21:25:30Z</time>
   </trkpt>
   <trkpt lat="10.3708940" lon="123.9169700">
    <ele>43.7</ele>
    <time>2026-03-21T21:25:40Z</time>
   </trkpt>
   <trkpt lat="10.3709600" lon="123.9169740">
    <ele>43.6</ele>
    <time>2026-03-21T21:25:49Z</time>
   </trkpt>
   <trkpt lat="10.3709440" lon="123.9170050">
    <ele>43.6</ele>
    <time>2026-03-21T21:26:09Z</time>
   </trkpt>
   <trkpt lat="10.3709360" lon="123.9169360">
    <ele>43.6</ele>
    <time>2026-03-21T21:27:10Z</time>
   </trkpt>
   <trkpt lat="10.3709580" lon="123.9168740">
    <ele>43.5</ele>
    <time>2026-03-21T21:27:14Z</time>
   </trkpt>
   <trkpt lat="10.3710620" lon="123.9167740">
    <ele>43.5</ele>
    <time>2026-03-21T21:27:27Z</time>
   </trkpt>
   <trkpt lat="10.3710960" lon="123.9167210">
    <ele>43.4</ele>
    <time>2026-03-21T21:27:33Z</time>
   </trkpt>
   <trkpt lat="10.3711930" lon="123.9166430">
    <ele>43.4</ele>
    <time>2026-03-21T21:27:46Z</time>
   </trkpt>
   <trkpt lat="10.3712530" lon="123.9165480">
    <ele>43.3</ele>
    <time>2026-03-21T21:27:58Z</time>
   </trkpt>
   <trkpt lat="10.3712900" lon="123.9165260">
    <ele>43.3</ele>
    <time>2026-03-21T21:28:02Z</time>
   </trkpt>
   <trkpt lat="10.3713180" lon="123.9164680">
    <ele>43.3</ele>
    <time>2026-03-21T21:28:08Z</time>
   </trkpt>
   <trkpt lat="10.3713780" lon="123.9163980">
    <ele>43.2</ele>
    <time>2026-03-21T21:28:17Z</time>
   </trkpt>
   <trkpt lat="10.3714210" lon="123.9163090">
    <ele>43.1</ele>
    <time>2026-03-21T21:28:25Z</time>
   </trkpt>
   <trkpt lat="10.3714970" lon="123.9162840">
    <ele>43.0</ele>
    <time>2026-03-21T21:28:36Z</time>
   </trkpt>
   <trkpt lat="10.3715310" lon="123.9162020">
    <ele>43.0</ele>
    <time>2026-03-21T21:28:44Z</time>
   </trkpt>
   <trkpt lat="10.3716250" lon="123.9161190">
    <ele>42.9</ele>
    <time>2026-03-21T21:28:56Z</time>
   </trkpt>
   <trkpt lat="10.3716450" lon="123.9160110">
    <ele>42.8</ele>
    <time>2026-03-21T21:29:05Z</time>
   </trkpt>
   <trkpt lat="10.3716890" lon="123.9159660">
    <ele>42.7</ele>
    <time>2026-03-21T21:29:11Z</time>
   </trkpt>
   <trkpt lat="10.3717200" lon="123.9157990">
    <ele>42.7</ele>
    <time>2026-03-21T21:29:28Z</time>
   </trkpt>
   <trkpt lat="10.3718150" lon="123.9156220">
    <ele>42.6</ele>
    <time>2026-03-21T21:29:49Z</time>
   </trkpt>
   <trkpt lat="10.3718890" lon="123.9155360">
    <ele>42.6</ele>
    <time>2026-03-21T21:30:01Z</time>
   </trkpt>
   <trkpt lat="10.3719390" lon="123.9154130">
    <ele>42.6</ele>
    <time>2026-03-21T21:30:16Z</time>
   </trkpt>
   <trkpt lat="10.3719770" lon="123.9153640">
    <ele>42.6</ele>
    <time>2026-03-21T21:30:22Z</time>
   </trkpt>
   <trkpt lat="10.3720110" lon="123.9152650">
    <ele>42.6</ele>
    <time>2026-03-21T21:30:32Z</time>
   </trkpt>
   <trkpt lat="10.3720660" lon="123.9151980">
    <ele>42.6</ele>
    <time>2026-03-21T21:30:41Z</time>
   </trkpt>
   <trkpt lat="10.3720970" lon="123.9150900">
    <ele>42.6</ele>
    <time>2026-03-21T21:30:50Z</time>
   </trkpt>
   <trkpt lat="10.3721160" lon="123.9150650">
    <ele>42.6</ele>
    <time>2026-03-21T21:30:53Z</time>
   </trkpt>
   <trkpt lat="10.3721740" lon="123.9150350">
    <ele>42.7</ele>
    <time>2026-03-21T21:31:00Z</time>
   </trkpt>
   <trkpt lat="10.3722170" lon="123.9149640">
    <ele>42.7</ele>
    <time>2026-03-21T21:31:08Z</time>
   </trkpt>
   <trkpt lat="10.3722660" lon="123.9148150">
    <ele>42.8</ele>
    <time>2026-03-21T21:31:24Z</time>
   </trkpt>
   <trkpt lat="10.3722960" lon="123.9147690">
    <ele>42.8</ele>
    <time>2026-03-21T21:31:28Z</time>
   </trkpt>
   <trkpt lat="10.3723180" lon="123.9146490">
    <ele>42.8</ele>
    <time>2026-03-21T21:31:41Z</time>
   </trkpt>
   <trkpt lat="10.3723750" lon="123.9145540">
    <ele>42.9</ele>
    <time>2026-03-21T21:31:53Z</time>
   </trkpt>
   <trkpt lat="10.3724430" lon="123.9144890">
    <ele>42.9</ele>
    <time>2026-03-21T21:32:02Z</time>
   </trkpt>
   <trkpt lat="10.3724640" lon="123.9144340">
    <ele>42.9</ele>
    <time>2026-03-21T21:32:07Z</time>
   </trkpt>
   <trkpt lat="10.3724680" lon="123.9143630">
    <ele>42.9</ele>
    <time>2026-03-21T21:32:13Z</time>
   </trkpt>
   <trkpt lat="10.3726690" lon="123.9139480">
    <ele>43.3</ele>
    <time>2026-03-21T21:32:56Z</time>
   </trkpt>
   <trkpt lat="10.3727060" lon="123.9139030">
    <ele>43.4</ele>
    <time>2026-03-21T21:33:02Z</time>
   </trkpt>
   <trkpt lat="10.3727220" lon="123.9138970">
    <ele>43.4</ele>
    <time>2026-03-21T21:33:04Z</time>
   </trkpt>
   <trkpt lat="10.3728850" lon="123.9139930">
    <ele>43.6</ele>
    <time>2026-03-21T21:33:22Z</time>
   </trkpt>
   <trkpt lat="10.3729380" lon="123.9140010">
    <ele>43.6</ele>
    <time>2026-03-21T21:33:27Z</time>
   </trkpt>
   <trkpt lat="10.3729970" lon="123.9140330">
    <ele>43.6</ele>
    <time>2026-03-21T21:33:35Z</time>
   </trkpt>
   <trkpt lat="10.3730840" lon="123.9140240">
    <ele>43.7</ele>
    <time>2026-03-21T21:33:44Z</time>
   </trkpt>
   <trkpt lat="10.3732400" lon="123.9141390">
    <ele>43.8</ele>
    <time>2026-03-21T21:34:02Z</time>
   </trkpt>
   <trkpt lat="10.3732930" lon="123.9141400">
    <ele>43.8</ele>
    <time>2026-03-21T21:34:07Z</time>
   </trkpt>
   <trkpt lat="10.3733600" lon="123.9141850">
    <ele>43.9</ele>
    <time>2026-03-21T21:34:15Z</time>
   </trkpt>
   <trkpt lat="10.3734680" lon="123.9142220">
    <ele>43.9</ele>
    <time>2026-03-21T21:34:28Z</time>
   </trkpt>
   <trkpt lat="10.3735060" lon="123.9142570">
    <ele>44.0</ele>
    <time>2026-03-21T21:34:33Z</time>
   </trkpt>
   <trkpt lat="10.3735720" lon="123.9142630">
    <ele>44.0</ele>
    <time>2026-03-21T21:34:39Z</time>
   </trkpt>
   <trkpt lat="10.3736750" lon="123.9143070">
    <ele>44.2</ele>
    <time>2026-03-21T21:34:51Z</time>
   </trkpt>
   <trkpt lat="10.3737300" lon="123.9143150">
    <ele>44.2</ele>
    <time>2026-03-21T21:34:56Z</time>
   </trkpt>
   <trkpt lat="10.3737890" lon="123.9143600">
    <ele>44.3</ele>
    <time>2026-03-21T21:35:03Z</time>
   </trkpt>
   <trkpt lat="10.3738380" lon="123.9143510">
    <ele>44.3</ele>
    <time>2026-03-21T21:35:08Z</time>
   </trkpt>
   <trkpt lat="10.3739070" lon="123.9143720">
    <ele>44.4</ele>
    <time>2026-03-21T21:35:14Z</time>
   </trkpt>
   <trkpt lat="10.3739510" lon="123.9143690">
    <ele>44.4</ele>
    <time>2026-03-21T21:35:18Z</time>
   </trkpt>
   <trkpt lat="10.3740030" lon="123.9143960">
    <ele>44.5</ele>
    <time>2026-03-21T21:35:26Z</time>
   </trkpt>
   <trkpt lat="10.3742010" lon="123.9144350">
    <ele>44.7</ele>
    <time>2026-03-21T21:35:46Z</time>
   </trkpt>
   <trkpt lat="10.3742340" lon="123.9144770">
    <ele>44.7</ele>
    <time>2026-03-21T21:35:52Z</time>
   </trkpt>
   <trkpt lat="10.3743170" lon="123.9145060">
    <ele>44.7</ele>
    <time>2026-03-21T21:36:00Z</time>
   </trkpt>
   <trkpt lat="10.3744100" lon="123.9145770">
    <ele>44.7</ele>
    <time>2026-03-21T21:36:13Z</time>
   </trkpt>
   <trkpt lat="10.3745870" lon="123.9146230">
    <ele>44.8</ele>
    <time>2026-03-21T21:36:28Z</time>
   </trkpt>
   <trkpt lat="10.3746660" lon="123.9146700">
    <ele>44.8</ele>
    <time>2026-03-21T21:36:38Z</time>
   </trkpt>
   <trkpt lat="10.3747920" lon="123.9146610">
    <ele>44.8</ele>
    <time>2026-03-21T21:36:49Z</time>
   </trkpt>
   <trkpt lat="10.3748540" lon="123.9145790">
    <ele>44.8</ele>
    <time>2026-03-21T21:37:00Z</time>
   </trkpt>
   <trkpt lat="10.3749120" lon="123.9145490">
    <ele>44.9</ele>
    <time>2026-03-21T21:37:09Z</time>
   </trkpt>
   <trkpt lat="10.3749400" lon="123.9144820">
    <ele>45.0</ele>
    <time>2026-03-21T21:37:15Z</time>
   </trkpt>
   <trkpt lat="10.3750270" lon="123.9143920">
    <ele>45.2</ele>
    <time>2026-03-21T21:37:28Z</time>
   </trkpt>
   <trkpt lat="10.3750340" lon="123.9143420">
    <ele>45.3</ele>
    <time>2026-03-21T21:37:34Z</time>
   </trkpt>
   <trkpt lat="10.3751910" lon="123.9141060">
    <ele>45.4</ele>
    <time>2026-03-21T21:37:58Z</time>
   </trkpt>
   <trkpt lat="10.3752090" lon="123.9140020">
    <ele>45.4</ele>
    <time>2026-03-21T21:38:08Z</time>
   </trkpt>
   <trkpt lat="10.3752100" lon="123.9138800">
    <ele>45.6</ele>
    <time>2026-03-21T21:38:20Z</time>
   </trkpt>
   <trkpt lat="10.3752280" lon="123.9138090">
    <ele>45.7</ele>
    <time>2026-03-21T21:38:26Z</time>
   </trkpt>
   <trkpt lat="10.3752260" lon="123.9135620">
    <ele>46.1</ele>
    <time>2026-03-21T21:38:51Z</time>
   </trkpt>
   <trkpt lat="10.3752780" lon="123.9133570">
    <ele>46.8</ele>
    <time>2026-03-21T21:39:10Z</time>
   </trkpt>
   <trkpt lat="10.3752740" lon="123.9132120">
    <ele>47.2</ele>
    <time>2026-03-21T21:39:26Z</time>
   </trkpt>
   <trkpt lat="10.3753330" lon="123.9130660">
    <ele>47.6</ele>
    <time>2026-03-21T21:39:42Z</time>
   </trkpt>
   <trkpt lat="10.3754690" lon="123.9129420">
    <ele>48.1</ele>
    <time>2026-03-21T21:40:00Z</time>
   </trkpt>
   <trkpt lat="10.3755670" lon="123.9129010">
    <ele>48.3</ele>
    <time>2026-03-21T21:40:12Z</time>
   </trkpt>
   <trkpt lat="10.3756080" lon="123.9128440">
    <ele>48.4</ele>
    <time>2026-03-21T21:40:18Z</time>
   </trkpt>
   <trkpt lat="10.3757470" lon="123.9127680">
    <ele>48.6</ele>
    <time>2026-03-21T21:40:32Z</time>
   </trkpt>
   <trkpt lat="10.3760090" lon="123.9126520">
    <ele>49.5</ele>
    <time>2026-03-21T21:41:00Z</time>
   </trkpt>
   <trkpt lat="10.3761620" lon="123.9126490">
    <ele>50.1</ele>
    <time>2026-03-21T21:41:15Z</time>
   </trkpt>
   <trkpt lat="10.3762450" lon="123.9126320">
    <ele>50.5</ele>
    <time>2026-03-21T21:41:23Z</time>
   </trkpt>
   <trkpt lat="10.3763350" lon="123.9126590">
    <ele>50.9</ele>
    <time>2026-03-21T21:41:33Z</time>
   </trkpt>
   <trkpt lat="10.3764690" lon="123.9126420">
    <ele>51.4</ele>
    <time>2026-03-21T21:41:45Z</time>
   </trkpt>
   <trkpt lat="10.3765350" lon="123.9126530">
    <ele>51.7</ele>
    <time>2026-03-21T21:41:52Z</time>
   </trkpt>
   <trkpt lat="10.3767970" lon="123.9126030">
    <ele>53.0</ele>
    <time>2026-03-21T21:42:15Z</time>
   </trkpt>
   <trkpt lat="10.3769610" lon="123.9125580">
    <ele>53.8</ele>
    <time>2026-03-21T21:42:32Z</time>
   </trkpt>
   <trkpt lat="10.3770740" lon="123.9124930">
    <ele>54.6</ele>
    <time>2026-03-21T21:42:44Z</time>
   </trkpt>
   <trkpt lat="10.3771690" lon="123.9124760">
    <ele>55.3</ele>
    <time>2026-03-21T21:42:53Z</time>
   </trkpt>
   <trkpt lat="10.3772880" lon="123.9123970">
    <ele>56.1</ele>
    <time>2026-03-21T21:43:06Z</time>
   </trkpt>
   <trkpt lat="10.3773810" lon="123.9123850">
    <ele>56.8</ele>
    <time>2026-03-21T21:43:15Z</time>
   </trkpt>
   <trkpt lat="10.3774250" lon="123.9123650">
    <ele>57.2</ele>
    <time>2026-03-21T21:43:20Z</time>
   </trkpt>
   <trkpt lat="10.3774620" lon="123.9123700">
    <ele>57.5</ele>
    <time>2026-03-21T21:43:24Z</time>
   </trkpt>
   <trkpt lat="10.3776070" lon="123.9122990">
    <ele>58.9</ele>
    <time>2026-03-21T21:43:38Z</time>
   </trkpt>
   <trkpt lat="10.3776760" lon="123.9122940">
    <ele>59.3</ele>
    <time>2026-03-21T21:43:44Z</time>
   </trkpt>
   <trkpt lat="10.3778940" lon="123.9122380">
    <ele>60.3</ele>
    <time>2026-03-21T21:44:04Z</time>
   </trkpt>
   <trkpt lat="10.3780600" lon="123.9121560">
    <ele>60.9</ele>
    <time>2026-03-21T21:44:22Z</time>
   </trkpt>
   <trkpt lat="10.3780870" lon="123.9121120">
    <ele>61.1</ele>
    <time>2026-03-21T21:44:27Z</time>
   </trkpt>
   <trkpt lat="10.3781410" lon="123.9120760">
    <ele>61.3</ele>
    <time>2026-03-21T21:44:33Z</time>
   </trkpt>
   <trkpt lat="10.3781920" lon="123.9120670">
    <ele>61.5</ele>
    <time>2026-03-21T21:44:38Z</time>
   </trkpt>
   <trkpt lat="10.3782370" lon="123.9120010">
    <ele>61.8</ele>
    <time>2026-03-21T21:44:44Z</time>
   </trkpt>
   <trkpt lat="10.3783960" lon="123.9119030">
    <ele>62.6</ele>
    <time>2026-03-21T21:45:02Z</time>
   </trkpt>
   <trkpt lat="10.3784550" lon="123.9118260">
    <ele>63.2</ele>
    <time>2026-03-21T21:45:10Z</time>
   </trkpt>
   <trkpt lat="10.3785500" lon="123.9118150">
    <ele>63.6</ele>
    <time>2026-03-21T21:45:17Z</time>
   </trkpt>
   <trkpt lat="10.3786160" lon="123.9117470">
    <ele>63.9</ele>
    <time>2026-03-21T21:45:25Z</time>
   </trkpt>
   <trkpt lat="10.3787000" lon="123.9116920">
    <ele>64.1</ele>
    <time>2026-03-21T21:45:35Z</time>
   </trkpt>
   <trkpt lat="10.3787300" lon="123.9116190">
    <ele>64.3</ele>
    <time>2026-03-21T21:45:44Z</time>
   </trkpt>
   <trkpt lat="10.3787130" lon="123.9115260">
    <ele>65.1</ele>
    <time>2026-03-21T21:45:55Z</time>
   </trkpt>
   <trkpt lat="10.3787350" lon="123.9113270">
    <ele>67.3</ele>
    <time>2026-03-21T21:46:14Z</time>
   </trkpt>
   <trkpt lat="10.3787730" lon="123.9112730">
    <ele>68.1</ele>
    <time>2026-03-21T21:46:21Z</time>
   </trkpt>
   <trkpt lat="10.3788030" lon="123.9111590">
    <ele>69.5</ele>
    <time>2026-03-21T21:46:30Z</time>
   </trkpt>
   <trkpt lat="10.3788010" lon="123.9111230">
    <ele>69.8</ele>
    <time>2026-03-21T21:46:33Z</time>
   </trkpt>
   <trkpt lat="10.3787670" lon="123.9110550">
    <ele>70.6</ele>
    <time>2026-03-21T21:46:43Z</time>
   </trkpt>
   <trkpt lat="10.3787790" lon="123.9109930">
    <ele>71.2</ele>
    <time>2026-03-21T21:46:51Z</time>
   </trkpt>
   <trkpt lat="10.3787750" lon="123.9108290">
    <ele>72.4</ele>
    <time>2026-03-21T21:47:04Z</time>
   </trkpt>
   <trkpt lat="10.3788200" lon="123.9107230">
    <ele>73.1</ele>
    <time>2026-03-21T21:47:17Z</time>
   </trkpt>
   <trkpt lat="10.3789160" lon="123.9105960">
    <ele>73.2</ele>
    <time>2026-03-21T21:47:28Z</time>
   </trkpt>
   <trkpt lat="10.3789840" lon="123.9104280">
    <ele>72.9</ele>
    <time>2026-03-21T21:47:44Z</time>
   </trkpt>
   <trkpt lat="10.3791750" lon="123.9102140">
    <ele>73.1</ele>
    <time>2026-03-21T21:48:09Z</time>
   </trkpt>
   <trkpt lat="10.3792510" lon="123.9100470">
    <ele>73.8</ele>
    <time>2026-03-21T21:48:23Z</time>
   </trkpt>
   <trkpt lat="10.3792730" lon="123.9100220">
    <ele>73.9</ele>
    <time>2026-03-21T21:48:25Z</time>
   </trkpt>
   <trkpt lat="10.3793190" lon="123.9100120">
    <ele>74.2</ele>
    <time>2026-03-21T21:48:30Z</time>
   </trkpt>
   <trkpt lat="10.3793290" lon="123.9099690">
    <ele>74.5</ele>
    <time>2026-03-21T21:48:38Z</time>
   </trkpt>
   <trkpt lat="10.3793170" lon="123.9098900">
    <ele>75.0</ele>
    <time>2026-03-21T21:48:49Z</time>
   </trkpt>
   <trkpt lat="10.3793210" lon="123.9097260">
    <ele>76.6</ele>
    <time>2026-03-21T21:49:07Z</time>
   </trkpt>
   <trkpt lat="10.3792960" lon="123.9096700">
    <ele>77.3</ele>
    <time>2026-03-21T21:49:16Z</time>
   </trkpt>
   <trkpt lat="10.3793190" lon="123.9096030">
    <ele>78.3</ele>
    <time>2026-03-21T21:49:24Z</time>
   </trkpt>
   <trkpt lat="10.3793230" lon="123.9094200">
    <ele>81.5</ele>
    <time>2026-03-21T21:49:41Z</time>
   </trkpt>
   <trkpt lat="10.3793520" lon="123.9093530">
    <ele>82.8</ele>
    <time>2026-03-21T21:49:49Z</time>
   </trkpt>
   <trkpt lat="10.3793540" lon="123.9093010">
    <ele>83.8</ele>
    <time>2026-03-21T21:49:55Z</time>
   </trkpt>
   <trkpt lat="10.3793290" lon="123.9092440">
    <ele>85.1</ele>
    <time>2026-03-21T21:50:04Z</time>
   </trkpt>
   <trkpt lat="10.3793720" lon="123.9091650">
    <ele>86.8</ele>
    <time>2026-03-21T21:50:12Z</time>
   </trkpt>
   <trkpt lat="10.3794030" lon="123.9090400">
    <ele>89.1</ele>
    <time>2026-03-21T21:50:23Z</time>
   </trkpt>
   <trkpt lat="10.3795210" lon="123.9089070">
    <ele>91.8</ele>
    <time>2026-03-21T21:50:41Z</time>
   </trkpt>
   <trkpt lat="10.3796510" lon="123.9087960">
    <ele>94.1</ele>
    <time>2026-03-21T21:51:00Z</time>
   </trkpt>
   <trkpt lat="10.3797710" lon="123.9084470">
    <ele>97.2</ele>
    <time>2026-03-21T21:51:39Z</time>
   </trkpt>
   <trkpt lat="10.3798640" lon="123.9082590">
    <ele>98.3</ele>
    <time>2026-03-21T21:52:00Z</time>
   </trkpt>
   <trkpt lat="10.3798380" lon="123.9081700">
    <ele>98.9</ele>
    <time>2026-03-21T21:52:09Z</time>
   </trkpt>
   <trkpt lat="10.3798870" lon="123.9080640">
    <ele>99.7</ele>
    <time>2026-03-21T21:52:24Z</time>
   </trkpt>
   <trkpt lat="10.3800830" lon="123.9078120">
    <ele>103.7</ele>
    <time>2026-03-21T21:52:53Z</time>
   </trkpt>
   <trkpt lat="10.3801770" lon="123.9077580">
    <ele>105.4</ele>
    <time>2026-03-21T21:53:07Z</time>
   </trkpt>
   <trkpt lat="10.3802490" lon="123.9076930">
    <ele>107.0</ele>
    <time>2026-03-21T21:53:18Z</time>
   </trkpt>
   <trkpt lat="10.3803200" lon="123.9075710">
    <ele>109.0</ele>
    <time>2026-03-21T21:53:32Z</time>
   </trkpt>
   <trkpt lat="10.3803350" lon="123.9075130">
    <ele>109.6</ele>
    <time>2026-03-21T21:53:40Z</time>
   </trkpt>
   <trkpt lat="10.3803830" lon="123.9074990">
    <ele>110.3</ele>
    <time>2026-03-21T21:58:26Z</time>
   </trkpt>
   <trkpt lat="10.3803820" lon="123.9074600">
    <ele>110.7</ele>
    <time>2026-03-21T21:58:33Z</time>
   </trkpt>
   <trkpt lat="10.3804150" lon="123.9073870">
    <ele>111.3</ele>
    <time>2026-03-21T21:58:42Z</time>
   </trkpt>
   <trkpt lat="10.3805150" lon="123.9073050">
    <ele>112.1</ele>
    <time>2026-03-21T21:58:55Z</time>
   </trkpt>
   <trkpt lat="10.3806150" lon="123.9071280">
    <ele>112.6</ele>
    <time>2026-03-21T21:59:15Z</time>
   </trkpt>
   <trkpt lat="10.3807090" lon="123.9070400">
    <ele>112.8</ele>
    <time>2026-03-21T21:59:29Z</time>
   </trkpt>
   <trkpt lat="10.3807890" lon="123.9070010">
    <ele>113.1</ele>
    <time>2026-03-21T21:59:37Z</time>
   </trkpt>
   <trkpt lat="10.3809780" lon="123.9070100">
    <ele>114.6</ele>
    <time>2026-03-21T21:59:54Z</time>
   </trkpt>
   <trkpt lat="10.3810660" lon="123.9069710">
    <ele>116.0</ele>
    <time>2026-03-21T22:00:03Z</time>
   </trkpt>
   <trkpt lat="10.3810750" lon="123.9069530">
    <ele>116.4</ele>
    <time>2026-03-21T22:00:06Z</time>
   </trkpt>
   <trkpt lat="10.3811430" lon="123.9069140">
    <ele>118.0</ele>
    <time>2026-03-21T22:00:17Z</time>
   </trkpt>
   <trkpt lat="10.3812000" lon="123.9068370">
    <ele>120.1</ele>
    <time>2026-03-21T22:00:27Z</time>
   </trkpt>
   <trkpt lat="10.3813440" lon="123.9067040">
    <ele>124.7</ele>
    <time>2026-03-21T22:00:50Z</time>
   </trkpt>
   <trkpt lat="10.3814310" lon="123.9066430">
    <ele>127.0</ele>
    <time>2026-03-21T22:01:02Z</time>
   </trkpt>
   <trkpt lat="10.3814840" lon="123.9065710">
    <ele>128.8</ele>
    <time>2026-03-21T22:01:11Z</time>
   </trkpt>
   <trkpt lat="10.3816180" lon="123.9064970">
    <ele>132.0</ele>
    <time>2026-03-21T22:01:32Z</time>
   </trkpt>
   <trkpt lat="10.3816950" lon="123.9063740">
    <ele>134.9</ele>
    <time>2026-03-21T22:01:49Z</time>
   </trkpt>
   <trkpt lat="10.3817240" lon="123.9062700">
    <ele>137.1</ele>
    <time>2026-03-21T22:02:02Z</time>
   </trkpt>
   <trkpt lat="10.3817730" lon="123.9062030">
    <ele>138.6</ele>
    <time>2026-03-21T22:02:14Z</time>
   </trkpt>
   <trkpt lat="10.3818000" lon="123.9061180">
    <ele>139.7</ele>
    <time>2026-03-21T22:02:21Z</time>
   </trkpt>
   <trkpt lat="10.3818550" lon="123.9060840">
    <ele>140.3</ele>
    <time>2026-03-21T22:02:28Z</time>
   </trkpt>
   <trkpt lat="10.3818880" lon="123.9060440">
    <ele>140.0</ele>
    <time>2026-03-21T22:02:33Z</time>
   </trkpt>
   <trkpt lat="10.3818770" lon="123.9059500">
    <ele>139.6</ele>
    <time>2026-03-21T22:02:41Z</time>
   </trkpt>
   <trkpt lat="10.3819050" lon="123.9058440">
    <ele>139.1</ele>
    <time>2026-03-21T22:02:50Z</time>
   </trkpt>
   <trkpt lat="10.3818570" lon="123.9055110">
    <ele>139.6</ele>
    <time>2026-03-21T22:03:23Z</time>
   </trkpt>
   <trkpt lat="10.3818070" lon="123.9054400">
    <ele>140.5</ele>
    <time>2026-03-21T22:03:32Z</time>
   </trkpt>
   <trkpt lat="10.3816670" lon="123.9053170">
    <ele>143.1</ele>
    <time>2026-03-21T22:03:49Z</time>
   </trkpt>
   <trkpt lat="10.3815880" lon="123.9051600">
    <ele>145.8</ele>
    <time>2026-03-21T22:04:11Z</time>
   </trkpt>
   <trkpt lat="10.3815610" lon="123.9049960">
    <ele>148.3</ele>
    <time>2026-03-21T22:04:29Z</time>
   </trkpt>
   <trkpt lat="10.3815760" lon="123.9049270">
    <ele>149.3</ele>
    <time>2026-03-21T22:04:37Z</time>
   </trkpt>
   <trkpt lat="10.3815660" lon="123.9048310">
    <ele>150.8</ele>
    <time>2026-03-21T22:04:48Z</time>
   </trkpt>
   <trkpt lat="10.3815410" lon="123.9047750">
    <ele>151.7</ele>
    <time>2026-03-21T22:04:56Z</time>
   </trkpt>
   <trkpt lat="10.3814840" lon="123.9044470">
    <ele>157.4</ele>
    <time>2026-03-21T22:05:37Z</time>
   </trkpt>
   <trkpt lat="10.3814880" lon="123.9043260">
    <ele>159.5</ele>
    <time>2026-03-21T22:05:54Z</time>
   </trkpt>
   <trkpt lat="10.3814480" lon="123.9042060">
    <ele>161.7</ele>
    <time>2026-03-21T22:06:13Z</time>
   </trkpt>
   <trkpt lat="10.3814570" lon="123.9040320">
    <ele>164.9</ele>
    <time>2026-03-21T22:06:42Z</time>
   </trkpt>
   <trkpt lat="10.3814320" lon="123.9039480">
    <ele>166.4</ele>
    <time>2026-03-21T22:06:53Z</time>
   </trkpt>
   <trkpt lat="10.3814620" lon="123.9038770">
    <ele>167.7</ele>
    <time>2026-03-21T22:07:03Z</time>
   </trkpt>
   <trkpt lat="10.3814370" lon="123.9038170">
    <ele>168.7</ele>
    <time>2026-03-21T22:07:10Z</time>
   </trkpt>
   <trkpt lat="10.3814110" lon="123.9037990">
    <ele>169.2</ele>
    <time>2026-03-21T22:07:15Z</time>
   </trkpt>
   <trkpt lat="10.3813890" lon="123.9037560">
    <ele>170.0</ele>
    <time>2026-03-21T22:07:24Z</time>
   </trkpt>
   <trkpt lat="10.3814000" lon="123.9036960">
    <ele>170.9</ele>
    <time>2026-03-21T22:07:32Z</time>
   </trkpt>
   <trkpt lat="10.3813820" lon="123.9036510">
    <ele>171.7</ele>
    <time>2026-03-21T22:07:43Z</time>
   </trkpt>
   <trkpt lat="10.3814020" lon="123.9036450">
    <ele>172.0</ele>
    <time>2026-03-21T22:07:49Z</time>
   </trkpt>
   <trkpt lat="10.3813950" lon="123.9036580">
    <ele>172.3</ele>
    <time>2026-03-21T22:08:59Z</time>
   </trkpt>
   <trkpt lat="10.3813550" lon="123.9036210">
    <ele>173.2</ele>
    <time>2026-03-21T22:09:06Z</time>
   </trkpt>
   <trkpt lat="10.3812870" lon="123.9035020">
    <ele>175.2</ele>
    <time>2026-03-21T22:09:23Z</time>
   </trkpt>
   <trkpt lat="10.3812560" lon="123.9034740">
    <ele>175.9</ele>
    <time>2026-03-21T22:09:28Z</time>
   </trkpt>
   <trkpt lat="10.3811890" lon="123.9034270">
    <ele>177.1</ele>
    <time>2026-03-21T22:09:39Z</time>
   </trkpt>
   <trkpt lat="10.3810770" lon="123.9033870">
    <ele>178.9</ele>
    <time>2026-03-21T22:09:53Z</time>
   </trkpt>
   <trkpt lat="10.3810060" lon="123.9033120">
    <ele>180.5</ele>
    <time>2026-03-21T22:10:05Z</time>
   </trkpt>
   <trkpt lat="10.3809100" lon="123.9031560">
    <ele>183.2</ele>
    <time>2026-03-21T22:10:23Z</time>
   </trkpt>
   <trkpt lat="10.3809150" lon="123.9030640">
    <ele>184.5</ele>
    <time>2026-03-21T22:10:32Z</time>
   </trkpt>
   <trkpt lat="10.3808920" lon="123.9030330">
    <ele>185.0</ele>
    <time>2026-03-21T22:10:36Z</time>
   </trkpt>
   <trkpt lat="10.3808900" lon="123.9029670">
    <ele>185.9</ele>
    <time>2026-03-21T22:10:42Z</time>
   </trkpt>
   <trkpt lat="10.3809200" lon="123.9029000">
    <ele>186.9</ele>
    <time>2026-03-21T22:10:48Z</time>
   </trkpt>
   <trkpt lat="10.3810010" lon="123.9028570">
    <ele>188.3</ele>
    <time>2026-03-21T22:10:57Z</time>
   </trkpt>
   <trkpt lat="10.3810660" lon="123.9027930">
    <ele>189.6</ele>
    <time>2026-03-21T22:11:06Z</time>
   </trkpt>
   <trkpt lat="10.3811500" lon="123.9027880">
    <ele>191.1</ele>
    <time>2026-03-21T22:11:18Z</time>
   </trkpt>
   <trkpt lat="10.3811820" lon="123.9027640">
    <ele>191.8</ele>
    <time>2026-03-21T22:11:27Z</time>
   </trkpt>
   <trkpt lat="10.3811750" lon="123.9027360">
    <ele>192.4</ele>
    <time>2026-03-21T22:11:34Z</time>
   </trkpt>
   <trkpt lat="10.3812210" lon="123.9026770">
    <ele>193.8</ele>
    <time>2026-03-21T22:11:45Z</time>
   </trkpt>
   <trkpt lat="10.3812230" lon="123.9026320">
    <ele>194.7</ele>
    <time>2026-03-21T22:11:51Z</time>
   </trkpt>
   <trkpt lat="10.3812540" lon="123.9025940">
    <ele>195.8</ele>
    <time>2026-03-21T22:12:00Z</time>
   </trkpt>
   <trkpt lat="10.3812420" lon="123.9025070">
    <ele>197.7</ele>
    <time>2026-03-21T22:12:10Z</time>
   </trkpt>
   <trkpt lat="10.3812100" lon="123.9024450">
    <ele>199.4</ele>
    <time>2026-03-21T22:12:21Z</time>
   </trkpt>
   <trkpt lat="10.3811690" lon="123.9024480">
    <ele>200.1</ele>
    <time>2026-03-21T22:12:30Z</time>
   </trkpt>
   <trkpt lat="10.3810990" lon="123.9024280">
    <ele>201.3</ele>
    <time>2026-03-21T22:12:44Z</time>
   </trkpt>
   <trkpt lat="10.3811300" lon="123.9023580">
    <ele>202.4</ele>
    <time>2026-03-21T22:12:52Z</time>
   </trkpt>
   <trkpt lat="10.3811150" lon="123.9023030">
    <ele>203.2</ele>
    <time>2026-03-21T22:13:01Z</time>
   </trkpt>
   <trkpt lat="10.3811320" lon="123.9021980">
    <ele>204.7</ele>
    <time>2026-03-21T22:13:12Z</time>
   </trkpt>
   <trkpt lat="10.3811740" lon="123.9021020">
    <ele>206.1</ele>
    <time>2026-03-21T22:13:21Z</time>
   </trkpt>
   <trkpt lat="10.3812040" lon="123.9020800">
    <ele>206.7</ele>
    <time>2026-03-21T22:13:25Z</time>
   </trkpt>
   <trkpt lat="10.3813750" lon="123.9020980">
    <ele>209.4</ele>
    <time>2026-03-21T22:13:43Z</time>
   </trkpt>
   <trkpt lat="10.3814260" lon="123.9020710">
    <ele>210.4</ele>
    <time>2026-03-21T22:13:51Z</time>
   </trkpt>
   <trkpt lat="10.3815400" lon="123.9019440">
    <ele>213.5</ele>
    <time>2026-03-21T22:14:11Z</time>
   </trkpt>
   <trkpt lat="10.3816220" lon="123.9019200">
    <ele>215.1</ele>
    <time>2026-03-21T22:14:20Z</time>
   </trkpt>
   <trkpt lat="10.3816620" lon="123.9018520">
    <ele>216.6</ele>
    <time>2026-03-21T22:14:31Z</time>
   </trkpt>
   <trkpt lat="10.3818100" lon="123.9017670">
    <ele>219.6</ele>
    <time>2026-03-21T22:14:52Z</time>
   </trkpt>
   <trkpt lat="10.3818540" lon="123.9016860">
    <ele>221.1</ele>
    <time>2026-03-21T22:15:10Z</time>
   </trkpt>
   <trkpt lat="10.3818930" lon="123.9016450">
    <ele>222.0</ele>
    <time>2026-03-21T22:15:17Z</time>
   </trkpt>
   <trkpt lat="10.3819010" lon="123.9015840">
    <ele>223.0</ele>
    <time>2026-03-21T22:15:25Z</time>
   </trkpt>
   <trkpt lat="10.3819790" lon="123.9015130">
    <ele>224.9</ele>
    <time>2026-03-21T22:15:40Z</time>
   </trkpt>
   <trkpt lat="10.3820110" lon="123.9014380">
    <ele>226.4</ele>
    <time>2026-03-21T22:15:50Z</time>
   </trkpt>
   <trkpt lat="10.3820050" lon="123.9013820">
    <ele>227.5</ele>
    <time>2026-03-21T22:15:58Z</time>
   </trkpt>
   <trkpt lat="10.3819830" lon="123.9014180">
    <ele>228.3</ele>
    <time>2026-03-21T22:16:06Z</time>
   </trkpt>
   <trkpt lat="10.3819920" lon="123.9014750">
    <ele>229.5</ele>
    <time>2026-03-21T22:19:12Z</time>
   </trkpt>
   <trkpt lat="10.3819020" lon="123.9012810">
    <ele>233.9</ele>
    <time>2026-03-21T22:20:38Z</time>
   </trkpt>
   <trkpt lat="10.3818940" lon="123.9011870">
    <ele>235.4</ele>
    <time>2026-03-21T22:20:48Z</time>
   </trkpt>
   <trkpt lat="10.3819280" lon="123.9010960">
    <ele>236.9</ele>
    <time>2026-03-21T22:20:59Z</time>
   </trkpt>
   <trkpt lat="10.3820120" lon="123.9009610">
    <ele>238.9</ele>
    <time>2026-03-21T22:21:13Z</time>
   </trkpt>
   <trkpt lat="10.3821930" lon="123.9008180">
    <ele>241.7</ele>
    <time>2026-03-21T22:21:42Z</time>
   </trkpt>
   <trkpt lat="10.3823550" lon="123.9007610">
    <ele>243.8</ele>
    <time>2026-03-21T22:22:02Z</time>
   </trkpt>
   <trkpt lat="10.3824530" lon="123.9006950">
    <ele>245.2</ele>
    <time>2026-03-21T22:22:17Z</time>
   </trkpt>
   <trkpt lat="10.3825910" lon="123.9006680">
    <ele>246.7</ele>
    <time>2026-03-21T22:22:34Z</time>
   </trkpt>
   <trkpt lat="10.3826860" lon="123.9006090">
    <ele>247.7</ele>
    <time>2026-03-21T22:22:46Z</time>
   </trkpt>
   <trkpt lat="10.3828130" lon="123.9005670">
    <ele>248.2</ele>
    <time>2026-03-21T22:23:00Z</time>
   </trkpt>
   <trkpt lat="10.3828330" lon="123.9005470">
    <ele>248.3</ele>
    <time>2026-03-21T22:23:05Z</time>
   </trkpt>
   <trkpt lat="10.3829020" lon="123.9005780">
    <ele>249.4</ele>
    <time>2026-03-21T22:23:13Z</time>
   </trkpt>
   <trkpt lat="10.3830370" lon="123.9005830">
    <ele>251.4</ele>
    <time>2026-03-21T22:23:29Z</time>
   </trkpt>
   <trkpt lat="10.3830990" lon="123.9006310">
    <ele>252.6</ele>
    <time>2026-03-21T22:23:41Z</time>
   </trkpt>
   <trkpt lat="10.3832070" lon="123.9006650">
    <ele>254.2</ele>
    <time>2026-03-21T22:23:58Z</time>
   </trkpt>
   <trkpt lat="10.3833190" lon="123.9007240">
    <ele>255.5</ele>
    <time>2026-03-21T22:24:12Z</time>
   </trkpt>
   <trkpt lat="10.3833540" lon="123.9007160">
    <ele>255.7</ele>
    <time>2026-03-21T22:24:17Z</time>
   </trkpt>
   <trkpt lat="10.3834290" lon="123.9007280">
    <ele>256.0</ele>
    <time>2026-03-21T22:24:29Z</time>
   </trkpt>
   <trkpt lat="10.3835790" lon="123.9008240">
    <ele>256.1</ele>
    <time>2026-03-21T22:24:48Z</time>
   </trkpt>
   <trkpt lat="10.3838760" lon="123.9011540">
    <ele>258.6</ele>
    <time>2026-03-21T22:25:38Z</time>
   </trkpt>
   <trkpt lat="10.3839130" lon="123.9011790">
    <ele>259.1</ele>
    <time>2026-03-21T22:25:44Z</time>
   </trkpt>
   <trkpt lat="10.3840220" lon="123.9011880">
    <ele>259.9</ele>
    <time>2026-03-21T22:25:58Z</time>
   </trkpt>
   <trkpt lat="10.3842520" lon="123.9013010">
    <ele>260.7</ele>
    <time>2026-03-21T22:26:28Z</time>
   </trkpt>
   <trkpt lat="10.3844260" lon="123.9012920">
    <ele>259.8</ele>
    <time>2026-03-21T22:26:44Z</time>
   </trkpt>
   <trkpt lat="10.3845020" lon="123.9013020">
    <ele>259.0</ele>
    <time>2026-03-21T22:26:56Z</time>
   </trkpt>
   <trkpt lat="10.3846230" lon="123.9012660">
    <ele>257.1</ele>
    <time>2026-03-21T22:27:10Z</time>
   </trkpt>
   <trkpt lat="10.3848110" lon="123.9013070">
    <ele>253.0</ele>
    <time>2026-03-21T22:27:44Z</time>
   </trkpt>
   <trkpt lat="10.3850570" lon="123.9012870">
    <ele>247.2</ele>
    <time>2026-03-21T22:28:20Z</time>
   </trkpt>
   <trkpt lat="10.3851400" lon="123.9013070">
    <ele>245.4</ele>
    <time>2026-03-21T22:28:32Z</time>
   </trkpt>
   <trkpt lat="10.3851980" lon="123.9013000">
    <ele>244.2</ele>
    <time>2026-03-21T22:28:40Z</time>
   </trkpt>
   <trkpt lat="10.3852300" lon="123.9013160">
    <ele>243.5</ele>
    <time>2026-03-21T22:28:45Z</time>
   </trkpt>
   <trkpt lat="10.3853050" lon="123.9013070">
    <ele>242.0</ele>
    <time>2026-03-21T22:28:54Z</time>
   </trkpt>
   <trkpt lat="10.3854790" lon="123.9014330">
    <ele>238.0</ele>
    <time>2026-03-21T22:29:21Z</time>
   </trkpt>
   <trkpt lat="10.3855670" lon="123.9014650">
    <ele>236.3</ele>
    <time>2026-03-21T22:29:33Z</time>
   </trkpt>
   <trkpt lat="10.3856180" lon="123.9014720">
    <ele>235.3</ele>
    <time>2026-03-21T22:29:41Z</time>
   </trkpt>
   <trkpt lat="10.3856400" lon="123.9014580">
    <ele>234.9</ele>
    <time>2026-03-21T22:29:47Z</time>
   </trkpt>
   <trkpt lat="10.3856850" lon="123.9014690">
    <ele>234.0</ele>
    <time>2026-03-21T22:29:55Z</time>
   </trkpt>
   <trkpt lat="10.3857190" lon="123.9014510">
    <ele>233.3</ele>
    <time>2026-03-21T22:30:00Z</time>
   </trkpt>
   <trkpt lat="10.3857510" lon="123.9014580">
    <ele>232.7</ele>
    <time>2026-03-21T22:30:04Z</time>
   </trkpt>
   <trkpt lat="10.3858130" lon="123.9014420">
    <ele>231.5</ele>
    <time>2026-03-21T22:30:14Z</time>
   </trkpt>
   <trkpt lat="10.3859100" lon="123.9013520">
    <ele>228.9</ele>
    <time>2026-03-21T22:30:37Z</time>
   </trkpt>
   <trkpt lat="10.3859690" lon="123.9013180">
    <ele>227.5</ele>
    <time>2026-03-21T22:30:48Z</time>
   </trkpt>
   <trkpt lat="10.3859780" lon="123.9012820">
    <ele>226.8</ele>
    <time>2026-03-21T22:30:52Z</time>
   </trkpt>
   <trkpt lat="10.3859680" lon="123.9012310">
    <ele>225.6</ele>
    <time>2026-03-21T22:31:00Z</time>
   </trkpt>
   <trkpt lat="10.3859370" lon="123.9012890">
    <ele>224.1</ele>
    <time>2026-03-21T22:31:10Z</time>
   </trkpt>
   <trkpt lat="10.3859510" lon="123.9013570">
    <ele>222.6</ele>
    <time>2026-03-21T22:31:21Z</time>
   </trkpt>
   <trkpt lat="10.3859760" lon="123.9013430">
    <ele>222.0</ele>
    <time>2026-03-21T22:31:45Z</time>
   </trkpt>
   <trkpt lat="10.3859750" lon="123.9011890">
    <ele>219.0</ele>
    <time>2026-03-21T22:32:25Z</time>
   </trkpt>
   <trkpt lat="10.3859590" lon="123.9011370">
    <ele>218.0</ele>
    <time>2026-03-21T22:33:41Z</time>
   </trkpt>
   <trkpt lat="10.3860080" lon="123.9011990">
    <ele>217.0</ele>
    <time>2026-03-21T22:34:33Z</time>
   </trkpt>
   <trkpt lat="10.3860350" lon="123.9011340">
    <ele>216.3</ele>
    <time>2026-03-21T22:34:42Z</time>
   </trkpt>
   <trkpt lat="10.3860580" lon="123.9011140">
    <ele>216.0</ele>
    <time>2026-03-21T22:34:46Z</time>
   </trkpt>
   <trkpt lat="10.3862490" lon="123.9010670">
    <ele>214.4</ele>
    <time>2026-03-21T22:35:07Z</time>
   </trkpt>
   <trkpt lat="10.3863340" lon="123.9010620">
    <ele>213.9</ele>
    <time>2026-03-21T22:35:16Z</time>
   </trkpt>
   <trkpt lat="10.3864950" lon="123.9010900">
    <ele>213.8</ele>
    <time>2026-03-21T22:35:30Z</time>
   </trkpt>
   <trkpt lat="10.3865660" lon="123.9010730">
    <ele>214.1</ele>
    <time>2026-03-21T22:35:36Z</time>
   </trkpt>
   <trkpt lat="10.3866330" lon="123.9010840">
    <ele>214.6</ele>
    <time>2026-03-21T22:35:43Z</time>
   </trkpt>
   <trkpt lat="10.3867410" lon="123.9011280">
    <ele>216.1</ele>
    <time>2026-03-21T22:35:55Z</time>
   </trkpt>
   <trkpt lat="10.3868270" lon="123.9011830">
    <ele>217.9</ele>
    <time>2026-03-21T22:36:07Z</time>
   </trkpt>
   <trkpt lat="10.3868890" lon="123.9012470">
    <ele>219.6</ele>
    <time>2026-03-21T22:36:19Z</time>
   </trkpt>
   <trkpt lat="10.3870240" lon="123.9013040">
    <ele>221.9</ele>
    <time>2026-03-21T22:36:39Z</time>
   </trkpt>
   <trkpt lat="10.3871020" lon="123.9013780">
    <ele>222.9</ele>
    <time>2026-03-21T22:36:53Z</time>
   </trkpt>
   <trkpt lat="10.3871780" lon="123.9014110">
    <ele>223.3</ele>
    <time>2026-03-21T22:37:07Z</time>
   </trkpt>
   <trkpt lat="10.3872130" lon="123.9014490">
    <ele>223.5</ele>
    <time>2026-03-21T22:37:14Z</time>
   </trkpt>
   <trkpt lat="10.3873190" lon="123.9016260">
    <ele>223.6</ele>
    <time>2026-03-21T22:37:35Z</time>
   </trkpt>
   <trkpt lat="10.3873310" lon="123.9016720">
    <ele>223.6</ele>
    <time>2026-03-21T22:37:40Z</time>
   </trkpt>
   <trkpt lat="10.3873830" lon="123.9017330">
    <ele>223.5</ele>
    <time>2026-03-21T22:37:47Z</time>
   </trkpt>
   <trkpt lat="10.3874310" lon="123.9018250">
    <ele>223.5</ele>
    <time>2026-03-21T22:37:58Z</time>
   </trkpt>
   <trkpt lat="10.3874540" lon="123.9019250">
    <ele>223.5</ele>
    <time>2026-03-21T22:38:10Z</time>
   </trkpt>
   <trkpt lat="10.3874840" lon="123.9019810">
    <ele>223.7</ele>
    <time>2026-03-21T22:38:17Z</time>
   </trkpt>
   <trkpt lat="10.3875120" lon="123.9022540">
    <ele>225.2</ele>
    <time>2026-03-21T22:38:45Z</time>
   </trkpt>
   <trkpt lat="10.3876430" lon="123.9024800">
    <ele>227.0</ele>
    <time>2026-03-21T22:39:13Z</time>
   </trkpt>
   <trkpt lat="10.3876960" lon="123.9025310">
    <ele>227.4</ele>
    <time>2026-03-21T22:39:23Z</time>
   </trkpt>
   <trkpt lat="10.3877620" lon="123.9026950">
    <ele>228.3</ele>
    <time>2026-03-21T22:39:42Z</time>
   </trkpt>
   <trkpt lat="10.3878630" lon="123.9028030">
    <ele>229.6</ele>
    <time>2026-03-21T22:39:58Z</time>
   </trkpt>
   <trkpt lat="10.3880530" lon="123.9028900">
    <ele>232.4</ele>
    <time>2026-03-21T22:40:22Z</time>
   </trkpt>
   <trkpt lat="10.3880930" lon="123.9029680">
    <ele>233.5</ele>
    <time>2026-03-21T22:40:33Z</time>
   </trkpt>
   <trkpt lat="10.3881910" lon="123.9032490">
    <ele>235.7</ele>
    <time>2026-03-21T22:41:07Z</time>
   </trkpt>
   <trkpt lat="10.3882150" lon="123.9033740">
    <ele>236.4</ele>
    <time>2026-03-21T22:41:22Z</time>
   </trkpt>
   <trkpt lat="10.3881980" lon="123.9033840">
    <ele>236.6</ele>
    <time>2026-03-21T22:41:27Z</time>
   </trkpt>
   <trkpt lat="10.3882050" lon="123.9033730">
    <ele>236.7</ele>
    <time>2026-03-21T22:41:33Z</time>
   </trkpt>
   <trkpt lat="10.3882360" lon="123.9033760">
    <ele>236.9</ele>
    <time>2026-03-21T22:41:50Z</time>
   </trkpt>
   <trkpt lat="10.3882640" lon="123.9034130">
    <ele>237.2</ele>
    <time>2026-03-21T22:41:55Z</time>
   </trkpt>
   <trkpt lat="10.3883310" lon="123.9035790">
    <ele>239.0</ele>
    <time>2026-03-21T22:42:15Z</time>
   </trkpt>
   <trkpt lat="10.3883730" lon="123.9036210">
    <ele>239.5</ele>
    <time>2026-03-21T22:42:23Z</time>
   </trkpt>
   <trkpt lat="10.3883980" lon="123.9036770">
    <ele>240.0</ele>
    <time>2026-03-21T22:42:30Z</time>
   </trkpt>
   <trkpt lat="10.3884710" lon="123.9037720">
    <ele>240.9</ele>
    <time>2026-03-21T22:42:44Z</time>
   </trkpt>
   <trkpt lat="10.3885180" lon="123.9038790">
    <ele>241.4</ele>
    <time>2026-03-21T22:42:57Z</time>
   </trkpt>
   <trkpt lat="10.3885290" lon="123.9038860">
    <ele>241.5</ele>
    <time>2026-03-21T22:42:59Z</time>
   </trkpt>
   <trkpt lat="10.3885660" lon="123.9038440">
    <ele>241.8</ele>
    <time>2026-03-21T22:43:19Z</time>
   </trkpt>
   <trkpt lat="10.3886270" lon="123.9038290">
    <ele>242.2</ele>
    <time>2026-03-21T22:43:32Z</time>
   </trkpt>
   <trkpt lat="10.3885620" lon="123.9041130">
    <ele>242.9</ele>
    <time>2026-03-21T22:44:10Z</time>
   </trkpt>
   <trkpt lat="10.3884660" lon="123.9042020">
    <ele>241.8</ele>
    <time>2026-03-21T22:44:24Z</time>
   </trkpt>
   <trkpt lat="10.3883850" lon="123.9042480">
    <ele>241.0</ele>
    <time>2026-03-21T22:44:34Z</time>
   </trkpt>
   <trkpt lat="10.3883850" lon="123.9042930">
    <ele>240.5</ele>
    <time>2026-03-21T22:44:40Z</time>
   </trkpt>
   <trkpt lat="10.3883420" lon="123.9044000">
    <ele>239.4</ele>
    <time>2026-03-21T22:44:52Z</time>
   </trkpt>
   <trkpt lat="10.3881590" lon="123.9045230">
    <ele>236.6</ele>
    <time>2026-03-21T22:45:15Z</time>
   </trkpt>
   <trkpt lat="10.3879880" lon="123.9045600">
    <ele>233.5</ele>
    <time>2026-03-21T22:45:35Z</time>
   </trkpt>
   <trkpt lat="10.3878910" lon="123.9045970">
    <ele>231.6</ele>
    <time>2026-03-21T22:45:47Z</time>
   </trkpt>
   <trkpt lat="10.3877900" lon="123.9046700">
    <ele>229.6</ele>
    <time>2026-03-21T22:46:00Z</time>
   </trkpt>
   <trkpt lat="10.3877120" lon="123.9047570">
    <ele>228.0</ele>
    <time>2026-03-21T22:46:11Z</time>
   </trkpt>
   <trkpt lat="10.3876440" lon="123.9048620">
    <ele>226.5</ele>
    <time>2026-03-21T22:46:28Z</time>
   </trkpt>
   <trkpt lat="10.3874630" lon="123.9053340">
    <ele>220.1</ele>
    <time>2026-03-21T22:47:18Z</time>
   </trkpt>
   <trkpt lat="10.3874490" lon="123.9054500">
    <ele>218.3</ele>
    <time>2026-03-21T22:47:29Z</time>
   </trkpt>
   <trkpt lat="10.3874780" lon="123.9058440">
    <ele>212.2</ele>
    <time>2026-03-21T22:48:06Z</time>
   </trkpt>
   <trkpt lat="10.3874260" lon="123.9060470">
    <ele>212.9</ele>
    <time>2026-03-21T22:48:26Z</time>
   </trkpt>
   <trkpt lat="10.3873190" lon="123.9063200">
    <ele>210.8</ele>
    <time>2026-03-21T22:48:57Z</time>
   </trkpt>
   <trkpt lat="10.3872530" lon="123.9063830">
    <ele>209.2</ele>
    <time>2026-03-21T22:49:05Z</time>
   </trkpt>
   <trkpt lat="10.3872200" lon="123.9064380">
    <ele>205.0</ele>
    <time>2026-03-21T22:49:14Z</time>
   </trkpt>
   <trkpt lat="10.3872050" lon="123.9064180">
    <ele>207.0</ele>
    <time>2026-03-21T22:49:26Z</time>
   </trkpt>
   <trkpt lat="10.3872510" lon="123.9064410">
    <ele>205.6</ele>
    <time>2026-03-21T22:50:05Z</time>
   </trkpt>
   <trkpt lat="10.3872390" lon="123.9064650">
    <ele>205.6</ele>
    <time>2026-03-21T22:50:12Z</time>
   </trkpt>
   <trkpt lat="10.3872510" lon="123.9064380">
    <ele>205.6</ele>
    <time>2026-03-21T22:50:29Z</time>
   </trkpt>
   <trkpt lat="10.3872070" lon="123.9063970">
    <ele>207.0</ele>
    <time>2026-03-21T22:50:53Z</time>
   </trkpt>
   <trkpt lat="10.3872450" lon="123.9063910">
    <ele>207.6</ele>
    <time>2026-03-21T22:51:21Z</time>
   </trkpt>
   <trkpt lat="10.3872770" lon="123.9064120">
    <ele>207.6</ele>
    <time>2026-03-21T22:51:26Z</time>
   </trkpt>
   <trkpt lat="10.3872520" lon="123.9064340">
    <ele>205.6</ele>
    <time>2026-03-21T22:52:10Z</time>
   </trkpt>
   <trkpt lat="10.3872620" lon="123.9064280">
    <ele>205.6</ele>
    <time>2026-03-21T22:52:13Z</time>
   </trkpt>
   <trkpt lat="10.3872380" lon="123.9064230">
    <ele>207.6</ele>
    <time>2026-03-21T22:52:23Z</time>
   </trkpt>
   <trkpt lat="10.3872650" lon="123.9064170">
    <ele>207.6</ele>
    <time>2026-03-21T22:52:33Z</time>
   </trkpt>
   <trkpt lat="10.3872350" lon="123.9064000">
    <ele>206.9</ele>
    <time>2026-03-21T22:53:15Z</time>
   </trkpt>
   <trkpt lat="10.3872430" lon="123.9063920">
    <ele>207.6</ele>
    <time>2026-03-21T22:53:19Z</time>
   </trkpt>
   <trkpt lat="10.3872550" lon="123.9064300">
    <ele>205.5</ele>
    <time>2026-03-21T22:55:10Z</time>
   </trkpt>
   <trkpt lat="10.3872940" lon="123.9064390">
    <ele>206.1</ele>
    <time>2026-03-21T22:55:42Z</time>
   </trkpt>
   <trkpt lat="10.3872990" lon="123.9064630">
    <ele>206.1</ele>
    <time>2026-03-21T22:55:48Z</time>
   </trkpt>
   <trkpt lat="10.3872800" lon="123.9064670">
    <ele>206.1</ele>
    <time>2026-03-21T22:55:54Z</time>
   </trkpt>
   <trkpt lat="10.3872930" lon="123.9064400">
    <ele>206.1</ele>
    <time>2026-03-21T22:56:15Z</time>
   </trkpt>
   <trkpt lat="10.3872610" lon="123.9064530">
    <ele>205.5</ele>
    <time>2026-03-21T22:56:50Z</time>
   </trkpt>
   <trkpt lat="10.3872500" lon="123.9064090">
    <ele>207.4</ele>
    <time>2026-03-21T23:00:05Z</time>
   </trkpt>
   <trkpt lat="10.3872260" lon="123.9064390">
    <ele>204.8</ele>
    <time>2026-03-21T23:00:36Z</time>
   </trkpt>
   <trkpt lat="10.3871850" lon="123.9064050">
    <ele>206.0</ele>
    <time>2026-03-21T23:02:48Z</time>
   </trkpt>
   <trkpt lat="10.3872130" lon="123.9064020">
    <ele>206.8</ele>
    <time>2026-03-21T23:03:00Z</time>
   </trkpt>
   <trkpt lat="10.3872130" lon="123.9063680">
    <ele>208.3</ele>
    <time>2026-03-21T23:03:44Z</time>
   </trkpt>
   <trkpt lat="10.3872430" lon="123.9063400">
    <ele>210.1</ele>
    <time>2026-03-21T23:04:30Z</time>
   </trkpt>
   <trkpt lat="10.3873100" lon="123.9063090">
    <ele>210.5</ele>
    <time>2026-03-21T23:04:40Z</time>
   </trkpt>
   <trkpt lat="10.3873780" lon="123.9061790">
    <ele>212.4</ele>
    <time>2026-03-21T23:05:00Z</time>
   </trkpt>
   <trkpt lat="10.3873680" lon="123.9060730">
    <ele>212.2</ele>
    <time>2026-03-21T23:05:13Z</time>
   </trkpt>
   <trkpt lat="10.3874260" lon="123.9058920">
    <ele>211.4</ele>
    <time>2026-03-21T23:05:37Z</time>
   </trkpt>
   <trkpt lat="10.3874600" lon="123.9056440">
    <ele>215.2</ele>
    <time>2026-03-21T23:06:04Z</time>
   </trkpt>
   <trkpt lat="10.3874840" lon="123.9055930">
    <ele>216.0</ele>
    <time>2026-03-21T23:06:13Z</time>
   </trkpt>
   <trkpt lat="10.3874650" lon="123.9054680">
    <ele>218.0</ele>
    <time>2026-03-21T23:06:30Z</time>
   </trkpt>
   <trkpt lat="10.3874740" lon="123.9054030">
    <ele>219.0</ele>
    <time>2026-03-21T23:06:40Z</time>
   </trkpt>
   <trkpt lat="10.3874550" lon="123.9053460">
    <ele>219.9</ele>
    <time>2026-03-21T23:06:47Z</time>
   </trkpt>
   <trkpt lat="10.3874630" lon="123.9052830">
    <ele>220.8</ele>
    <time>2026-03-21T23:06:53Z</time>
   </trkpt>
   <trkpt lat="10.3875250" lon="123.9051690">
    <ele>222.8</ele>
    <time>2026-03-21T23:07:07Z</time>
   </trkpt>
   <trkpt lat="10.3875890" lon="123.9049930">
    <ele>224.9</ele>
    <time>2026-03-21T23:07:31Z</time>
   </trkpt>
   <trkpt lat="10.3876090" lon="123.9049730">
    <ele>225.2</ele>
    <time>2026-03-21T23:07:34Z</time>
   </trkpt>
   <trkpt lat="10.3875980" lon="123.9049350">
    <ele>225.7</ele>
    <time>2026-03-21T23:07:41Z</time>
   </trkpt>
   <trkpt lat="10.3876580" lon="123.9047890">
    <ele>227.6</ele>
    <time>2026-03-21T23:08:00Z</time>
   </trkpt>
   <trkpt lat="10.3877190" lon="123.9046930">
    <ele>229.0</ele>
    <time>2026-03-21T23:08:14Z</time>
   </trkpt>
   <trkpt lat="10.3877910" lon="123.9046300">
    <ele>230.5</ele>
    <time>2026-03-21T23:08:23Z</time>
   </trkpt>
   <trkpt lat="10.3878820" lon="123.9045810">
    <ele>232.3</ele>
    <time>2026-03-21T23:08:33Z</time>
   </trkpt>
   <trkpt lat="10.3880800" lon="123.9045070">
    <ele>236.1</ele>
    <time>2026-03-21T23:09:00Z</time>
   </trkpt>
   <trkpt lat="10.3882090" lon="123.9044340">
    <ele>238.1</ele>
    <time>2026-03-21T23:09:20Z</time>
   </trkpt>
   <trkpt lat="10.3882240" lon="123.9044040">
    <ele>238.5</ele>
    <time>2026-03-21T23:09:25Z</time>
   </trkpt>
   <trkpt lat="10.3884370" lon="123.9041990">
    <ele>241.5</ele>
    <time>2026-03-21T23:09:57Z</time>
   </trkpt>
   <trkpt lat="10.3885350" lon="123.9040460">
    <ele>243.0</ele>
    <time>2026-03-21T23:10:20Z</time>
   </trkpt>
   <trkpt lat="10.3885510" lon="123.9039420">
    <ele>242.9</ele>
    <time>2026-03-21T23:10:32Z</time>
   </trkpt>
   <trkpt lat="10.3885890" lon="123.9038660">
    <ele>242.2</ele>
    <time>2026-03-21T23:11:49Z</time>
   </trkpt>
   <trkpt lat="10.3885280" lon="123.9038560">
    <ele>241.7</ele>
    <time>2026-03-21T23:11:57Z</time>
   </trkpt>
   <trkpt lat="10.3885010" lon="123.9038710">
    <ele>241.4</ele>
    <time>2026-03-21T23:12:02Z</time>
   </trkpt>
   <trkpt lat="10.3884580" lon="123.9038490">
    <ele>241.1</ele>
    <time>2026-03-21T23:12:09Z</time>
   </trkpt>
   <trkpt lat="10.3883840" lon="123.9036920">
    <ele>239.3</ele>
    <time>2026-03-21T23:12:34Z</time>
   </trkpt>
   <trkpt lat="10.3883320" lon="123.9036310">
    <ele>238.2</ele>
    <time>2026-03-21T23:12:48Z</time>
   </trkpt>
   <trkpt lat="10.3883010" lon="123.9036170">
    <ele>237.7</ele>
    <time>2026-03-21T23:12:53Z</time>
   </trkpt>
   <trkpt lat="10.3882540" lon="123.9035400">
    <ele>236.7</ele>
    <time>2026-03-21T23:13:05Z</time>
   </trkpt>
   <trkpt lat="10.3882450" lon="123.9034950">
    <ele>236.3</ele>
    <time>2026-03-21T23:13:13Z</time>
   </trkpt>
   <trkpt lat="10.3882040" lon="123.9034210">
    <ele>235.7</ele>
    <time>2026-03-21T23:13:23Z</time>
   </trkpt>
   <trkpt lat="10.3882140" lon="123.9033910">
    <ele>236.0</ele>
    <time>2026-03-21T23:13:26Z</time>
   </trkpt>
   <trkpt lat="10.3882930" lon="123.9033920">
    <ele>236.2</ele>
    <time>2026-03-21T23:15:31Z</time>
   </trkpt>
   <trkpt lat="10.3883430" lon="123.9034530">
    <ele>236.3</ele>
    <time>2026-03-21T23:15:40Z</time>
   </trkpt>
   <trkpt lat="10.3883920" lon="123.9035600">
    <ele>236.3</ele>
    <time>2026-03-21T23:15:54Z</time>
   </trkpt>
   <trkpt lat="10.3884380" lon="123.9036030">
    <ele>236.2</ele>
    <time>2026-03-21T23:16:01Z</time>
   </trkpt>
   <trkpt lat="10.3886350" lon="123.9037060">
    <ele>235.0</ele>
    <time>2026-03-21T23:16:27Z</time>
   </trkpt>
   <trkpt lat="10.3887450" lon="123.9037030">
    <ele>233.9</ele>
    <time>2026-03-21T23:16:40Z</time>
   </trkpt>
   <trkpt lat="10.3888750" lon="123.9037520">
    <ele>232.4</ele>
    <time>2026-03-21T23:16:58Z</time>
   </trkpt>
   <trkpt lat="10.3889260" lon="123.9037460">
    <ele>231.8</ele>
    <time>2026-03-21T23:17:04Z</time>
   </trkpt>
   <trkpt lat="10.3889910" lon="123.9037690">
    <ele>231.0</ele>
    <time>2026-03-21T23:17:13Z</time>
   </trkpt>
   <trkpt lat="10.3891080" lon="123.9037550">
    <ele>229.8</ele>
    <time>2026-03-21T23:17:24Z</time>
   </trkpt>
   <trkpt lat="10.3893590" lon="123.9038730">
    <ele>226.9</ele>
    <time>2026-03-21T23:17:57Z</time>
   </trkpt>
   <trkpt lat="10.3894770" lon="123.9038690">
    <ele>225.5</ele>
    <time>2026-03-21T23:18:10Z</time>
   </trkpt>
   <trkpt lat="10.3895080" lon="123.9038930">
    <ele>225.0</ele>
    <time>2026-03-21T23:18:15Z</time>
   </trkpt>
   <trkpt lat="10.3896260" lon="123.9039050">
    <ele>223.6</ele>
    <time>2026-03-21T23:18:27Z</time>
   </trkpt>
   <trkpt lat="10.3896720" lon="123.9039190">
    <ele>223.0</ele>
    <time>2026-03-21T23:18:34Z</time>
   </trkpt>
   <trkpt lat="10.3897630" lon="123.9039790">
    <ele>221.6</ele>
    <time>2026-03-21T23:18:44Z</time>
   </trkpt>
   <trkpt lat="10.3898070" lon="123.9039760">
    <ele>221.1</ele>
    <time>2026-03-21T23:18:48Z</time>
   </trkpt>
   <trkpt lat="10.3898580" lon="123.9040120">
    <ele>220.3</ele>
    <time>2026-03-21T23:18:56Z</time>
   </trkpt>
   <trkpt lat="10.3898930" lon="123.9040080">
    <ele>219.9</ele>
    <time>2026-03-21T23:19:01Z</time>
   </trkpt>
   <trkpt lat="10.3899050" lon="123.9040240">
    <ele>219.7</ele>
    <time>2026-03-21T23:19:03Z</time>
   </trkpt>
   <trkpt lat="10.3900190" lon="123.9040460">
    <ele>218.3</ele>
    <time>2026-03-21T23:19:18Z</time>
   </trkpt>
   <trkpt lat="10.3900820" lon="123.9040330">
    <ele>217.6</ele>
    <time>2026-03-21T23:19:26Z</time>
   </trkpt>
   <trkpt lat="10.3901470" lon="123.9039930">
    <ele>216.6</ele>
    <time>2026-03-21T23:19:36Z</time>
   </trkpt>
   <trkpt lat="10.3901760" lon="123.9039500">
    <ele>215.8</ele>
    <time>2026-03-21T23:19:42Z</time>
   </trkpt>
   <trkpt lat="10.3901970" lon="123.9039440">
    <ele>215.5</ele>
    <time>2026-03-21T23:19:46Z</time>
   </trkpt>
   <trkpt lat="10.3902840" lon="123.9038550">
    <ele>213.4</ele>
    <time>2026-03-21T23:20:02Z</time>
   </trkpt>
   <trkpt lat="10.3903550" lon="123.9037550">
    <ele>211.2</ele>
    <time>2026-03-21T23:20:18Z</time>
   </trkpt>
   <trkpt lat="10.3904280" lon="123.9037040">
    <ele>209.5</ele>
    <time>2026-03-21T23:20:30Z</time>
   </trkpt>
   <trkpt lat="10.3904790" lon="123.9036850">
    <ele>208.5</ele>
    <time>2026-03-21T23:20:40Z</time>
   </trkpt>
   <trkpt lat="10.3905400" lon="123.9036830">
    <ele>207.2</ele>
    <time>2026-03-21T23:20:49Z</time>
   </trkpt>
   <trkpt lat="10.3906220" lon="123.9036400">
    <ele>205.2</ele>
    <time>2026-03-21T23:21:02Z</time>
   </trkpt>
   <trkpt lat="10.3907630" lon="123.9036020">
    <ele>201.9</ele>
    <time>2026-03-21T23:21:17Z</time>
   </trkpt>
   <trkpt lat="10.3908750" lon="123.9035050">
    <ele>198.5</ele>
    <time>2026-03-21T23:21:34Z</time>
   </trkpt>
   <trkpt lat="10.3909080" lon="123.9034540">
    <ele>197.3</ele>
    <time>2026-03-21T23:21:41Z</time>
   </trkpt>
   <trkpt lat="10.3908950" lon="123.9032380">
    <ele>193.5</ele>
    <time>2026-03-21T23:22:10Z</time>
   </trkpt>
   <trkpt lat="10.3909300" lon="123.9031440">
    <ele>191.7</ele>
    <time>2026-03-21T23:22:27Z</time>
   </trkpt>
   <trkpt lat="10.3910000" lon="123.9030580">
    <ele>189.6</ele>
    <time>2026-03-21T23:22:42Z</time>
   </trkpt>
   <trkpt lat="10.3910480" lon="123.9030400">
    <ele>188.5</ele>
    <time>2026-03-21T23:22:49Z</time>
   </trkpt>
   <trkpt lat="10.3911000" lon="123.9029950">
    <ele>187.0</ele>
    <time>2026-03-21T23:22:57Z</time>
   </trkpt>
   <trkpt lat="10.3911650" lon="123.9029660">
    <ele>185.5</ele>
    <time>2026-03-21T23:23:07Z</time>
   </trkpt>
   <trkpt lat="10.3913300" lon="123.9029420">
    <ele>181.9</ele>
    <time>2026-03-21T23:23:33Z</time>
   </trkpt>
   <trkpt lat="10.3913800" lon="123.9029600">
    <ele>180.7</ele>
    <time>2026-03-21T23:23:42Z</time>
   </trkpt>
   <trkpt lat="10.3914980" lon="123.9029480">
    <ele>177.9</ele>
    <time>2026-03-21T23:23:59Z</time>
   </trkpt>
   <trkpt lat="10.3915850" lon="123.9029740">
    <ele>175.8</ele>
    <time>2026-03-21T23:24:11Z</time>
   </trkpt>
   <trkpt lat="10.3918830" lon="123.9029900">
    <ele>168.6</ele>
    <time>2026-03-21T23:24:58Z</time>
   </trkpt>
   <trkpt lat="10.3919640" lon="123.9030330">
    <ele>166.5</ele>
    <time>2026-03-21T23:25:11Z</time>
   </trkpt>
   <trkpt lat="10.3920340" lon="123.9031960">
    <ele>162.7</ele>
    <time>2026-03-21T23:25:36Z</time>
   </trkpt>
   <trkpt lat="10.3921570" lon="123.9032680">
    <ele>160.1</ele>
    <time>2026-03-21T23:25:53Z</time>
   </trkpt>
   <trkpt lat="10.3921600" lon="123.9032950">
    <ele>159.7</ele>
    <time>2026-03-21T23:26:00Z</time>
   </trkpt>
   <trkpt lat="10.3922380" lon="123.9033270">
    <ele>158.4</ele>
    <time>2026-03-21T23:27:13Z</time>
   </trkpt>
   <trkpt lat="10.3922620" lon="123.9033580">
    <ele>158.0</ele>
    <time>2026-03-21T23:27:22Z</time>
   </trkpt>
   <trkpt lat="10.3923250" lon="123.9033900">
    <ele>157.5</ele>
    <time>2026-03-21T23:27:34Z</time>
   </trkpt>
   <trkpt lat="10.3923570" lon="123.9034560">
    <ele>157.1</ele>
    <time>2026-03-21T23:28:06Z</time>
   </trkpt>
   <trkpt lat="10.3923630" lon="123.9034480">
    <ele>157.0</ele>
    <time>2026-03-21T23:28:13Z</time>
   </trkpt>
   <trkpt lat="10.3923460" lon="123.9034500">
    <ele>157.0</ele>
    <time>2026-03-21T23:28:51Z</time>
   </trkpt>
   <trkpt lat="10.3923600" lon="123.9034280">
    <ele>156.8</ele>
    <time>2026-03-21T23:29:03Z</time>
   </trkpt>
   <trkpt lat="10.3923210" lon="123.9034780">
    <ele>156.6</ele>
    <time>2026-03-21T23:30:00Z</time>
   </trkpt>
   <trkpt lat="10.3923620" lon="123.9034540">
    <ele>156.4</ele>
    <time>2026-03-21T23:30:11Z</time>
   </trkpt>
   <trkpt lat="10.3924000" lon="123.9034620">
    <ele>156.4</ele>
    <time>2026-03-21T23:31:17Z</time>
   </trkpt>
   <trkpt lat="10.3925710" lon="123.9035430">
    <ele>156.2</ele>
    <time>2026-03-21T23:31:42Z</time>
   </trkpt>
   <trkpt lat="10.3925850" lon="123.9035810">
    <ele>156.2</ele>
    <time>2026-03-21T23:31:47Z</time>
   </trkpt>
   <trkpt lat="10.3926450" lon="123.9036470">
    <ele>156.2</ele>
    <time>2026-03-21T23:31:59Z</time>
   </trkpt>
   <trkpt lat="10.3926570" lon="123.9036960">
    <ele>156.1</ele>
    <time>2026-03-21T23:32:04Z</time>
   </trkpt>
   <trkpt lat="10.3926920" lon="123.9037500">
    <ele>156.0</ele>
    <time>2026-03-21T23:32:14Z</time>
   </trkpt>
   <trkpt lat="10.3926770" lon="123.9037650">
    <ele>155.9</ele>
    <time>2026-03-21T23:32:21Z</time>
   </trkpt>
   <trkpt lat="10.3926950" lon="123.9037200">
    <ele>155.8</ele>
    <time>2026-03-21T23:34:53Z</time>
   </trkpt>
   <trkpt lat="10.3927120" lon="123.9037500">
    <ele>155.7</ele>
    <time>2026-03-21T23:36:01Z</time>
   </trkpt>
   <trkpt lat="10.3928030" lon="123.9038220">
    <ele>155.7</ele>
    <time>2026-03-21T23:36:13Z</time>
   </trkpt>
   <trkpt lat="10.3930180" lon="123.9038870">
    <ele>156.2</ele>
    <time>2026-03-21T23:36:40Z</time>
   </trkpt>
   <trkpt lat="10.3930850" lon="123.9039360">
    <ele>156.6</ele>
    <time>2026-03-21T23:36:52Z</time>
   </trkpt>
   <trkpt lat="10.3931540" lon="123.9039420">
    <ele>157.1</ele>
    <time>2026-03-21T23:36:59Z</time>
   </trkpt>
   <trkpt lat="10.3931840" lon="123.9039590">
    <ele>157.3</ele>
    <time>2026-03-21T23:37:03Z</time>
   </trkpt>
   <trkpt lat="10.3932630" lon="123.9040510">
    <ele>157.7</ele>
    <time>2026-03-21T23:37:17Z</time>
   </trkpt>
   <trkpt lat="10.3932850" lon="123.9040940">
    <ele>157.9</ele>
    <time>2026-03-21T23:37:22Z</time>
   </trkpt>
   <trkpt lat="10.3933110" lon="123.9042260">
    <ele>158.2</ele>
    <time>2026-03-21T23:37:36Z</time>
   </trkpt>
   <trkpt lat="10.3933110" lon="123.9043400">
    <ele>158.4</ele>
    <time>2026-03-21T23:37:49Z</time>
   </trkpt>
   <trkpt lat="10.3933260" lon="123.9043840">
    <ele>158.5</ele>
    <time>2026-03-21T23:37:54Z</time>
   </trkpt>
   <trkpt lat="10.3933140" lon="123.9044610">
    <ele>158.7</ele>
    <time>2026-03-21T23:38:03Z</time>
   </trkpt>
   <trkpt lat="10.3934190" lon="123.9047090">
    <ele>158.6</ele>
    <time>2026-03-21T23:38:32Z</time>
   </trkpt>
   <trkpt lat="10.3935840" lon="123.9049070">
    <ele>156.9</ele>
    <time>2026-03-21T23:38:59Z</time>
   </trkpt>
   <trkpt lat="10.3936530" lon="123.9049380">
    <ele>156.2</ele>
    <time>2026-03-21T23:39:08Z</time>
   </trkpt>
   <trkpt lat="10.3937370" lon="123.9051090">
    <ele>154.1</ele>
    <time>2026-03-21T23:39:27Z</time>
   </trkpt>
   <trkpt lat="10.3938020" lon="123.9051620">
    <ele>153.0</ele>
    <time>2026-03-21T23:39:33Z</time>
   </trkpt>
   <trkpt lat="10.3938260" lon="123.9052050">
    <ele>152.3</ele>
    <time>2026-03-21T23:39:41Z</time>
   </trkpt>
   <trkpt lat="10.3938480" lon="123.9053010">
    <ele>150.9</ele>
    <time>2026-03-21T23:39:53Z</time>
   </trkpt>
   <trkpt lat="10.3938550" lon="123.9055190">
    <ele>147.8</ele>
    <time>2026-03-21T23:40:16Z</time>
   </trkpt>
   <trkpt lat="10.3938650" lon="123.9055280">
    <ele>147.5</ele>
    <time>2026-03-21T23:40:19Z</time>
   </trkpt>
   <trkpt lat="10.3938310" lon="123.9056910">
    <ele>145.0</ele>
    <time>2026-03-21T23:40:35Z</time>
   </trkpt>
   <trkpt lat="10.3938650" lon="123.9057630">
    <ele>143.7</ele>
    <time>2026-03-21T23:40:45Z</time>
   </trkpt>
   <trkpt lat="10.3939050" lon="123.9058260">
    <ele>142.6</ele>
    <time>2026-03-21T23:40:51Z</time>
   </trkpt>
   <trkpt lat="10.3940460" lon="123.9059340">
    <ele>139.4</ele>
    <time>2026-03-21T23:41:13Z</time>
   </trkpt>
   <trkpt lat="10.3940870" lon="123.9060180">
    <ele>137.7</ele>
    <time>2026-03-21T23:41:22Z</time>
   </trkpt>
   <trkpt lat="10.3941170" lon="123.9060400">
    <ele>136.9</ele>
    <time>2026-03-21T23:41:29Z</time>
   </trkpt>
   <trkpt lat="10.3942820" lon="123.9061030">
    <ele>133.7</ele>
    <time>2026-03-21T23:41:56Z</time>
   </trkpt>
   <trkpt lat="10.3943320" lon="123.9061510">
    <ele>132.6</ele>
    <time>2026-03-21T23:42:05Z</time>
   </trkpt>
   <trkpt lat="10.3943940" lon="123.9061690">
    <ele>131.6</ele>
    <time>2026-03-21T23:42:13Z</time>
   </trkpt>
   <trkpt lat="10.3944720" lon="123.9062480">
    <ele>130.0</ele>
    <time>2026-03-21T23:42:23Z</time>
   </trkpt>
   <trkpt lat="10.3945510" lon="123.9062610">
    <ele>129.0</ele>
    <time>2026-03-21T23:42:30Z</time>
   </trkpt>
   <trkpt lat="10.3946490" lon="123.9063040">
    <ele>127.8</ele>
    <time>2026-03-21T23:42:41Z</time>
   </trkpt>
   <trkpt lat="10.3946730" lon="123.9063470">
    <ele>127.3</ele>
    <time>2026-03-21T23:42:48Z</time>
   </trkpt>
   <trkpt lat="10.3947160" lon="123.9063610">
    <ele>126.9</ele>
    <time>2026-03-21T23:42:53Z</time>
   </trkpt>
   <trkpt lat="10.3947690" lon="123.9064180">
    <ele>126.2</ele>
    <time>2026-03-21T23:43:02Z</time>
   </trkpt>
   <trkpt lat="10.3948760" lon="123.9066210">
    <ele>124.6</ele>
    <time>2026-03-21T23:43:27Z</time>
   </trkpt>
   <trkpt lat="10.3949340" lon="123.9069790">
    <ele>121.1</ele>
    <time>2026-03-21T23:44:18Z</time>
   </trkpt>
   <trkpt lat="10.3949960" lon="123.9070720">
    <ele>119.7</ele>
    <time>2026-03-21T23:44:31Z</time>
   </trkpt>
   <trkpt lat="10.3949910" lon="123.9070980">
    <ele>119.3</ele>
    <time>2026-03-21T23:44:36Z</time>
   </trkpt>
   <trkpt lat="10.3950240" lon="123.9071840">
    <ele>118.0</ele>
    <time>2026-03-21T23:44:51Z</time>
   </trkpt>
   <trkpt lat="10.3950760" lon="123.9072330">
    <ele>117.0</ele>
    <time>2026-03-21T23:44:59Z</time>
   </trkpt>
   <trkpt lat="10.3950930" lon="123.9072910">
    <ele>116.2</ele>
    <time>2026-03-21T23:45:06Z</time>
   </trkpt>
   <trkpt lat="10.3951350" lon="123.9073150">
    <ele>115.5</ele>
    <time>2026-03-21T23:45:13Z</time>
   </trkpt>
   <trkpt lat="10.3951480" lon="123.9073550">
    <ele>114.9</ele>
    <time>2026-03-21T23:45:17Z</time>
   </trkpt>
   <trkpt lat="10.3952140" lon="123.9074050">
    <ele>113.8</ele>
    <time>2026-03-21T23:45:26Z</time>
   </trkpt>
   <trkpt lat="10.3953170" lon="123.9073980">
    <ele>112.3</ele>
    <time>2026-03-21T23:45:41Z</time>
   </trkpt>
   <trkpt lat="10.3953760" lon="123.9073600">
    <ele>111.3</ele>
    <time>2026-03-21T23:45:50Z</time>
   </trkpt>
   <trkpt lat="10.3954400" lon="123.9072490">
    <ele>109.4</ele>
    <time>2026-03-21T23:46:07Z</time>
   </trkpt>
   <trkpt lat="10.3954570" lon="123.9071700">
    <ele>108.2</ele>
    <time>2026-03-21T23:46:17Z</time>
   </trkpt>
   <trkpt lat="10.3954440" lon="123.9071230">
    <ele>107.5</ele>
    <time>2026-03-21T23:46:22Z</time>
   </trkpt>
   <trkpt lat="10.3954670" lon="123.9069430">
    <ele>105.1</ele>
    <time>2026-03-21T23:46:47Z</time>
   </trkpt>
   <trkpt lat="10.3954250" lon="123.9068630">
    <ele>104.0</ele>
    <time>2026-03-21T23:47:01Z</time>
   </trkpt>
   <trkpt lat="10.3954050" lon="123.9067230">
    <ele>102.3</ele>
    <time>2026-03-21T23:47:21Z</time>
   </trkpt>
   <trkpt lat="10.3954180" lon="123.9064390">
    <ele>98.9</ele>
    <time>2026-03-21T23:47:53Z</time>
   </trkpt>
   <trkpt lat="10.3954420" lon="123.9064110">
    <ele>98.5</ele>
    <time>2026-03-21T23:47:56Z</time>
   </trkpt>
   <trkpt lat="10.3955160" lon="123.9063910">
    <ele>97.7</ele>
    <time>2026-03-21T23:48:04Z</time>
   </trkpt>
   <trkpt lat="10.3955770" lon="123.9064040">
    <ele>97.2</ele>
    <time>2026-03-21T23:48:14Z</time>
   </trkpt>
   <trkpt lat="10.3956220" lon="123.9064420">
    <ele>96.7</ele>
    <time>2026-03-21T23:48:22Z</time>
   </trkpt>
   <trkpt lat="10.3956230" lon="123.9066380">
    <ele>95.8</ele>
    <time>2026-03-21T23:48:41Z</time>
   </trkpt>
   <trkpt lat="10.3956420" lon="123.9068100">
    <ele>95.4</ele>
    <time>2026-03-21T23:48:59Z</time>
   </trkpt>
   <trkpt lat="10.3956690" lon="123.9068810">
    <ele>95.4</ele>
    <time>2026-03-21T23:49:07Z</time>
   </trkpt>
   <trkpt lat="10.3957670" lon="123.9069670">
    <ele>95.3</ele>
    <time>2026-03-21T23:49:20Z</time>
   </trkpt>
   <trkpt lat="10.3959280" lon="123.9070290">
    <ele>94.4</ele>
    <time>2026-03-21T23:49:39Z</time>
   </trkpt>
   <trkpt lat="10.3960300" lon="123.9070270">
    <ele>93.7</ele>
    <time>2026-03-21T23:49:49Z</time>
   </trkpt>
   <trkpt lat="10.3961400" lon="123.9070570">
    <ele>92.8</ele>
    <time>2026-03-21T23:50:01Z</time>
   </trkpt>
   <trkpt lat="10.3962900" lon="123.9071460">
    <ele>91.3</ele>
    <time>2026-03-21T23:50:16Z</time>
   </trkpt>
   <trkpt lat="10.3963250" lon="123.9071790">
    <ele>90.8</ele>
    <time>2026-03-21T23:50:21Z</time>
   </trkpt>
   <trkpt lat="10.3963920" lon="123.9073100">
    <ele>88.8</ele>
    <time>2026-03-21T23:50:36Z</time>
   </trkpt>
   <trkpt lat="10.3965120" lon="123.9074040">
    <ele>85.7</ele>
    <time>2026-03-21T23:50:54Z</time>
   </trkpt>
   <trkpt lat="10.3965350" lon="123.9074400">
    <ele>84.8</ele>
    <time>2026-03-21T23:51:00Z</time>
   </trkpt>
   <trkpt lat="10.3967630" lon="123.9075450">
    <ele>78.3</ele>
    <time>2026-03-21T23:51:34Z</time>
   </trkpt>
   <trkpt lat="10.3968880" lon="123.9076260">
    <ele>74.3</ele>
    <time>2026-03-21T23:51:56Z</time>
   </trkpt>
   <trkpt lat="10.3969480" lon="123.9076420">
    <ele>72.8</ele>
    <time>2026-03-21T23:52:03Z</time>
   </trkpt>
   <trkpt lat="10.3971930" lon="123.9077780">
    <ele>67.4</ele>
    <time>2026-03-21T23:52:40Z</time>
   </trkpt>
   <trkpt lat="10.3972550" lon="123.9078670">
    <ele>66.3</ele>
    <time>2026-03-21T23:52:51Z</time>
   </trkpt>
   <trkpt lat="10.3973230" lon="123.9078990">
    <ele>65.8</ele>
    <time>2026-03-21T23:53:08Z</time>
   </trkpt>
   <trkpt lat="10.3974610" lon="123.9080960">
    <ele>64.9</ele>
    <time>2026-03-21T23:53:37Z</time>
   </trkpt>
   <trkpt lat="10.3974810" lon="123.9081760">
    <ele>64.8</ele>
    <time>2026-03-21T23:53:46Z</time>
   </trkpt>
   <trkpt lat="10.3975780" lon="123.9083350">
    <ele>64.5</ele>
    <time>2026-03-21T23:54:07Z</time>
   </trkpt>
   <trkpt lat="10.3976410" lon="123.9084050">
    <ele>64.3</ele>
    <time>2026-03-21T23:54:17Z</time>
   </trkpt>
   <trkpt lat="10.3977900" lon="123.9084980">
    <ele>64.1</ele>
    <time>2026-03-21T23:54:35Z</time>
   </trkpt>
   <trkpt lat="10.3978070" lon="123.9085250">
    <ele>64.0</ele>
    <time>2026-03-21T23:54:39Z</time>
   </trkpt>
   <trkpt lat="10.3979200" lon="123.9086080">
    <ele>63.9</ele>
    <time>2026-03-21T23:54:55Z</time>
   </trkpt>
   <trkpt lat="10.3979970" lon="123.9087160">
    <ele>63.9</ele>
    <time>2026-03-21T23:55:09Z</time>
   </trkpt>
   <trkpt lat="10.3980580" lon="123.9087640">
    <ele>63.8</ele>
    <time>2026-03-21T23:55:16Z</time>
   </trkpt>
   <trkpt lat="10.3980970" lon="123.9089070">
    <ele>64.1</ele>
    <time>2026-03-21T23:55:34Z</time>
   </trkpt>
   <trkpt lat="10.3981400" lon="123.9089150">
    <ele>64.2</ele>
    <time>2026-03-21T23:55:38Z</time>
   </trkpt>
   <trkpt lat="10.3981790" lon="123.9089590">
    <ele>64.3</ele>
    <time>2026-03-21T23:55:44Z</time>
   </trkpt>
   <trkpt lat="10.3982040" lon="123.9090450">
    <ele>64.6</ele>
    <time>2026-03-21T23:55:53Z</time>
   </trkpt>
   <trkpt lat="10.3982100" lon="123.9091400">
    <ele>64.9</ele>
    <time>2026-03-21T23:56:03Z</time>
   </trkpt>
   <trkpt lat="10.3982720" lon="123.9092760">
    <ele>65.4</ele>
    <time>2026-03-21T23:56:18Z</time>
   </trkpt>
   <trkpt lat="10.3982830" lon="123.9093520">
    <ele>65.6</ele>
    <time>2026-03-21T23:56:27Z</time>
   </trkpt>
   <trkpt lat="10.3982730" lon="123.9094140">
    <ele>65.8</ele>
    <time>2026-03-21T23:56:32Z</time>
   </trkpt>
   <trkpt lat="10.3981960" lon="123.9095900">
    <ele>66.1</ele>
    <time>2026-03-21T23:56:50Z</time>
   </trkpt>
   <trkpt lat="10.3981460" lon="123.9096400">
    <ele>66.1</ele>
    <time>2026-03-21T23:56:57Z</time>
   </trkpt>
   <trkpt lat="10.3980760" lon="123.9096960">
    <ele>66.2</ele>
    <time>2026-03-21T23:57:04Z</time>
   </trkpt>
   <trkpt lat="10.3979260" lon="123.9097500">
    <ele>66.2</ele>
    <time>2026-03-21T23:57:18Z</time>
   </trkpt>
   <trkpt lat="10.3977500" lon="123.9098540">
    <ele>66.3</ele>
    <time>2026-03-21T23:57:40Z</time>
   </trkpt>
   <trkpt lat="10.3977000" lon="123.9099160">
    <ele>66.4</ele>
    <time>2026-03-21T23:57:47Z</time>
   </trkpt>
   <trkpt lat="10.3975300" lon="123.9100340">
    <ele>66.4</ele>
    <time>2026-03-21T23:58:05Z</time>
   </trkpt>
   <trkpt lat="10.3975100" lon="123.9100720">
    <ele>66.4</ele>
    <time>2026-03-21T23:58:09Z</time>
   </trkpt>
   <trkpt lat="10.3973660" lon="123.9101760">
    <ele>66.3</ele>
    <time>2026-03-21T23:58:26Z</time>
   </trkpt>
   <trkpt lat="10.3971860" lon="123.9103580">
    <ele>66.3</ele>
    <time>2026-03-21T23:58:50Z</time>
   </trkpt>
   <trkpt lat="10.3971480" lon="123.9104300">
    <ele>66.3</ele>
    <time>2026-03-21T23:58:58Z</time>
   </trkpt>
   <trkpt lat="10.3970140" lon="123.9105160">
    <ele>66.3</ele>
    <time>2026-03-21T23:59:15Z</time>
   </trkpt>
   <trkpt lat="10.3969640" lon="123.9106150">
    <ele>66.3</ele>
    <time>2026-03-21T23:59:25Z</time>
   </trkpt>
   <trkpt lat="10.3969520" lon="123.9107710">
    <ele>66.2</ele>
    <time>2026-03-21T23:59:38Z</time>
   </trkpt>
   <trkpt lat="10.3969310" lon="123.9108110">
    <ele>66.2</ele>
    <time>2026-03-21T23:59:42Z</time>
   </trkpt>
   <trkpt lat="10.3969560" lon="123.9108920">
    <ele>66.1</ele>
    <time>2026-03-21T23:59:51Z</time>
   </trkpt>
   <trkpt lat="10.3969480" lon="123.9109780">
    <ele>66.0</ele>
    <time>2026-03-22T00:00:01Z</time>
   </trkpt>
   <trkpt lat="10.3969170" lon="123.9110730">
    <ele>65.9</ele>
    <time>2026-03-22T00:00:09Z</time>
   </trkpt>
   <trkpt lat="10.3969050" lon="123.9111990">
    <ele>65.6</ele>
    <time>2026-03-22T00:00:24Z</time>
   </trkpt>
   <trkpt lat="10.3968340" lon="123.9114390">
    <ele>65.4</ele>
    <time>2026-03-22T00:00:47Z</time>
   </trkpt>
   <trkpt lat="10.3968200" lon="123.9115380">
    <ele>65.3</ele>
    <time>2026-03-22T00:00:58Z</time>
   </trkpt>
   <trkpt lat="10.3966850" lon="123.9118210">
    <ele>65.0</ele>
    <time>2026-03-22T00:01:31Z</time>
   </trkpt>
   <trkpt lat="10.3964700" lon="123.9120630">
    <ele>64.6</ele>
    <time>2026-03-22T00:02:04Z</time>
   </trkpt>
   <trkpt lat="10.3963120" lon="123.9121120">
    <ele>64.4</ele>
    <time>2026-03-22T00:02:21Z</time>
   </trkpt>
   <trkpt lat="10.3962530" lon="123.9121550">
    <ele>64.3</ele>
    <time>2026-03-22T00:02:29Z</time>
   </trkpt>
   <trkpt lat="10.3959940" lon="123.9122660">
    <ele>63.4</ele>
    <time>2026-03-22T00:02:57Z</time>
   </trkpt>
   <trkpt lat="10.3958980" lon="123.9123260">
    <ele>62.9</ele>
    <time>2026-03-22T00:03:08Z</time>
   </trkpt>
   <trkpt lat="10.3957600" lon="123.9124650">
    <ele>62.3</ele>
    <time>2026-03-22T00:03:27Z</time>
   </trkpt>
   <trkpt lat="10.3957260" lon="123.9125750">
    <ele>62.1</ele>
    <time>2026-03-22T00:03:39Z</time>
   </trkpt>
   <trkpt lat="10.3957180" lon="123.9126600">
    <ele>62.0</ele>
    <time>2026-03-22T00:03:47Z</time>
   </trkpt>
   <trkpt lat="10.3957440" lon="123.9127910">
    <ele>62.0</ele>
    <time>2026-03-22T00:04:00Z</time>
   </trkpt>
   <trkpt lat="10.3957980" lon="123.9128560">
    <ele>61.9</ele>
    <time>2026-03-22T00:04:08Z</time>
   </trkpt>
   <trkpt lat="10.3960360" lon="123.9130320">
    <ele>61.7</ele>
    <time>2026-03-22T00:04:35Z</time>
   </trkpt>
   <trkpt lat="10.3960310" lon="123.9130600">
    <ele>61.7</ele>
    <time>2026-03-22T00:04:42Z</time>
   </trkpt>
   <trkpt lat="10.3959870" lon="123.9130710">
    <ele>61.7</ele>
    <time>2026-03-22T00:04:50Z</time>
   </trkpt>
  </trkseg>
 </trk>
</gpx>