<?xml version='1.0' encoding='UTF-8'?>
<gpx xmlns="http://www.topografix.com/GPX/1/1" xmlns:xsi="http://www.w3.org/2001/XMLSchema-instance" creator="StravaGPX" version="1.1" xsi:schemaLocation="http://www.topografix.com/GPX/1/1 http://www.topografix.com/GPX/1/1/gpx.xsd">
 <metadata>
  <time>2025-12-23T07:37:15Z</time>
 </metadata>
 <trk>
  <name>Afternoon Hike</name>
  <type>hiking</type>
  <trkseg>
   <trkpt lat="10.3092050" lon="123.8756700">
    <ele>28.3</ele>
    <time>2025-12-23T07:37:15Z</time>
   </trkpt>
   <trkpt lat="10.3092650" lon="123.8757300">
    <ele>28.2</ele>
    <time>2025-12-23T07:37:17Z</time>
   </trkpt>
   <trkpt lat="10.3092710" lon="123.8758050">
    <ele>28.1</ele>
    <time>2025-12-23T07:37:28Z</time>
   </trkpt>
   <trkpt lat="10.3093280" lon="123.8757600">
    <ele>28.0</ele>
    <time>2025-12-23T07:37:34Z</time>
   </trkpt>
   <trkpt lat="10.3093060" lon="123.8755490">
    <ele>27.2</ele>
    <time>2025-12-23T07:37:54Z</time>
   </trkpt>
   <trkpt lat="10.3092520" lon="123.8753670">
    <ele>26.0</ele>
    <time>2025-12-23T07:38:06Z</time>
   </trkpt>
   <trkpt lat="10.3092520" lon="123.8752840">
    <ele>25.6</ele>
    <time>2025-12-23T07:38:11Z</time>
   </trkpt>
   <trkpt lat="10.3092270" lon="123.8752210">
    <ele>25.3</ele>
    <time>2025-12-23T07:38:15Z</time>
   </trkpt>
   <trkpt lat="10.3092320" lon="123.8751830">
    <ele>25.1</ele>
    <time>2025-12-23T07:38:18Z</time>
   </trkpt>
   <trkpt lat="10.3092660" lon="123.8751250">
    <ele>25.0</ele>
    <time>2025-12-23T07:38:24Z</time>
   </trkpt>
   <trkpt lat="10.3092250" lon="123.8748160">
    <ele>25.1</ele>
    <time>2025-12-23T07:38:47Z</time>
   </trkpt>
   <trkpt lat="10.3092380" lon="123.8747640">
    <ele>25.2</ele>
    <time>2025-12-23T07:38:52Z</time>
   </trkpt>
   <trkpt lat="10.3092080" lon="123.8746680">
    <ele>25.3</ele>
    <time>2025-12-23T07:38:59Z</time>
   </trkpt>
   <trkpt lat="10.3092270" lon="123.8746340">
    <ele>25.4</ele>
    <time>2025-12-23T07:39:02Z</time>
   </trkpt>
   <trkpt lat="10.3092450" lon="123.8745230">
    <ele>25.6</ele>
    <time>2025-12-23T07:39:10Z</time>
   </trkpt>
   <trkpt lat="10.3092440" lon="123.8743720">
    <ele>26.1</ele>
    <time>2025-12-23T07:39:24Z</time>
   </trkpt>
   <trkpt lat="10.3092200" lon="123.8742490">
    <ele>26.5</ele>
    <time>2025-12-23T07:39:37Z</time>
   </trkpt>
   <trkpt lat="10.3092030" lon="123.8742540">
    <ele>26.6</ele>
    <time>2025-12-23T07:39:41Z</time>
   </trkpt>
   <trkpt lat="10.3091990" lon="123.8742410">
    <ele>26.7</ele>
    <time>2025-12-23T07:39:44Z</time>
   </trkpt>
   <trkpt lat="10.3092250" lon="123.8742100">
    <ele>26.8</ele>
    <time>2025-12-23T07:39:49Z</time>
   </trkpt>
   <trkpt lat="10.3092360" lon="123.8741480">
    <ele>27.0</ele>
    <time>2025-12-23T07:39:54Z</time>
   </trkpt>
   <trkpt lat="10.3092220" lon="123.8740640">
    <ele>27.4</ele>
    <time>2025-12-23T07:40:01Z</time>
   </trkpt>
   <trkpt lat="10.3092330" lon="123.8739910">
    <ele>27.7</ele>
    <time>2025-12-23T07:40:07Z</time>
   </trkpt>
   <trkpt lat="10.3092080" lon="123.8738820">
    <ele>28.3</ele>
    <time>2025-12-23T07:40:19Z</time>
   </trkpt>
   <trkpt lat="10.3092110" lon="123.8737140">
    <ele>29.1</ele>
    <time>2025-12-23T07:40:34Z</time>
   </trkpt>
   <trkpt lat="10.3091930" lon="123.8736810">
    <ele>29.3</ele>
    <time>2025-12-23T07:40:41Z</time>
   </trkpt>
   <trkpt lat="10.3091620" lon="123.8736610">
    <ele>29.5</ele>
    <time>2025-12-23T07:40:44Z</time>
   </trkpt>
   <trkpt lat="10.3090760" lon="123.8736320">
    <ele>30.0</ele>
    <time>2025-12-23T07:40:56Z</time>
   </trkpt>
   <trkpt lat="10.3091370" lon="123.8735850">
    <ele>30.4</ele>
    <time>2025-12-23T07:41:10Z</time>
   </trkpt>
   <trkpt lat="10.3091050" lon="123.8735890">
    <ele>30.5</ele>
    <time>2025-12-23T07:41:12Z</time>
   </trkpt>
   <trkpt lat="10.3091820" lon="123.8736040">
    <ele>30.6</ele>
    <time>2025-12-23T07:41:36Z</time>
   </trkpt>
   <trkpt lat="10.3091500" lon="123.8736290">
    <ele>30.5</ele>
    <time>2025-12-23T07:41:50Z</time>
   </trkpt>
   <trkpt lat="10.3091770" lon="123.8736270">
    <ele>30.4</ele>
    <time>2025-12-23T07:41:58Z</time>
   </trkpt>
   <trkpt lat="10.3091960" lon="123.8736350">
    <ele>30.3</ele>
    <time>2025-12-23T07:42:03Z</time>
   </trkpt>
   <trkpt lat="10.3091890" lon="123.8736410">
    <ele>30.3</ele>
    <time>2025-12-23T07:42:04Z</time>
   </trkpt>
   <trkpt lat="10.3091240" lon="123.8736470">
    <ele>30.2</ele>
    <time>2025-12-23T07:42:14Z</time>
   </trkpt>
   <trkpt lat="10.3091870" lon="123.8736770">
    <ele>30.0</ele>
    <time>2025-12-23T07:43:04Z</time>
   </trkpt>
   <trkpt lat="10.3091630" lon="123.8738080">
    <ele>29.7</ele>
    <time>2025-12-23T07:43:19Z</time>
   </trkpt>
   <trkpt lat="10.3091320" lon="123.8738080">
    <ele>29.6</ele>
    <time>2025-12-23T07:43:24Z</time>
   </trkpt>
   <trkpt lat="10.3091510" lon="123.8737970">
    <ele>29.6</ele>
    <time>2025-12-23T07:43:36Z</time>
   </trkpt>
   <trkpt lat="10.3091350" lon="123.8737870">
    <ele>29.5</ele>
    <time>2025-12-23T07:43:49Z</time>
   </trkpt>
   <trkpt lat="10.3091940" lon="123.8737600">
    <ele>29.8</ele>
    <time>2025-12-23T07:44:21Z</time>
   </trkpt>
   <trkpt lat="10.3091880" lon="123.8736830">
    <ele>30.2</ele>
    <time>2025-12-23T07:44:28Z</time>
   </trkpt>
   <trkpt lat="10.3092030" lon="123.8736580">
    <ele>30.3</ele>
    <time>2025-12-23T07:44:31Z</time>
   </trkpt>
   <trkpt lat="10.3092010" lon="123.8735880">
    <ele>30.5</ele>
    <time>2025-12-23T07:44:39Z</time>
   </trkpt>
   <trkpt lat="10.3091780" lon="123.8735380">
    <ele>30.7</ele>
    <time>2025-12-23T07:44:45Z</time>
   </trkpt>
   <trkpt lat="10.3091290" lon="123.8734900">
    <ele>30.8</ele>
    <time>2025-12-23T07:44:51Z</time>
   </trkpt>
   <trkpt lat="10.3091170" lon="123.8734420">
    <ele>30.9</ele>
    <time>2025-12-23T07:44:55Z</time>
   </trkpt>
   <trkpt lat="10.3091030" lon="123.8732710">
    <ele>31.6</ele>
    <time>2025-12-23T07:45:07Z</time>
   </trkpt>
   <trkpt lat="10.3091430" lon="123.8731130">
    <ele>32.6</ele>
    <time>2025-12-23T07:45:16Z</time>
   </trkpt>
   <trkpt lat="10.3091160" lon="123.8730420">
    <ele>33.0</ele>
    <time>2025-12-23T07:45:20Z</time>
   </trkpt>
   <trkpt lat="10.3091820" lon="123.8729270">
    <ele>33.8</ele>
    <time>2025-12-23T07:45:30Z</time>
   </trkpt>
   <trkpt lat="10.3091990" lon="123.8727750">
    <ele>34.6</ele>
    <time>2025-12-23T07:45:41Z</time>
   </trkpt>
   <trkpt lat="10.3092230" lon="123.8726920">
    <ele>35.1</ele>
    <time>2025-12-23T07:45:47Z</time>
   </trkpt>
   <trkpt lat="10.3092120" lon="123.8726180">
    <ele>35.6</ele>
    <time>2025-12-23T07:45:54Z</time>
   </trkpt>
   <trkpt lat="10.3092340" lon="123.8725230">
    <ele>36.1</ele>
    <time>2025-12-23T07:46:01Z</time>
   </trkpt>
   <trkpt lat="10.3092260" lon="123.8724970">
    <ele>36.3</ele>
    <time>2025-12-23T07:46:03Z</time>
   </trkpt>
   <trkpt lat="10.3093010" lon="123.8722970">
    <ele>37.5</ele>
    <time>2025-12-23T07:46:15Z</time>
   </trkpt>
   <trkpt lat="10.3092860" lon="123.8722790">
    <ele>37.6</ele>
    <time>2025-12-23T07:46:17Z</time>
   </trkpt>
   <trkpt lat="10.3092960" lon="123.8722440">
    <ele>37.8</ele>
    <time>2025-12-23T07:46:20Z</time>
   </trkpt>
   <trkpt lat="10.3092770" lon="123.8721870">
    <ele>38.1</ele>
    <time>2025-12-23T07:46:25Z</time>
   </trkpt>
   <trkpt lat="10.3092760" lon="123.8721060">
    <ele>38.5</ele>
    <time>2025-12-23T07:46:30Z</time>
   </trkpt>
   <trkpt lat="10.3093010" lon="123.8720020">
    <ele>39.0</ele>
    <time>2025-12-23T07:46:38Z</time>
   </trkpt>
   <trkpt lat="10.3092640" lon="123.8719320">
    <ele>39.3</ele>
    <time>2025-12-23T07:46:44Z</time>
   </trkpt>
   <trkpt lat="10.3091810" lon="123.8718350">
    <ele>39.9</ele>
    <time>2025-12-23T07:46:53Z</time>
   </trkpt>
   <trkpt lat="10.3090830" lon="123.8717880">
    <ele>40.4</ele>
    <time>2025-12-23T07:47:02Z</time>
   </trkpt>
   <trkpt lat="10.3090450" lon="123.8717040">
    <ele>40.7</ele>
    <time>2025-12-23T07:47:08Z</time>
   </trkpt>
   <trkpt lat="10.3089690" lon="123.8715910">
    <ele>41.1</ele>
    <time>2025-12-23T07:47:19Z</time>
   </trkpt>
   <trkpt lat="10.3088780" lon="123.8712490">
    <ele>42.2</ele>
    <time>2025-12-23T07:47:43Z</time>
   </trkpt>
   <trkpt lat="10.3088730" lon="123.8712050">
    <ele>42.3</ele>
    <time>2025-12-23T07:47:46Z</time>
   </trkpt>
   <trkpt lat="10.3088950" lon="123.8710900">
    <ele>42.7</ele>
    <time>2025-12-23T07:47:54Z</time>
   </trkpt>
   <trkpt lat="10.3088780" lon="123.8710400">
    <ele>42.8</ele>
    <time>2025-12-23T07:47:57Z</time>
   </trkpt>
   <trkpt lat="10.3088880" lon="123.8708890">
    <ele>42.7</ele>
    <time>2025-12-23T07:48:09Z</time>
   </trkpt>
   <trkpt lat="10.3089600" lon="123.8707200">
    <ele>41.7</ele>
    <time>2025-12-23T07:48:24Z</time>
   </trkpt>
   <trkpt lat="10.3089630" lon="123.8706570">
    <ele>41.3</ele>
    <time>2025-12-23T07:48:28Z</time>
   </trkpt>
   <trkpt lat="10.3089990" lon="123.8705720">
    <ele>40.8</ele>
    <time>2025-12-23T07:48:34Z</time>
   </trkpt>
   <trkpt lat="10.3091570" lon="123.8704420">
    <ele>40.3</ele>
    <time>2025-12-23T07:48:48Z</time>
   </trkpt>
   <trkpt lat="10.3092480" lon="123.8704100">
    <ele>40.3</ele>
    <time>2025-12-23T07:48:55Z</time>
   </trkpt>
   <trkpt lat="10.3092840" lon="123.8703810">
    <ele>40.4</ele>
    <time>2025-12-23T07:48:59Z</time>
   </trkpt>
   <trkpt lat="10.3095320" lon="123.8702660">
    <ele>41.4</ele>
    <time>2025-12-23T07:49:18Z</time>
   </trkpt>
   <trkpt lat="10.3097920" lon="123.8700790">
    <ele>42.8</ele>
    <time>2025-12-23T07:49:39Z</time>
   </trkpt>
   <trkpt lat="10.3098570" lon="123.8700620">
    <ele>43.2</ele>
    <time>2025-12-23T07:49:44Z</time>
   </trkpt>
   <trkpt lat="10.3099230" lon="123.8699900">
    <ele>43.6</ele>
    <time>2025-12-23T07:49:51Z</time>
   </trkpt>
   <trkpt lat="10.3100180" lon="123.8699420">
    <ele>44.2</ele>
    <time>2025-12-23T07:49:59Z</time>
   </trkpt>
   <trkpt lat="10.3100700" lon="123.8698860">
    <ele>44.6</ele>
    <time>2025-12-23T07:50:05Z</time>
   </trkpt>
   <trkpt lat="10.3102290" lon="123.8697700">
    <ele>45.7</ele>
    <time>2025-12-23T07:50:18Z</time>
   </trkpt>
   <trkpt lat="10.3102660" lon="123.8697230">
    <ele>46.1</ele>
    <time>2025-12-23T07:50:22Z</time>
   </trkpt>
   <trkpt lat="10.3102880" lon="123.8696460">
    <ele>46.4</ele>
    <time>2025-12-23T07:50:28Z</time>
   </trkpt>
   <trkpt lat="10.3104750" lon="123.8693220">
    <ele>49.2</ele>
    <time>2025-12-23T07:50:57Z</time>
   </trkpt>
   <trkpt lat="10.3104990" lon="123.8691880">
    <ele>50.0</ele>
    <time>2025-12-23T07:51:09Z</time>
   </trkpt>
   <trkpt lat="10.3104980" lon="123.8690980">
    <ele>50.4</ele>
    <time>2025-12-23T07:51:16Z</time>
   </trkpt>
   <trkpt lat="10.3105580" lon="123.8689870">
    <ele>50.6</ele>
    <time>2025-12-23T07:51:25Z</time>
   </trkpt>
   <trkpt lat="10.3105470" lon="123.8689280">
    <ele>50.6</ele>
    <time>2025-12-23T07:51:30Z</time>
   </trkpt>
   <trkpt lat="10.3105710" lon="123.8688830">
    <ele>50.7</ele>
    <time>2025-12-23T07:51:34Z</time>
   </trkpt>
   <trkpt lat="10.3107020" lon="123.8687890">
    <ele>53.2</ele>
    <time>2025-12-23T07:51:46Z</time>
   </trkpt>
   <trkpt lat="10.3108220" lon="123.8686570">
    <ele>56.0</ele>
    <time>2025-12-23T07:52:00Z</time>
   </trkpt>
   <trkpt lat="10.3109090" lon="123.8686050">
    <ele>57.1</ele>
    <time>2025-12-23T07:52:07Z</time>
   </trkpt>
   <trkpt lat="10.3109980" lon="123.8686030">
    <ele>57.7</ele>
    <time>2025-12-23T07:52:15Z</time>
   </trkpt>
   <trkpt lat="10.3110810" lon="123.8686420">
    <ele>58.3</ele>
    <time>2025-12-23T07:52:22Z</time>
   </trkpt>
   <trkpt lat="10.3111700" lon="123.8686460">
    <ele>58.9</ele>
    <time>2025-12-23T07:52:28Z</time>
   </trkpt>
   <trkpt lat="10.3113500" lon="123.8686880">
    <ele>60.9</ele>
    <time>2025-12-23T07:52:43Z</time>
   </trkpt>
   <trkpt lat="10.3115680" lon="123.8686910">
    <ele>63.7</ele>
    <time>2025-12-23T07:53:03Z</time>
   </trkpt>
   <trkpt lat="10.3116800" lon="123.8686320">
    <ele>65.3</ele>
    <time>2025-12-23T07:53:12Z</time>
   </trkpt>
   <trkpt lat="10.3117610" lon="123.8686160">
    <ele>66.3</ele>
    <time>2025-12-23T07:53:19Z</time>
   </trkpt>
   <trkpt lat="10.3118380" lon="123.8685550">
    <ele>67.5</ele>
    <time>2025-12-23T07:53:26Z</time>
   </trkpt>
   <trkpt lat="10.3118900" lon="123.8685460">
    <ele>68.2</ele>
    <time>2025-12-23T07:53:35Z</time>
   </trkpt>
   <trkpt lat="10.3120490" lon="123.8684540">
    <ele>70.8</ele>
    <time>2025-12-23T07:53:50Z</time>
   </trkpt>
   <trkpt lat="10.3121500" lon="123.8684210">
    <ele>72.4</ele>
    <time>2025-12-23T07:53:59Z</time>
   </trkpt>
   <trkpt lat="10.3121960" lon="123.8683680">
    <ele>73.8</ele>
    <time>2025-12-23T07:54:06Z</time>
   </trkpt>
   <trkpt lat="10.3122180" lon="123.8683100">
    <ele>75.1</ele>
    <time>2025-12-23T07:54:12Z</time>
   </trkpt>
   <trkpt lat="10.3123270" lon="123.8682790">
    <ele>77.2</ele>
    <time>2025-12-23T07:54:20Z</time>
   </trkpt>
   <trkpt lat="10.3124290" lon="123.8683030">
    <ele>79.0</ele>
    <time>2025-12-23T07:54:29Z</time>
   </trkpt>
   <trkpt lat="10.3124460" lon="123.8683200">
    <ele>79.4</ele>
    <time>2025-12-23T07:54:32Z</time>
   </trkpt>
   <trkpt lat="10.3124850" lon="123.8683060">
    <ele>80.1</ele>
    <time>2025-12-23T07:54:35Z</time>
   </trkpt>
   <trkpt lat="10.3125290" lon="123.8682650">
    <ele>81.2</ele>
    <time>2025-12-23T07:54:39Z</time>
   </trkpt>
   <trkpt lat="10.3126920" lon="123.8681700">
    <ele>84.8</ele>
    <time>2025-12-23T07:54:54Z</time>
   </trkpt>
   <trkpt lat="10.3127350" lon="123.8681170">
    <ele>86.0</ele>
    <time>2025-12-23T07:55:00Z</time>
   </trkpt>
   <trkpt lat="10.3128150" lon="123.8680840">
    <ele>87.7</ele>
    <time>2025-12-23T07:55:08Z</time>
   </trkpt>
   <trkpt lat="10.3129410" lon="123.8679810">
    <ele>91.0</ele>
    <time>2025-12-23T07:55:21Z</time>
   </trkpt>
   <trkpt lat="10.3129640" lon="123.8679380">
    <ele>91.9</ele>
    <time>2025-12-23T07:55:26Z</time>
   </trkpt>
   <trkpt lat="10.3130600" lon="123.8678340">
    <ele>94.4</ele>
    <time>2025-12-23T07:55:37Z</time>
   </trkpt>
   <trkpt lat="10.3131800" lon="123.8677510">
    <ele>97.1</ele>
    <time>2025-12-23T07:55:49Z</time>
   </trkpt>
   <trkpt lat="10.3132940" lon="123.8676480">
    <ele>99.7</ele>
    <time>2025-12-23T07:56:02Z</time>
   </trkpt>
   <trkpt lat="10.3133580" lon="123.8675610">
    <ele>101.5</ele>
    <time>2025-12-23T07:56:11Z</time>
   </trkpt>
   <trkpt lat="10.3134450" lon="123.8675110">
    <ele>103.1</ele>
    <time>2025-12-23T07:56:21Z</time>
   </trkpt>
   <trkpt lat="10.3134570" lon="123.8674740">
    <ele>103.6</ele>
    <time>2025-12-23T07:56:25Z</time>
   </trkpt>
   <trkpt lat="10.3135230" lon="123.8674170">
    <ele>104.7</ele>
    <time>2025-12-23T07:56:31Z</time>
   </trkpt>
   <trkpt lat="10.3137340" lon="123.8673190">
    <ele>107.3</ele>
    <time>2025-12-23T07:56:52Z</time>
   </trkpt>
   <trkpt lat="10.3138200" lon="123.8672570">
    <ele>108.3</ele>
    <time>2025-12-23T07:57:01Z</time>
   </trkpt>
   <trkpt lat="10.3138420" lon="123.8672190">
    <ele>108.6</ele>
    <time>2025-12-23T07:57:06Z</time>
   </trkpt>
   <trkpt lat="10.3138750" lon="123.8671960">
    <ele>108.8</ele>
    <time>2025-12-23T07:57:09Z</time>
   </trkpt>
   <trkpt lat="10.3139710" lon="123.8671670">
    <ele>109.3</ele>
    <time>2025-12-23T07:57:17Z</time>
   </trkpt>
   <trkpt lat="10.3139810" lon="123.8671270">
    <ele>109.4</ele>
    <time>2025-12-23T07:57:20Z</time>
   </trkpt>
   <trkpt lat="10.3140230" lon="123.8670680">
    <ele>109.7</ele>
    <time>2025-12-23T07:57:25Z</time>
   </trkpt>
   <trkpt lat="10.3141920" lon="123.8669790">
    <ele>110.0</ele>
    <time>2025-12-23T07:57:39Z</time>
   </trkpt>
   <trkpt lat="10.3143110" lon="123.8668820">
    <ele>109.9</ele>
    <time>2025-12-23T07:57:52Z</time>
   </trkpt>
   <trkpt lat="10.3144480" lon="123.8668200">
    <ele>109.7</ele>
    <time>2025-12-23T07:58:03Z</time>
   </trkpt>
   <trkpt lat="10.3145990" lon="123.8666290">
    <ele>109.5</ele>
    <time>2025-12-23T07:58:23Z</time>
   </trkpt>
   <trkpt lat="10.3145200" lon="123.8663640">
    <ele>108.1</ele>
    <time>2025-12-23T07:58:42Z</time>
   </trkpt>
   <trkpt lat="10.3144780" lon="123.8663160">
    <ele>109.0</ele>
    <time>2025-12-23T07:58:47Z</time>
   </trkpt>
   <trkpt lat="10.3144330" lon="123.8661950">
    <ele>109.7</ele>
    <time>2025-12-23T07:58:57Z</time>
   </trkpt>
   <trkpt lat="10.3143770" lon="123.8661650">
    <ele>109.8</ele>
    <time>2025-12-23T07:59:03Z</time>
   </trkpt>
   <trkpt lat="10.3143500" lon="123.8660930">
    <ele>109.9</ele>
    <time>2025-12-23T07:59:08Z</time>
   </trkpt>
   <trkpt lat="10.3143600" lon="123.8660300">
    <ele>110.1</ele>
    <time>2025-12-23T07:59:12Z</time>
   </trkpt>
   <trkpt lat="10.3144060" lon="123.8659770">
    <ele>110.2</ele>
    <time>2025-12-23T07:59:19Z</time>
   </trkpt>
   <trkpt lat="10.3143780" lon="123.8658390">
    <ele>109.7</ele>
    <time>2025-12-23T07:59:28Z</time>
   </trkpt>
   <trkpt lat="10.3143830" lon="123.8658040">
    <ele>109.4</ele>
    <time>2025-12-23T07:59:31Z</time>
   </trkpt>
   <trkpt lat="10.3144350" lon="123.8657400">
    <ele>108.4</ele>
    <time>2025-12-23T07:59:37Z</time>
   </trkpt>
   <trkpt lat="10.3144250" lon="123.8656970">
    <ele>107.9</ele>
    <time>2025-12-23T07:59:42Z</time>
   </trkpt>
   <trkpt lat="10.3143560" lon="123.8655840">
    <ele>106.2</ele>
    <time>2025-12-23T07:59:53Z</time>
   </trkpt>
   <trkpt lat="10.3143260" lon="123.8655660">
    <ele>105.8</ele>
    <time>2025-12-23T07:59:56Z</time>
   </trkpt>
   <trkpt lat="10.3142650" lon="123.8655670">
    <ele>105.2</ele>
    <time>2025-12-23T08:00:00Z</time>
   </trkpt>
   <trkpt lat="10.3141410" lon="123.8654230">
    <ele>102.4</ele>
    <time>2025-12-23T08:00:14Z</time>
   </trkpt>
   <trkpt lat="10.3140700" lon="123.8654100">
    <ele>100.8</ele>
    <time>2025-12-23T08:00:21Z</time>
   </trkpt>
   <trkpt lat="10.3140100" lon="123.8653760">
    <ele>99.1</ele>
    <time>2025-12-23T08:00:28Z</time>
   </trkpt>
   <trkpt lat="10.3140030" lon="123.8653440">
    <ele>98.2</ele>
    <time>2025-12-23T08:00:31Z</time>
   </trkpt>
   <trkpt lat="10.3140590" lon="123.8652320">
    <ele>95.6</ele>
    <time>2025-12-23T08:00:40Z</time>
   </trkpt>
   <trkpt lat="10.3140590" lon="123.8651880">
    <ele>95.0</ele>
    <time>2025-12-23T08:00:44Z</time>
   </trkpt>
   <trkpt lat="10.3139830" lon="123.8651530">
    <ele>94.1</ele>
    <time>2025-12-23T08:00:50Z</time>
   </trkpt>
   <trkpt lat="10.3139130" lon="123.8650910">
    <ele>93.5</ele>
    <time>2025-12-23T08:01:00Z</time>
   </trkpt>
   <trkpt lat="10.3138200" lon="123.8649320">
    <ele>92.1</ele>
    <time>2025-12-23T08:01:18Z</time>
   </trkpt>
   <trkpt lat="10.3138160" lon="123.8648350">
    <ele>91.8</ele>
    <time>2025-12-23T08:01:29Z</time>
   </trkpt>
   <trkpt lat="10.3138480" lon="123.8647710">
    <ele>92.3</ele>
    <time>2025-12-23T08:01:35Z</time>
   </trkpt>
   <trkpt lat="10.3138070" lon="123.8646980">
    <ele>93.9</ele>
    <time>2025-12-23T08:01:42Z</time>
   </trkpt>
   <trkpt lat="10.3138270" lon="123.8646540">
    <ele>95.2</ele>
    <time>2025-12-23T08:01:48Z</time>
   </trkpt>
   <trkpt lat="10.3138010" lon="123.8646440">
    <ele>96.1</ele>
    <time>2025-12-23T08:01:54Z</time>
   </trkpt>
   <trkpt lat="10.3138200" lon="123.8645900">
    <ele>97.8</ele>
    <time>2025-12-23T08:01:59Z</time>
   </trkpt>
   <trkpt lat="10.3138630" lon="123.8645340">
    <ele>99.8</ele>
    <time>2025-12-23T08:02:05Z</time>
   </trkpt>
   <trkpt lat="10.3138650" lon="123.8644420">
    <ele>102.5</ele>
    <time>2025-12-23T08:02:16Z</time>
   </trkpt>
   <trkpt lat="10.3139080" lon="123.8643640">
    <ele>105.0</ele>
    <time>2025-12-23T08:02:26Z</time>
   </trkpt>
   <trkpt lat="10.3139000" lon="123.8643180">
    <ele>106.3</ele>
    <time>2025-12-23T08:02:30Z</time>
   </trkpt>
   <trkpt lat="10.3139180" lon="123.8642650">
    <ele>107.9</ele>
    <time>2025-12-23T08:02:37Z</time>
   </trkpt>
   <trkpt lat="10.3139050" lon="123.8642550">
    <ele>108.4</ele>
    <time>2025-12-23T08:02:39Z</time>
   </trkpt>
   <trkpt lat="10.3138140" lon="123.8642750">
    <ele>111.1</ele>
    <time>2025-12-23T08:02:49Z</time>
   </trkpt>
   <trkpt lat="10.3137100" lon="123.8643120">
    <ele>114.3</ele>
    <time>2025-12-23T08:03:03Z</time>
   </trkpt>
   <trkpt lat="10.3136820" lon="123.8642780">
    <ele>115.9</ele>
    <time>2025-12-23T08:03:16Z</time>
   </trkpt>
   <trkpt lat="10.3136470" lon="123.8642700">
    <ele>117.0</ele>
    <time>2025-12-23T08:03:23Z</time>
   </trkpt>
   <trkpt lat="10.3136340" lon="123.8642180">
    <ele>118.5</ele>
    <time>2025-12-23T08:03:26Z</time>
   </trkpt>
   <trkpt lat="10.3137040" lon="123.8641270">
    <ele>121.7</ele>
    <time>2025-12-23T08:03:36Z</time>
   </trkpt>
   <trkpt lat="10.3137090" lon="123.8640790">
    <ele>123.1</ele>
    <time>2025-12-23T08:03:44Z</time>
   </trkpt>
   <trkpt lat="10.3136750" lon="123.8640290">
    <ele>127.2</ele>
    <time>2025-12-23T08:04:42Z</time>
   </trkpt>
   <trkpt lat="10.3136400" lon="123.8640060">
    <ele>128.3</ele>
    <time>2025-12-23T08:04:46Z</time>
   </trkpt>
   <trkpt lat="10.3136310" lon="123.8639770">
    <ele>129.0</ele>
    <time>2025-12-23T08:04:49Z</time>
   </trkpt>
   <trkpt lat="10.3136920" lon="123.8639030">
    <ele>130.8</ele>
    <time>2025-12-23T08:04:58Z</time>
   </trkpt>
   <trkpt lat="10.3137480" lon="123.8637270">
    <ele>133.2</ele>
    <time>2025-12-23T08:05:15Z</time>
   </trkpt>
   <trkpt lat="10.3137910" lon="123.8636450">
    <ele>134.5</ele>
    <time>2025-12-23T08:05:23Z</time>
   </trkpt>
   <trkpt lat="10.3137870" lon="123.8635620">
    <ele>135.9</ele>
    <time>2025-12-23T08:05:30Z</time>
   </trkpt>
   <trkpt lat="10.3138340" lon="123.8635070">
    <ele>137.5</ele>
    <time>2025-12-23T08:05:37Z</time>
   </trkpt>
   <trkpt lat="10.3138980" lon="123.8634860">
    <ele>139.2</ele>
    <time>2025-12-23T08:05:43Z</time>
   </trkpt>
   <trkpt lat="10.3139400" lon="123.8634360">
    <ele>140.8</ele>
    <time>2025-12-23T08:05:50Z</time>
   </trkpt>
   <trkpt lat="10.3139800" lon="123.8633420">
    <ele>143.4</ele>
    <time>2025-12-23T08:06:02Z</time>
   </trkpt>
   <trkpt lat="10.3140260" lon="123.8633040">
    <ele>144.8</ele>
    <time>2025-12-23T08:06:09Z</time>
   </trkpt>
   <trkpt lat="10.3140450" lon="123.8632670">
    <ele>145.9</ele>
    <time>2025-12-23T08:06:15Z</time>
   </trkpt>
   <trkpt lat="10.3140570" lon="123.8631570">
    <ele>149.6</ele>
    <time>2025-12-23T08:07:13Z</time>
   </trkpt>
   <trkpt lat="10.3141740" lon="123.8630600">
    <ele>153.8</ele>
    <time>2025-12-23T08:07:26Z</time>
   </trkpt>
   <trkpt lat="10.3141790" lon="123.8630130">
    <ele>155.0</ele>
    <time>2025-12-23T08:07:31Z</time>
   </trkpt>
   <trkpt lat="10.3142160" lon="123.8629240">
    <ele>157.0</ele>
    <time>2025-12-23T08:07:39Z</time>
   </trkpt>
   <trkpt lat="10.3142160" lon="123.8627540">
    <ele>160.0</ele>
    <time>2025-12-23T08:07:55Z</time>
   </trkpt>
   <trkpt lat="10.3141990" lon="123.8627050">
    <ele>160.7</ele>
    <time>2025-12-23T08:08:00Z</time>
   </trkpt>
   <trkpt lat="10.3141960" lon="123.8625980">
    <ele>162.1</ele>
    <time>2025-12-23T08:08:10Z</time>
   </trkpt>
   <trkpt lat="10.3141120" lon="123.8624630">
    <ele>163.9</ele>
    <time>2025-12-23T08:08:24Z</time>
   </trkpt>
   <trkpt lat="10.3140890" lon="123.8623710">
    <ele>165.7</ele>
    <time>2025-12-23T08:08:34Z</time>
   </trkpt>
   <trkpt lat="10.3141010" lon="123.8621830">
    <ele>170.9</ele>
    <time>2025-12-23T08:09:01Z</time>
   </trkpt>
   <trkpt lat="10.3141410" lon="123.8620930">
    <ele>173.4</ele>
    <time>2025-12-23T08:10:20Z</time>
   </trkpt>
   <trkpt lat="10.3142100" lon="123.8621030">
    <ele>174.5</ele>
    <time>2025-12-23T08:10:28Z</time>
   </trkpt>
   <trkpt lat="10.3142910" lon="123.8620690">
    <ele>175.9</ele>
    <time>2025-12-23T08:10:36Z</time>
   </trkpt>
   <trkpt lat="10.3144450" lon="123.8620670">
    <ele>178.5</ele>
    <time>2025-12-23T08:10:49Z</time>
   </trkpt>
   <trkpt lat="10.3145740" lon="123.8619910">
    <ele>181.3</ele>
    <time>2025-12-23T08:11:00Z</time>
   </trkpt>
   <trkpt lat="10.3146860" lon="123.8620260">
    <ele>183.9</ele>
    <time>2025-12-23T08:11:11Z</time>
   </trkpt>
   <trkpt lat="10.3148020" lon="123.8619980">
    <ele>186.9</ele>
    <time>2025-12-23T08:11:24Z</time>
   </trkpt>
   <trkpt lat="10.3149400" lon="123.8620210">
    <ele>190.3</ele>
    <time>2025-12-23T08:11:41Z</time>
   </trkpt>
   <trkpt lat="10.3150170" lon="123.8619350">
    <ele>192.3</ele>
    <time>2025-12-23T08:11:51Z</time>
   </trkpt>
   <trkpt lat="10.3150300" lon="123.8619010">
    <ele>192.8</ele>
    <time>2025-12-23T08:11:55Z</time>
   </trkpt>
   <trkpt lat="10.3151000" lon="123.8618670">
    <ele>194.0</ele>
    <time>2025-12-23T08:12:04Z</time>
   </trkpt>
   <trkpt lat="10.3151300" lon="123.8618350">
    <ele>194.8</ele>
    <time>2025-12-23T08:12:09Z</time>
   </trkpt>
   <trkpt lat="10.3153610" lon="123.8618240">
    <ele>199.3</ele>
    <time>2025-12-23T08:12:35Z</time>
   </trkpt>
   <trkpt lat="10.3153810" lon="123.8618030">
    <ele>199.8</ele>
    <time>2025-12-23T08:12:43Z</time>
   </trkpt>
   <trkpt lat="10.3153850" lon="123.8618170">
    <ele>200.1</ele>
    <time>2025-12-23T08:12:50Z</time>
   </trkpt>
   <trkpt lat="10.3154030" lon="123.8617850">
    <ele>200.6</ele>
    <time>2025-12-23T08:13:24Z</time>
   </trkpt>
   <trkpt lat="10.3156070" lon="123.8617260">
    <ele>203.8</ele>
    <time>2025-12-23T08:13:44Z</time>
   </trkpt>
   <trkpt lat="10.3157260" lon="123.8616540">
    <ele>206.5</ele>
    <time>2025-12-23T08:13:58Z</time>
   </trkpt>
   <trkpt lat="10.3157860" lon="123.8616400">
    <ele>207.9</ele>
    <time>2025-12-23T08:14:06Z</time>
   </trkpt>
   <trkpt lat="10.3158670" lon="123.8615380">
    <ele>211.2</ele>
    <time>2025-12-23T08:14:21Z</time>
   </trkpt>
   <trkpt lat="10.3158940" lon="123.8615230">
    <ele>212.1</ele>
    <time>2025-12-23T08:14:26Z</time>
   </trkpt>
   <trkpt lat="10.3159880" lon="123.8615270">
    <ele>215.2</ele>
    <time>2025-12-23T08:14:36Z</time>
   </trkpt>
   <trkpt lat="10.3160860" lon="123.8614510">
    <ele>219.6</ele>
    <time>2025-12-23T08:15:17Z</time>
   </trkpt>
   <trkpt lat="10.3161300" lon="123.8614570">
    <ele>221.3</ele>
    <time>2025-12-23T08:15:24Z</time>
   </trkpt>
   <trkpt lat="10.3161840" lon="123.8614170">
    <ele>223.8</ele>
    <time>2025-12-23T08:15:32Z</time>
   </trkpt>
   <trkpt lat="10.3162300" lon="123.8614070">
    <ele>225.6</ele>
    <time>2025-12-23T08:15:38Z</time>
   </trkpt>
   <trkpt lat="10.3162730" lon="123.8613810">
    <ele>227.7</ele>
    <time>2025-12-23T08:15:50Z</time>
   </trkpt>
   <trkpt lat="10.3163150" lon="123.8613280">
    <ele>230.3</ele>
    <time>2025-12-23T08:16:12Z</time>
   </trkpt>
   <trkpt lat="10.3164020" lon="123.8612740">
    <ele>234.5</ele>
    <time>2025-12-23T08:16:51Z</time>
   </trkpt>
   <trkpt lat="10.3164710" lon="123.8611930">
    <ele>238.5</ele>
    <time>2025-12-23T08:17:04Z</time>
   </trkpt>
   <trkpt lat="10.3165270" lon="123.8611540">
    <ele>241.0</ele>
    <time>2025-12-23T08:17:15Z</time>
   </trkpt>
   <trkpt lat="10.3165950" lon="123.8611340">
    <ele>243.6</ele>
    <time>2025-12-23T08:17:28Z</time>
   </trkpt>
   <trkpt lat="10.3165870" lon="123.8611180">
    <ele>244.3</ele>
    <time>2025-12-23T08:17:35Z</time>
   </trkpt>
   <trkpt lat="10.3165570" lon="123.8611230">
    <ele>245.4</ele>
    <time>2025-12-23T08:17:41Z</time>
   </trkpt>
   <trkpt lat="10.3165410" lon="123.8611100">
    <ele>246.8</ele>
    <time>2025-12-23T08:18:07Z</time>
   </trkpt>
   <trkpt lat="10.3166730" lon="123.8611000">
    <ele>251.3</ele>
    <time>2025-12-23T08:18:26Z</time>
   </trkpt>
   <trkpt lat="10.3167790" lon="123.8610740">
    <ele>254.6</ele>
    <time>2025-12-23T08:18:41Z</time>
   </trkpt>
   <trkpt lat="10.3169110" lon="123.8611310">
    <ele>258.2</ele>
    <time>2025-12-23T08:19:01Z</time>
   </trkpt>
   <trkpt lat="10.3169570" lon="123.8611720">
    <ele>259.8</ele>
    <time>2025-12-23T08:19:12Z</time>
   </trkpt>
   <trkpt lat="10.3170660" lon="123.8612280">
    <ele>262.7</ele>
    <time>2025-12-23T08:19:29Z</time>
   </trkpt>
   <trkpt lat="10.3171070" lon="123.8612160">
    <ele>263.7</ele>
    <time>2025-12-23T08:19:34Z</time>
   </trkpt>
   <trkpt lat="10.3172860" lon="123.8612400">
    <ele>268.4</ele>
    <time>2025-12-23T08:20:05Z</time>
   </trkpt>
   <trkpt lat="10.3173670" lon="123.8612750">
    <ele>271.1</ele>
    <time>2025-12-23T08:20:15Z</time>
   </trkpt>
   <trkpt lat="10.3173930" lon="123.8612670">
    <ele>272.0</ele>
    <time>2025-12-23T08:20:18Z</time>
   </trkpt>
   <trkpt lat="10.3174270" lon="123.8612370">
    <ele>273.4</ele>
    <time>2025-12-23T08:20:42Z</time>
   </trkpt>
   <trkpt lat="10.3174560" lon="123.8611420">
    <ele>277.0</ele>
    <time>2025-12-23T08:20:57Z</time>
   </trkpt>
   <trkpt lat="10.3175270" lon="123.8610660">
    <ele>280.9</ele>
    <time>2025-12-23T08:21:28Z</time>
   </trkpt>
   <trkpt lat="10.3175300" lon="123.8610250">
    <ele>282.6</ele>
    <time>2025-12-23T08:21:41Z</time>
   </trkpt>
   <trkpt lat="10.3175590" lon="123.8610010">
    <ele>284.0</ele>
    <time>2025-12-23T08:22:46Z</time>
   </trkpt>
   <trkpt lat="10.3175670" lon="123.8609300">
    <ele>286.5</ele>
    <time>2025-12-23T08:22:54Z</time>
   </trkpt>
   <trkpt lat="10.3175950" lon="123.8608700">
    <ele>288.6</ele>
    <time>2025-12-23T08:23:00Z</time>
   </trkpt>
   <trkpt lat="10.3175830" lon="123.8608350">
    <ele>289.8</ele>
    <time>2025-12-23T08:23:04Z</time>
   </trkpt>
   <trkpt lat="10.3176580" lon="123.8606840">
    <ele>294.6</ele>
    <time>2025-12-23T08:23:23Z</time>
   </trkpt>
   <trkpt lat="10.3177130" lon="123.8606590">
    <ele>296.4</ele>
    <time>2025-12-23T08:23:32Z</time>
   </trkpt>
   <trkpt lat="10.3177390" lon="123.8605970">
    <ele>298.3</ele>
    <time>2025-12-23T08:23:40Z</time>
   </trkpt>
   <trkpt lat="10.3177840" lon="123.8605390">
    <ele>300.3</ele>
    <time>2025-12-23T08:23:47Z</time>
   </trkpt>
   <trkpt lat="10.3177910" lon="123.8605050">
    <ele>301.2</ele>
    <time>2025-12-23T08:23:51Z</time>
   </trkpt>
   <trkpt lat="10.3178440" lon="123.8604390">
    <ele>303.1</ele>
    <time>2025-12-23T08:24:01Z</time>
   </trkpt>
   <trkpt lat="10.3178850" lon="123.8604160">
    <ele>304.0</ele>
    <time>2025-12-23T08:24:06Z</time>
   </trkpt>
   <trkpt lat="10.3179810" lon="123.8602880">
    <ele>306.4</ele>
    <time>2025-12-23T08:24:23Z</time>
   </trkpt>
   <trkpt lat="10.3179940" lon="123.8602890">
    <ele>306.6</ele>
    <time>2025-12-23T08:24:28Z</time>
   </trkpt>
   <trkpt lat="10.3179880" lon="123.8603060">
    <ele>306.8</ele>
    <time>2025-12-23T08:24:32Z</time>
   </trkpt>
   <trkpt lat="10.3180070" lon="123.8603210">
    <ele>307.1</ele>
    <time>2025-12-23T08:24:38Z</time>
   </trkpt>
   <trkpt lat="10.3180060" lon="123.8603040">
    <ele>307.4</ele>
    <time>2025-12-23T08:24:48Z</time>
   </trkpt>
   <trkpt lat="10.3179970" lon="123.8603190">
    <ele>307.6</ele>
    <time>2025-12-23T08:42:22Z</time>
   </trkpt>
   <trkpt lat="10.3179930" lon="123.8603090">
    <ele>307.7</ele>
    <time>2025-12-23T08:42:24Z</time>
   </trkpt>
   <trkpt lat="10.3179960" lon="123.8602600">
    <ele>308.0</ele>
    <time>2025-12-23T08:42:33Z</time>
   </trkpt>
   <trkpt lat="10.3180710" lon="123.8602070">
    <ele>308.4</ele>
    <time>2025-12-23T08:42:44Z</time>
   </trkpt>
   <trkpt lat="10.3181270" lon="123.8601280">
    <ele>308.5</ele>
    <time>2025-12-23T08:42:55Z</time>
   </trkpt>
   <trkpt lat="10.3181880" lon="123.8601010">
    <ele>308.5</ele>
    <time>2025-12-23T08:43:02Z</time>
   </trkpt>
   <trkpt lat="10.3182350" lon="123.8600600">
    <ele>308.6</ele>
    <time>2025-12-23T08:43:07Z</time>
   </trkpt>
   <trkpt lat="10.3182370" lon="123.8600400">
    <ele>308.6</ele>
    <time>2025-12-23T08:43:09Z</time>
   </trkpt>
   <trkpt lat="10.3182040" lon="123.8600360">
    <ele>308.6</ele>
    <time>2025-12-23T08:43:20Z</time>
   </trkpt>
   <trkpt lat="10.3181370" lon="123.8600760">
    <ele>308.5</ele>
    <time>2025-12-23T08:43:53Z</time>
   </trkpt>
   <trkpt lat="10.3181320" lon="123.8601130">
    <ele>308.4</ele>
    <time>2025-12-23T08:43:57Z</time>
   </trkpt>
   <trkpt lat="10.3179840" lon="123.8602730">
    <ele>307.4</ele>
    <time>2025-12-23T08:44:18Z</time>
   </trkpt>
   <trkpt lat="10.3179730" lon="123.8603160">
    <ele>306.9</ele>
    <time>2025-12-23T08:44:23Z</time>
   </trkpt>
   <trkpt lat="10.3179160" lon="123.8603980">
    <ele>305.5</ele>
    <time>2025-12-23T08:45:04Z</time>
   </trkpt>
   <trkpt lat="10.3177970" lon="123.8604830">
    <ele>302.9</ele>
    <time>2025-12-23T08:45:21Z</time>
   </trkpt>
   <trkpt lat="10.3177750" lon="123.8605840">
    <ele>300.5</ele>
    <time>2025-12-23T08:45:31Z</time>
   </trkpt>
   <trkpt lat="10.3177330" lon="123.8606060">
    <ele>299.1</ele>
    <time>2025-12-23T08:45:42Z</time>
   </trkpt>
   <trkpt lat="10.3177270" lon="123.8605890">
    <ele>298.6</ele>
    <time>2025-12-23T08:45:46Z</time>
   </trkpt>
   <trkpt lat="10.3177220" lon="123.8606200">
    <ele>297.7</ele>
    <time>2025-12-23T08:46:02Z</time>
   </trkpt>
   <trkpt lat="10.3176890" lon="123.8606320">
    <ele>296.7</ele>
    <time>2025-12-23T08:46:07Z</time>
   </trkpt>
   <trkpt lat="10.3176040" lon="123.8607440">
    <ele>292.8</ele>
    <time>2025-12-23T08:46:24Z</time>
   </trkpt>
   <trkpt lat="10.3175680" lon="123.8608790">
    <ele>288.6</ele>
    <time>2025-12-23T08:46:42Z</time>
   </trkpt>
   <trkpt lat="10.3175760" lon="123.8609690">
    <ele>285.6</ele>
    <time>2025-12-23T08:46:54Z</time>
   </trkpt>
   <trkpt lat="10.3174820" lon="123.8610600">
    <ele>280.6</ele>
    <time>2025-12-23T08:47:19Z</time>
   </trkpt>
   <trkpt lat="10.3174470" lon="123.8611400">
    <ele>277.6</ele>
    <time>2025-12-23T08:47:30Z</time>
   </trkpt>
   <trkpt lat="10.3174560" lon="123.8611730">
    <ele>276.3</ele>
    <time>2025-12-23T08:47:41Z</time>
   </trkpt>
   <trkpt lat="10.3174380" lon="123.8612700">
    <ele>273.0</ele>
    <time>2025-12-23T08:47:57Z</time>
   </trkpt>
   <trkpt lat="10.3174220" lon="123.8612840">
    <ele>272.3</ele>
    <time>2025-12-23T08:48:02Z</time>
   </trkpt>
   <trkpt lat="10.3173500" lon="123.8612840">
    <ele>270.0</ele>
    <time>2025-12-23T08:48:14Z</time>
   </trkpt>
   <trkpt lat="10.3172570" lon="123.8612380">
    <ele>266.9</ele>
    <time>2025-12-23T08:48:25Z</time>
   </trkpt>
   <trkpt lat="10.3170250" lon="123.8612240">
    <ele>261.1</ele>
    <time>2025-12-23T08:48:59Z</time>
   </trkpt>
   <trkpt lat="10.3168960" lon="123.8611630">
    <ele>257.3</ele>
    <time>2025-12-23T08:49:18Z</time>
   </trkpt>
   <trkpt lat="10.3168760" lon="123.8611650">
    <ele>256.7</ele>
    <time>2025-12-23T08:49:22Z</time>
   </trkpt>
   <trkpt lat="10.3168070" lon="123.8611110">
    <ele>254.3</ele>
    <time>2025-12-23T08:49:33Z</time>
   </trkpt>
   <trkpt lat="10.3166700" lon="123.8610720">
    <ele>249.3</ele>
    <time>2025-12-23T08:49:59Z</time>
   </trkpt>
   <trkpt lat="10.3166180" lon="123.8611270">
    <ele>245.9</ele>
    <time>2025-12-23T08:50:16Z</time>
   </trkpt>
   <trkpt lat="10.3165710" lon="123.8611160">
    <ele>244.0</ele>
    <time>2025-12-23T08:50:24Z</time>
   </trkpt>
   <trkpt lat="10.3165450" lon="123.8611500">
    <ele>242.3</ele>
    <time>2025-12-23T08:50:32Z</time>
   </trkpt>
   <trkpt lat="10.3165130" lon="123.8611420">
    <ele>240.9</ele>
    <time>2025-12-23T08:50:39Z</time>
   </trkpt>
   <trkpt lat="10.3165080" lon="123.8611670">
    <ele>239.9</ele>
    <time>2025-12-23T08:50:46Z</time>
   </trkpt>
   <trkpt lat="10.3164730" lon="123.8611730">
    <ele>238.7</ele>
    <time>2025-12-23T08:50:50Z</time>
   </trkpt>
   <trkpt lat="10.3164280" lon="123.8612180">
    <ele>236.5</ele>
    <time>2025-12-23T08:50:58Z</time>
   </trkpt>
   <trkpt lat="10.3163900" lon="123.8612280">
    <ele>234.9</ele>
    <time>2025-12-23T08:51:10Z</time>
   </trkpt>
   <trkpt lat="10.3163480" lon="123.8612640">
    <ele>232.8</ele>
    <time>2025-12-23T08:51:18Z</time>
   </trkpt>
   <trkpt lat="10.3163390" lon="123.8612990">
    <ele>231.5</ele>
    <time>2025-12-23T08:51:24Z</time>
   </trkpt>
   <trkpt lat="10.3163050" lon="123.8613120">
    <ele>230.2</ele>
    <time>2025-12-23T08:51:30Z</time>
   </trkpt>
   <trkpt lat="10.3162610" lon="123.8613660">
    <ele>227.6</ele>
    <time>2025-12-23T08:51:40Z</time>
   </trkpt>
   <trkpt lat="10.3162530" lon="123.8614060">
    <ele>225.8</ele>
    <time>2025-12-23T08:51:53Z</time>
   </trkpt>
   <trkpt lat="10.3161260" lon="123.8614440">
    <ele>220.9</ele>
    <time>2025-12-23T08:52:16Z</time>
   </trkpt>
   <trkpt lat="10.3159990" lon="123.8615240">
    <ele>215.6</ele>
    <time>2025-12-23T08:52:35Z</time>
   </trkpt>
   <trkpt lat="10.3159130" lon="123.8615110">
    <ele>212.9</ele>
    <time>2025-12-23T08:52:45Z</time>
   </trkpt>
   <trkpt lat="10.3158440" lon="123.8615760">
    <ele>210.2</ele>
    <time>2025-12-23T08:53:02Z</time>
   </trkpt>
   <trkpt lat="10.3157950" lon="123.8616530">
    <ele>208.0</ele>
    <time>2025-12-23T08:53:10Z</time>
   </trkpt>
   <trkpt lat="10.3157290" lon="123.8616880">
    <ele>206.4</ele>
    <time>2025-12-23T08:53:16Z</time>
   </trkpt>
   <trkpt lat="10.3156870" lon="123.8616880">
    <ele>205.6</ele>
    <time>2025-12-23T08:53:21Z</time>
   </trkpt>
   <trkpt lat="10.3156460" lon="123.8617310">
    <ele>204.4</ele>
    <time>2025-12-23T08:53:28Z</time>
   </trkpt>
   <trkpt lat="10.3156050" lon="123.8617160">
    <ele>203.5</ele>
    <time>2025-12-23T08:53:32Z</time>
   </trkpt>
   <trkpt lat="10.3155690" lon="123.8617270">
    <ele>202.9</ele>
    <time>2025-12-23T08:53:37Z</time>
   </trkpt>
   <trkpt lat="10.3154890" lon="123.8618080">
    <ele>201.2</ele>
    <time>2025-12-23T08:53:48Z</time>
   </trkpt>
   <trkpt lat="10.3154760" lon="123.8618840">
    <ele>200.2</ele>
    <time>2025-12-23T08:53:53Z</time>
   </trkpt>
   <trkpt lat="10.3154160" lon="123.8619520">
    <ele>198.8</ele>
    <time>2025-12-23T08:54:05Z</time>
   </trkpt>
   <trkpt lat="10.3154300" lon="123.8619540">
    <ele>198.5</ele>
    <time>2025-12-23T08:54:09Z</time>
   </trkpt>
   <trkpt lat="10.3153560" lon="123.8620160">
    <ele>196.4</ele>
    <time>2025-12-23T08:54:27Z</time>
   </trkpt>
   <trkpt lat="10.3152970" lon="123.8620150">
    <ele>195.3</ele>
    <time>2025-12-23T08:54:34Z</time>
   </trkpt>
   <trkpt lat="10.3151650" lon="123.8620530">
    <ele>193.0</ele>
    <time>2025-12-23T08:54:51Z</time>
   </trkpt>
   <trkpt lat="10.3151190" lon="123.8620480">
    <ele>192.3</ele>
    <time>2025-12-23T08:54:56Z</time>
   </trkpt>
   <trkpt lat="10.3150230" lon="123.8620690">
    <ele>190.7</ele>
    <time>2025-12-23T08:55:05Z</time>
   </trkpt>
   <trkpt lat="10.3148380" lon="123.8620100">
    <ele>186.3</ele>
    <time>2025-12-23T08:55:23Z</time>
   </trkpt>
   <trkpt lat="10.3147280" lon="123.8620370">
    <ele>183.6</ele>
    <time>2025-12-23T08:55:34Z</time>
   </trkpt>
   <trkpt lat="10.3146510" lon="123.8620340">
    <ele>181.9</ele>
    <time>2025-12-23T08:55:42Z</time>
   </trkpt>
   <trkpt lat="10.3146430" lon="123.8620200">
    <ele>181.6</ele>
    <time>2025-12-23T08:55:44Z</time>
   </trkpt>
   <trkpt lat="10.3146020" lon="123.8620150">
    <ele>180.8</ele>
    <time>2025-12-23T08:55:48Z</time>
   </trkpt>
   <trkpt lat="10.3144340" lon="123.8620900">
    <ele>177.5</ele>
    <time>2025-12-23T08:56:01Z</time>
   </trkpt>
   <trkpt lat="10.3141630" lon="123.8621100">
    <ele>173.2</ele>
    <time>2025-12-23T08:56:25Z</time>
   </trkpt>
   <trkpt lat="10.3141100" lon="123.8621990">
    <ele>170.5</ele>
    <time>2025-12-23T08:56:37Z</time>
   </trkpt>
   <trkpt lat="10.3141220" lon="123.8622550">
    <ele>168.8</ele>
    <time>2025-12-23T08:56:44Z</time>
   </trkpt>
   <trkpt lat="10.3140910" lon="123.8624060">
    <ele>164.9</ele>
    <time>2025-12-23T08:57:02Z</time>
   </trkpt>
   <trkpt lat="10.3141230" lon="123.8625230">
    <ele>163.1</ele>
    <time>2025-12-23T08:57:10Z</time>
   </trkpt>
   <trkpt lat="10.3141920" lon="123.8626230">
    <ele>161.8</ele>
    <time>2025-12-23T08:57:21Z</time>
   </trkpt>
   <trkpt lat="10.3141860" lon="123.8626630">
    <ele>161.2</ele>
    <time>2025-12-23T08:57:26Z</time>
   </trkpt>
   <trkpt lat="10.3142110" lon="123.8627280">
    <ele>160.2</ele>
    <time>2025-12-23T08:57:31Z</time>
   </trkpt>
   <trkpt lat="10.3142260" lon="123.8629330">
    <ele>156.6</ele>
    <time>2025-12-23T08:57:39Z</time>
   </trkpt>
   <trkpt lat="10.3142110" lon="123.8629690">
    <ele>155.8</ele>
    <time>2025-12-23T08:57:43Z</time>
   </trkpt>
   <trkpt lat="10.3141870" lon="123.8629860">
    <ele>155.1</ele>
    <time>2025-12-23T08:57:46Z</time>
   </trkpt>
   <trkpt lat="10.3141580" lon="123.8630730">
    <ele>152.9</ele>
    <time>2025-12-23T08:57:54Z</time>
   </trkpt>
   <trkpt lat="10.3140740" lon="123.8631640">
    <ele>149.2</ele>
    <time>2025-12-23T08:58:09Z</time>
   </trkpt>
   <trkpt lat="10.3140980" lon="123.8632290">
    <ele>147.2</ele>
    <time>2025-12-23T08:58:18Z</time>
   </trkpt>
   <trkpt lat="10.3140910" lon="123.8632620">
    <ele>146.2</ele>
    <time>2025-12-23T08:58:22Z</time>
   </trkpt>
   <trkpt lat="10.3140040" lon="123.8633430">
    <ele>143.2</ele>
    <time>2025-12-23T08:58:31Z</time>
   </trkpt>
   <trkpt lat="10.3139650" lon="123.8634230">
    <ele>141.0</ele>
    <time>2025-12-23T08:58:38Z</time>
   </trkpt>
   <trkpt lat="10.3138860" lon="123.8635220">
    <ele>137.8</ele>
    <time>2025-12-23T08:58:47Z</time>
   </trkpt>
   <trkpt lat="10.3137980" lon="123.8635870">
    <ele>135.4</ele>
    <time>2025-12-23T08:58:57Z</time>
   </trkpt>
   <trkpt lat="10.3137910" lon="123.8636600">
    <ele>134.2</ele>
    <time>2025-12-23T08:59:02Z</time>
   </trkpt>
   <trkpt lat="10.3137590" lon="123.8637130">
    <ele>133.4</ele>
    <time>2025-12-23T08:59:07Z</time>
   </trkpt>
   <trkpt lat="10.3137470" lon="123.8637830">
    <ele>132.5</ele>
    <time>2025-12-23T08:59:12Z</time>
   </trkpt>
   <trkpt lat="10.3136970" lon="123.8638520">
    <ele>131.4</ele>
    <time>2025-12-23T08:59:19Z</time>
   </trkpt>
   <trkpt lat="10.3136930" lon="123.8639000">
    <ele>130.7</ele>
    <time>2025-12-23T08:59:23Z</time>
   </trkpt>
   <trkpt lat="10.3136260" lon="123.8639490">
    <ele>129.1</ele>
    <time>2025-12-23T08:59:30Z</time>
   </trkpt>
   <trkpt lat="10.3136230" lon="123.8639660">
    <ele>128.7</ele>
    <time>2025-12-23T08:59:32Z</time>
   </trkpt>
   <trkpt lat="10.3136900" lon="123.8640230">
    <ele>126.4</ele>
    <time>2025-12-23T08:59:44Z</time>
   </trkpt>
   <trkpt lat="10.3137080" lon="123.8640750">
    <ele>124.7</ele>
    <time>2025-12-23T08:59:50Z</time>
   </trkpt>
   <trkpt lat="10.3137370" lon="123.8640970">
    <ele>123.5</ele>
    <time>2025-12-23T08:59:54Z</time>
   </trkpt>
   <trkpt lat="10.3137490" lon="123.8641310">
    <ele>122.4</ele>
    <time>2025-12-23T08:59:58Z</time>
   </trkpt>
   <trkpt lat="10.3136700" lon="123.8642620">
    <ele>118.1</ele>
    <time>2025-12-23T09:00:13Z</time>
   </trkpt>
   <trkpt lat="10.3137430" lon="123.8642910">
    <ele>115.8</ele>
    <time>2025-12-23T09:00:25Z</time>
   </trkpt>
   <trkpt lat="10.3138040" lon="123.8642650">
    <ele>113.8</ele>
    <time>2025-12-23T09:00:35Z</time>
   </trkpt>
   <trkpt lat="10.3138440" lon="123.8642750">
    <ele>112.4</ele>
    <time>2025-12-23T09:00:43Z</time>
   </trkpt>
   <trkpt lat="10.3139520" lon="123.8642530">
    <ele>109.2</ele>
    <time>2025-12-23T09:00:52Z</time>
   </trkpt>
   <trkpt lat="10.3139220" lon="123.8643230">
    <ele>107.0</ele>
    <time>2025-12-23T09:01:01Z</time>
   </trkpt>
   <trkpt lat="10.3138760" lon="123.8645910">
    <ele>99.1</ele>
    <time>2025-12-23T09:01:35Z</time>
   </trkpt>
   <trkpt lat="10.3138440" lon="123.8646480">
    <ele>97.1</ele>
    <time>2025-12-23T09:01:44Z</time>
   </trkpt>
   <trkpt lat="10.3138460" lon="123.8646710">
    <ele>96.5</ele>
    <time>2025-12-23T09:01:48Z</time>
   </trkpt>
   <trkpt lat="10.3138790" lon="123.8646790">
    <ele>95.4</ele>
    <time>2025-12-23T09:01:54Z</time>
   </trkpt>
   <trkpt lat="10.3138250" lon="123.8647800">
    <ele>92.5</ele>
    <time>2025-12-23T09:02:11Z</time>
   </trkpt>
   <trkpt lat="10.3138240" lon="123.8649210">
    <ele>91.8</ele>
    <time>2025-12-23T09:02:24Z</time>
   </trkpt>
   <trkpt lat="10.3139500" lon="123.8651040">
    <ele>93.4</ele>
    <time>2025-12-23T09:02:45Z</time>
   </trkpt>
   <trkpt lat="10.3140670" lon="123.8651340">
    <ele>94.4</ele>
    <time>2025-12-23T09:02:55Z</time>
   </trkpt>
   <trkpt lat="10.3140730" lon="123.8651960">
    <ele>95.0</ele>
    <time>2025-12-23T09:03:02Z</time>
   </trkpt>
   <trkpt lat="10.3140480" lon="123.8652100">
    <ele>95.4</ele>
    <time>2025-12-23T09:03:04Z</time>
   </trkpt>
   <trkpt lat="10.3140110" lon="123.8652750">
    <ele>96.8</ele>
    <time>2025-12-23T09:03:10Z</time>
   </trkpt>
   <trkpt lat="10.3140490" lon="123.8653500">
    <ele>98.8</ele>
    <time>2025-12-23T09:03:16Z</time>
   </trkpt>
   <trkpt lat="10.3142140" lon="123.8654640">
    <ele>103.4</ele>
    <time>2025-12-23T09:03:37Z</time>
   </trkpt>
   <trkpt lat="10.3142490" lon="123.8655200">
    <ele>104.4</ele>
    <time>2025-12-23T09:03:43Z</time>
   </trkpt>
   <trkpt lat="10.3143910" lon="123.8655660">
    <ele>106.0</ele>
    <time>2025-12-23T09:03:55Z</time>
   </trkpt>
   <trkpt lat="10.3144750" lon="123.8656480">
    <ele>107.5</ele>
    <time>2025-12-23T09:04:05Z</time>
   </trkpt>
   <trkpt lat="10.3144320" lon="123.8658350">
    <ele>109.7</ele>
    <time>2025-12-23T09:04:19Z</time>
   </trkpt>
   <trkpt lat="10.3144320" lon="123.8659000">
    <ele>110.1</ele>
    <time>2025-12-23T09:04:23Z</time>
   </trkpt>
   <trkpt lat="10.3143570" lon="123.8660240">
    <ele>110.1</ele>
    <time>2025-12-23T09:04:36Z</time>
   </trkpt>
   <trkpt lat="10.3143890" lon="123.8661070">
    <ele>109.9</ele>
    <time>2025-12-23T09:04:43Z</time>
   </trkpt>
   <trkpt lat="10.3144650" lon="123.8661650">
    <ele>109.7</ele>
    <time>2025-12-23T09:04:50Z</time>
   </trkpt>
   <trkpt lat="10.3144820" lon="123.8662210">
    <ele>109.6</ele>
    <time>2025-12-23T09:04:55Z</time>
   </trkpt>
   <trkpt lat="10.3145590" lon="123.8663190">
    <ele>108.5</ele>
    <time>2025-12-23T09:05:06Z</time>
   </trkpt>
   <trkpt lat="10.3145620" lon="123.8663960">
    <ele>107.6</ele>
    <time>2025-12-23T09:05:12Z</time>
   </trkpt>
   <trkpt lat="10.3146030" lon="123.8665180">
    <ele>107.8</ele>
    <time>2025-12-23T09:05:21Z</time>
   </trkpt>
   <trkpt lat="10.3145970" lon="123.8666530">
    <ele>109.5</ele>
    <time>2025-12-23T09:05:33Z</time>
   </trkpt>
   <trkpt lat="10.3144960" lon="123.8667370">
    <ele>109.6</ele>
    <time>2025-12-23T09:05:44Z</time>
   </trkpt>
   <trkpt lat="10.3143770" lon="123.8668750">
    <ele>109.8</ele>
    <time>2025-12-23T09:05:58Z</time>
   </trkpt>
   <trkpt lat="10.3142260" lon="123.8669430">
    <ele>110.0</ele>
    <time>2025-12-23T09:06:10Z</time>
   </trkpt>
   <trkpt lat="10.3140780" lon="123.8670650">
    <ele>109.8</ele>
    <time>2025-12-23T09:06:23Z</time>
   </trkpt>
   <trkpt lat="10.3138210" lon="123.8671730">
    <ele>108.6</ele>
    <time>2025-12-23T09:06:49Z</time>
   </trkpt>
   <trkpt lat="10.3136990" lon="123.8672060">
    <ele>107.7</ele>
    <time>2025-12-23T09:06:59Z</time>
   </trkpt>
   <trkpt lat="10.3134540" lon="123.8673650">
    <ele>104.9</ele>
    <time>2025-12-23T09:07:23Z</time>
   </trkpt>
   <trkpt lat="10.3134140" lon="123.8674100">
    <ele>104.3</ele>
    <time>2025-12-23T09:07:28Z</time>
   </trkpt>
   <trkpt lat="10.3134350" lon="123.8674660">
    <ele>103.5</ele>
    <time>2025-12-23T09:07:33Z</time>
   </trkpt>
   <trkpt lat="10.3134080" lon="123.8675240">
    <ele>102.6</ele>
    <time>2025-12-23T09:07:39Z</time>
   </trkpt>
   <trkpt lat="10.3133340" lon="123.8675780">
    <ele>101.1</ele>
    <time>2025-12-23T09:07:48Z</time>
   </trkpt>
   <trkpt lat="10.3132720" lon="123.8676740">
    <ele>99.1</ele>
    <time>2025-12-23T09:07:59Z</time>
   </trkpt>
   <trkpt lat="10.3130240" lon="123.8679230">
    <ele>92.8</ele>
    <time>2025-12-23T09:08:26Z</time>
   </trkpt>
   <trkpt lat="10.3129870" lon="123.8679440">
    <ele>92.1</ele>
    <time>2025-12-23T09:08:30Z</time>
   </trkpt>
   <trkpt lat="10.3129220" lon="123.8680230">
    <ele>90.1</ele>
    <time>2025-12-23T09:08:41Z</time>
   </trkpt>
   <trkpt lat="10.3128260" lon="123.8680720">
    <ele>87.9</ele>
    <time>2025-12-23T09:08:52Z</time>
   </trkpt>
   <trkpt lat="10.3127650" lon="123.8681430">
    <ele>86.2</ele>
    <time>2025-12-23T09:09:01Z</time>
   </trkpt>
   <trkpt lat="10.3126620" lon="123.8681880">
    <ele>84.0</ele>
    <time>2025-12-23T09:09:11Z</time>
   </trkpt>
   <trkpt lat="10.3125360" lon="123.8682710">
    <ele>81.2</ele>
    <time>2025-12-23T09:09:24Z</time>
   </trkpt>
   <trkpt lat="10.3124610" lon="123.8682790">
    <ele>79.9</ele>
    <time>2025-12-23T09:09:30Z</time>
   </trkpt>
   <trkpt lat="10.3124070" lon="123.8683080">
    <ele>78.8</ele>
    <time>2025-12-23T09:09:37Z</time>
   </trkpt>
   <trkpt lat="10.3122840" lon="123.8683010">
    <ele>76.6</ele>
    <time>2025-12-23T09:09:47Z</time>
   </trkpt>
   <trkpt lat="10.3122000" lon="123.8683720">
    <ele>74.5</ele>
    <time>2025-12-23T09:09:58Z</time>
   </trkpt>
   <trkpt lat="10.3121530" lon="123.8684560">
    <ele>72.6</ele>
    <time>2025-12-23T09:10:06Z</time>
   </trkpt>
   <trkpt lat="10.3121170" lon="123.8684800">
    <ele>71.9</ele>
    <time>2025-12-23T09:10:09Z</time>
   </trkpt>
   <trkpt lat="10.3120580" lon="123.8685060">
    <ele>70.9</ele>
    <time>2025-12-23T09:10:14Z</time>
   </trkpt>
   <trkpt lat="10.3120190" lon="123.8685040">
    <ele>70.3</ele>
    <time>2025-12-23T09:10:19Z</time>
   </trkpt>
   <trkpt lat="10.3119420" lon="123.8685540">
    <ele>68.9</ele>
    <time>2025-12-23T09:10:29Z</time>
   </trkpt>
   <trkpt lat="10.3118040" lon="123.8685940">
    <ele>67.0</ele>
    <time>2025-12-23T09:10:44Z</time>
   </trkpt>
   <trkpt lat="10.3117640" lon="123.8686250">
    <ele>66.3</ele>
    <time>2025-12-23T09:10:48Z</time>
   </trkpt>
   <trkpt lat="10.3115360" lon="123.8687030">
    <ele>63.3</ele>
    <time>2025-12-23T09:11:07Z</time>
   </trkpt>
   <trkpt lat="10.3114410" lon="123.8687210">
    <ele>62.1</ele>
    <time>2025-12-23T09:11:14Z</time>
   </trkpt>
   <trkpt lat="10.3113460" lon="123.8687040">
    <ele>60.9</ele>
    <time>2025-12-23T09:11:27Z</time>
   </trkpt>
   <trkpt lat="10.3113220" lon="123.8687180">
    <ele>60.5</ele>
    <time>2025-12-23T09:11:46Z</time>
   </trkpt>
   <trkpt lat="10.3112660" lon="123.8686740">
    <ele>59.7</ele>
    <time>2025-12-23T09:11:52Z</time>
   </trkpt>
   <trkpt lat="10.3111890" lon="123.8686660">
    <ele>59.0</ele>
    <time>2025-12-23T09:12:01Z</time>
   </trkpt>
   <trkpt lat="10.3110200" lon="123.8685870">
    <ele>57.8</ele>
    <time>2025-12-23T09:12:17Z</time>
   </trkpt>
   <trkpt lat="10.3108360" lon="123.8686660">
    <ele>56.2</ele>
    <time>2025-12-23T09:12:32Z</time>
   </trkpt>
   <trkpt lat="10.3107150" lon="123.8687760">
    <ele>53.7</ele>
    <time>2025-12-23T09:12:46Z</time>
   </trkpt>
   <trkpt lat="10.3107060" lon="123.8688350">
    <ele>52.6</ele>
    <time>2025-12-23T09:12:53Z</time>
   </trkpt>
   <trkpt lat="10.3106700" lon="123.8688420">
    <ele>52.0</ele>
    <time>2025-12-23T09:12:56Z</time>
   </trkpt>
   <trkpt lat="10.3105810" lon="123.8688970">
    <ele>50.7</ele>
    <time>2025-12-23T09:13:08Z</time>
   </trkpt>
   <trkpt lat="10.3105260" lon="123.8689580">
    <ele>50.6</ele>
    <time>2025-12-23T09:13:14Z</time>
   </trkpt>
   <trkpt lat="10.3105140" lon="123.8690550">
    <ele>50.5</ele>
    <time>2025-12-23T09:13:21Z</time>
   </trkpt>
   <trkpt lat="10.3104990" lon="123.8690810">
    <ele>50.4</ele>
    <time>2025-12-23T09:13:23Z</time>
   </trkpt>
   <trkpt lat="10.3105180" lon="123.8692190">
    <ele>49.9</ele>
    <time>2025-12-23T09:13:32Z</time>
   </trkpt>
   <trkpt lat="10.3105100" lon="123.8692690">
    <ele>49.6</ele>
    <time>2025-12-23T09:13:36Z</time>
   </trkpt>
   <trkpt lat="10.3104930" lon="123.8692790">
    <ele>49.5</ele>
    <time>2025-12-23T09:13:38Z</time>
   </trkpt>
   <trkpt lat="10.3104450" lon="123.8693960">
    <ele>48.5</ele>
    <time>2025-12-23T09:13:49Z</time>
   </trkpt>
   <trkpt lat="10.3104230" lon="123.8694070">
    <ele>48.3</ele>
    <time>2025-12-23T09:13:51Z</time>
   </trkpt>
   <trkpt lat="10.3103650" lon="123.8695040">
    <ele>47.3</ele>
    <time>2025-12-23T09:14:00Z</time>
   </trkpt>
   <trkpt lat="10.3103480" lon="123.8695750">
    <ele>46.8</ele>
    <time>2025-12-23T09:14:05Z</time>
   </trkpt>
   <trkpt lat="10.3102770" lon="123.8696470">
    <ele>46.4</ele>
    <time>2025-12-23T09:14:12Z</time>
   </trkpt>
   <trkpt lat="10.3102250" lon="123.8698060">
    <ele>45.6</ele>
    <time>2025-12-23T09:14:24Z</time>
   </trkpt>
   <trkpt lat="10.3101650" lon="123.8698680">
    <ele>45.1</ele>
    <time>2025-12-23T09:14:29Z</time>
   </trkpt>
   <trkpt lat="10.3100660" lon="123.8699270">
    <ele>44.5</ele>
    <time>2025-12-23T09:14:37Z</time>
   </trkpt>
   <trkpt lat="10.3099070" lon="123.8700540">
    <ele>43.5</ele>
    <time>2025-12-23T09:14:50Z</time>
   </trkpt>
   <trkpt lat="10.3097620" lon="123.8701390">
    <ele>42.7</ele>
    <time>2025-12-23T09:15:02Z</time>
   </trkpt>
   <trkpt lat="10.3097060" lon="123.8701430">
    <ele>42.4</ele>
    <time>2025-12-23T09:15:07Z</time>
   </trkpt>
   <trkpt lat="10.3096180" lon="123.8702040">
    <ele>42.0</ele>
    <time>2025-12-23T09:15:17Z</time>
   </trkpt>
   <trkpt lat="10.3095770" lon="123.8702410">
    <ele>41.7</ele>
    <time>2025-12-23T09:15:21Z</time>
   </trkpt>
   <trkpt lat="10.3095440" lon="123.8703620">
    <ele>41.2</ele>
    <time>2025-12-23T09:15:27Z</time>
   </trkpt>
   <trkpt lat="10.3094100" lon="123.8704400">
    <ele>40.7</ele>
    <time>2025-12-23T09:15:41Z</time>
   </trkpt>
   <trkpt lat="10.3093290" lon="123.8704330">
    <ele>40.4</ele>
    <time>2025-12-23T09:15:46Z</time>
   </trkpt>
   <trkpt lat="10.3092830" lon="123.8704510">
    <ele>40.3</ele>
    <time>2025-12-23T09:15:49Z</time>
   </trkpt>
   <trkpt lat="10.3091830" lon="123.8705310">
    <ele>40.3</ele>
    <time>2025-12-23T09:15:57Z</time>
   </trkpt>
   <trkpt lat="10.3090490" lon="123.8705860">
    <ele>40.7</ele>
    <time>2025-12-23T09:16:11Z</time>
   </trkpt>
   <trkpt lat="10.3089960" lon="123.8706700">
    <ele>41.3</ele>
    <time>2025-12-23T09:16:21Z</time>
   </trkpt>
   <trkpt lat="10.3089860" lon="123.8707050">
    <ele>41.5</ele>
    <time>2025-12-23T09:16:26Z</time>
   </trkpt>
   <trkpt lat="10.3089980" lon="123.8707830">
    <ele>42.1</ele>
    <time>2025-12-23T09:16:33Z</time>
   </trkpt>
   <trkpt lat="10.3089700" lon="123.8708160">
    <ele>42.4</ele>
    <time>2025-12-23T09:16:36Z</time>
   </trkpt>
   <trkpt lat="10.3089610" lon="123.8708640">
    <ele>42.6</ele>
    <time>2025-12-23T09:16:40Z</time>
   </trkpt>
   <trkpt lat="10.3089270" lon="123.8709190">
    <ele>42.8</ele>
    <time>2025-12-23T09:16:45Z</time>
   </trkpt>
   <trkpt lat="10.3088970" lon="123.8710960">
    <ele>42.7</ele>
    <time>2025-12-23T09:16:59Z</time>
   </trkpt>
   <trkpt lat="10.3089650" lon="123.8714880">
    <ele>41.4</ele>
    <time>2025-12-23T09:17:31Z</time>
   </trkpt>
   <trkpt lat="10.3090880" lon="123.8716150">
    <ele>40.8</ele>
    <time>2025-12-23T09:17:43Z</time>
   </trkpt>
   <trkpt lat="10.3091170" lon="123.8716820">
    <ele>40.7</ele>
    <time>2025-12-23T09:17:49Z</time>
   </trkpt>
   <trkpt lat="10.3091730" lon="123.8717070">
    <ele>40.4</ele>
    <time>2025-12-23T09:17:54Z</time>
   </trkpt>
   <trkpt lat="10.3092650" lon="123.8718580">
    <ele>39.6</ele>
    <time>2025-12-23T09:18:09Z</time>
   </trkpt>
   <trkpt lat="10.3093740" lon="123.8719600">
    <ele>39.0</ele>
    <time>2025-12-23T09:18:19Z</time>
   </trkpt>
   <trkpt lat="10.3093910" lon="123.8720260">
    <ele>38.7</ele>
    <time>2025-12-23T09:18:25Z</time>
   </trkpt>
   <trkpt lat="10.3093890" lon="123.8721240">
    <ele>38.4</ele>
    <time>2025-12-23T09:18:31Z</time>
   </trkpt>
   <trkpt lat="10.3093490" lon="123.8722790">
    <ele>37.6</ele>
    <time>2025-12-23T09:18:45Z</time>
   </trkpt>
   <trkpt lat="10.3093640" lon="123.8724140">
    <ele>36.9</ele>
    <time>2025-12-23T09:18:56Z</time>
   </trkpt>
   <trkpt lat="10.3093050" lon="123.8725610">
    <ele>36.0</ele>
    <time>2025-12-23T09:19:07Z</time>
   </trkpt>
   <trkpt lat="10.3092990" lon="123.8726000">
    <ele>35.7</ele>
    <time>2025-12-23T09:19:11Z</time>
   </trkpt>
   <trkpt lat="10.3093110" lon="123.8726100">
    <ele>35.6</ele>
    <time>2025-12-23T09:19:13Z</time>
   </trkpt>
   <trkpt lat="10.3092850" lon="123.8726540">
    <ele>35.3</ele>
    <time>2025-12-23T09:19:16Z</time>
   </trkpt>
   <trkpt lat="10.3092670" lon="123.8728640">
    <ele>34.2</ele>
    <time>2025-12-23T09:19:33Z</time>
   </trkpt>
   <trkpt lat="10.3092370" lon="123.8729090">
    <ele>33.9</ele>
    <time>2025-12-23T09:19:37Z</time>
   </trkpt>
   <trkpt lat="10.3091880" lon="123.8730930">
    <ele>32.8</ele>
    <time>2025-12-23T09:19:53Z</time>
   </trkpt>
   <trkpt lat="10.3091880" lon="123.8731770">
    <ele>32.3</ele>
    <time>2025-12-23T09:19:58Z</time>
   </trkpt>
   <trkpt lat="10.3091560" lon="123.8732300">
    <ele>31.9</ele>
    <time>2025-12-23T09:20:02Z</time>
   </trkpt>
   <trkpt lat="10.3091280" lon="123.8733470">
    <ele>31.2</ele>
    <time>2025-12-23T09:20:09Z</time>
   </trkpt>
   <trkpt lat="10.3091490" lon="123.8734930">
    <ele>30.8</ele>
    <time>2025-12-23T09:20:21Z</time>
   </trkpt>
   <trkpt lat="10.3092210" lon="123.8736020">
    <ele>30.4</ele>
    <time>2025-12-23T09:20:33Z</time>
   </trkpt>
   <trkpt lat="10.3092030" lon="123.8736970">
    <ele>29.9</ele>
    <time>2025-12-23T09:20:42Z</time>
   </trkpt>
   <trkpt lat="10.3092570" lon="123.8738120">
    <ele>29.2</ele>
    <time>2025-12-23T09:20:49Z</time>
   </trkpt>
   <trkpt lat="10.3092510" lon="123.8738590">
    <ele>28.9</ele>
    <time>2025-12-23T09:20:52Z</time>
   </trkpt>
   <trkpt lat="10.3092760" lon="123.8739760">
    <ele>28.2</ele>
    <time>2025-12-23T09:21:03Z</time>
   </trkpt>
   <trkpt lat="10.3092690" lon="123.8740490">
    <ele>27.8</ele>
    <time>2025-12-23T09:21:09Z</time>
   </trkpt>
   <trkpt lat="10.3092900" lon="123.8741180">
    <ele>27.4</ele>
    <time>2025-12-23T09:21:14Z</time>
   </trkpt>
   <trkpt lat="10.3092860" lon="123.8741600">
    <ele>27.1</ele>
    <time>2025-12-23T09:21:18Z</time>
   </trkpt>
   <trkpt lat="10.3092590" lon="123.8742040">
    <ele>26.9</ele>
    <time>2025-12-23T09:21:23Z</time>
   </trkpt>
   <trkpt lat="10.3092740" lon="123.8742700">
    <ele>26.6</ele>
    <time>2025-12-23T09:21:29Z</time>
   </trkpt>
   <trkpt lat="10.3092540" lon="123.8744800">
    <ele>25.9</ele>
    <time>2025-12-23T09:21:44Z</time>
   </trkpt>
   <trkpt lat="10.3092880" lon="123.8746010">
    <ele>25.6</ele>
    <time>2025-12-23T09:21:56Z</time>
   </trkpt>
   <trkpt lat="10.3092720" lon="123.8747060">
    <ele>25.3</ele>
    <time>2025-12-23T09:22:02Z</time>
   </trkpt>
   <trkpt lat="10.3092910" lon="123.8747690">
    <ele>25.2</ele>
    <time>2025-12-23T09:22:06Z</time>
   </trkpt>
   <trkpt lat="10.3092690" lon="123.8748500">
    <ele>25.1</ele>
    <time>2025-12-23T09:22:13Z</time>
   </trkpt>
   <trkpt lat="10.3092660" lon="123.8749580">
    <ele>25.0</ele>
    <time>2025-12-23T09:22:22Z</time>
   </trkpt>
   <trkpt lat="10.3092990" lon="123.8750920">
    <ele>25.0</ele>
    <time>2025-12-23T09:22:33Z</time>
   </trkpt>
   <trkpt lat="10.3092940" lon="123.8751820">
    <ele>25.1</ele>
    <time>2025-12-23T09:22:43Z</time>
   </trkpt>
   <trkpt lat="10.3093200" lon="123.8752290">
    <ele>25.2</ele>
    <time>2025-12-23T09:22:49Z</time>
   </trkpt>
   <trkpt lat="10.3093030" lon="123.8752780">
    <ele>25.3</ele>
    <time>2025-12-23T09:22:54Z</time>
   </trkpt>
   <trkpt lat="10.3093110" lon="123.8753790">
    <ele>25.7</ele>
    <time>2025-12-23T09:23:01Z</time>
   </trkpt>
   <trkpt lat="10.3093900" lon="123.8754330">
    <ele>26.3</ele>
    <time>2025-12-23T09:23:09Z</time>
   </trkpt>
   <trkpt lat="10.3093860" lon="123.8755530">
    <ele>27.0</ele>
    <time>2025-12-23T09:23:21Z</time>
   </trkpt>
  </trkseg>
 </trk>
</gpx>