<?xml version='1.0' encoding='UTF-8'?>
<gpx xmlns="http://www.topografix.com/GPX/1/1" xmlns:xsi="http://www.w3.org/2001/XMLSchema-instance" creator="StravaGPX" version="1.1" xsi:schemaLocation="http://www.topografix.com/GPX/1/1 http://www.topografix.com/GPX/1/1/gpx.xsd">
 <metadata>
  <time>2025-12-13T21:26:37Z</time>
 </metadata>
 <trk>
  <name>Starbuks to Buhisan</name>
  <type>hiking</type>
  <trkseg>
   <trkpt lat="10.3094380" lon="123.8746710">
    <ele>25.4</ele>
    <time>2025-12-13T21:26:37Z</time>
   </trkpt>
   <trkpt lat="10.3094190" lon="123.8745860">
    <ele>25.6</ele>
    <time>2025-12-13T21:26:44Z</time>
   </trkpt>
   <trkpt lat="10.3094230" lon="123.8745000">
    <ele>25.8</ele>
    <time>2025-12-13T21:26:52Z</time>
   </trkpt>
   <trkpt lat="10.3094010" lon="123.8744800">
    <ele>25.9</ele>
    <time>2025-12-13T21:26:55Z</time>
   </trkpt>
   <trkpt lat="10.3094150" lon="123.8741870">
    <ele>27.0</ele>
    <time>2025-12-13T21:27:21Z</time>
   </trkpt>
   <trkpt lat="10.3093660" lon="123.8740920">
    <ele>27.5</ele>
    <time>2025-12-13T21:27:29Z</time>
   </trkpt>
   <trkpt lat="10.3093530" lon="123.8740270">
    <ele>27.8</ele>
    <time>2025-12-13T21:27:37Z</time>
   </trkpt>
   <trkpt lat="10.3093730" lon="123.8738300">
    <ele>29.0</ele>
    <time>2025-12-13T21:27:56Z</time>
   </trkpt>
   <trkpt lat="10.3093370" lon="123.8736390">
    <ele>30.2</ele>
    <time>2025-12-13T21:28:13Z</time>
   </trkpt>
   <trkpt lat="10.3093470" lon="123.8735610">
    <ele>30.5</ele>
    <time>2025-12-13T21:28:20Z</time>
   </trkpt>
   <trkpt lat="10.3093210" lon="123.8735040">
    <ele>30.8</ele>
    <time>2025-12-13T21:28:28Z</time>
   </trkpt>
   <trkpt lat="10.3093130" lon="123.8734020">
    <ele>31.1</ele>
    <time>2025-12-13T21:28:37Z</time>
   </trkpt>
   <trkpt lat="10.3092890" lon="123.8733560">
    <ele>31.3</ele>
    <time>2025-12-13T21:28:42Z</time>
   </trkpt>
   <trkpt lat="10.3093060" lon="123.8732970">
    <ele>31.5</ele>
    <time>2025-12-13T21:28:47Z</time>
   </trkpt>
   <trkpt lat="10.3093000" lon="123.8731450">
    <ele>32.3</ele>
    <time>2025-12-13T21:29:02Z</time>
   </trkpt>
   <trkpt lat="10.3093210" lon="123.8730610">
    <ele>32.8</ele>
    <time>2025-12-13T21:29:10Z</time>
   </trkpt>
   <trkpt lat="10.3092990" lon="123.8728630">
    <ele>34.0</ele>
    <time>2025-12-13T21:29:29Z</time>
   </trkpt>
   <trkpt lat="10.3093410" lon="123.8727090">
    <ele>34.9</ele>
    <time>2025-12-13T21:29:45Z</time>
   </trkpt>
   <trkpt lat="10.3093460" lon="123.8725810">
    <ele>35.7</ele>
    <time>2025-12-13T21:29:59Z</time>
   </trkpt>
   <trkpt lat="10.3093840" lon="123.8724860">
    <ele>36.3</ele>
    <time>2025-12-13T21:30:08Z</time>
   </trkpt>
   <trkpt lat="10.3093880" lon="123.8724100">
    <ele>36.8</ele>
    <time>2025-12-13T21:30:16Z</time>
   </trkpt>
   <trkpt lat="10.3094240" lon="123.8723290">
    <ele>37.3</ele>
    <time>2025-12-13T21:30:25Z</time>
   </trkpt>
   <trkpt lat="10.3094380" lon="123.8719590">
    <ele>39.1</ele>
    <time>2025-12-13T21:31:01Z</time>
   </trkpt>
   <trkpt lat="10.3094050" lon="123.8718730">
    <ele>39.4</ele>
    <time>2025-12-13T21:31:08Z</time>
   </trkpt>
   <trkpt lat="10.3093600" lon="123.8718080">
    <ele>39.7</ele>
    <time>2025-12-13T21:31:16Z</time>
   </trkpt>
   <trkpt lat="10.3092050" lon="123.8716620">
    <ele>40.5</ele>
    <time>2025-12-13T21:31:37Z</time>
   </trkpt>
   <trkpt lat="10.3091340" lon="123.8716210">
    <ele>40.7</ele>
    <time>2025-12-13T21:31:46Z</time>
   </trkpt>
   <trkpt lat="10.3090590" lon="123.8715330">
    <ele>41.1</ele>
    <time>2025-12-13T21:31:56Z</time>
   </trkpt>
   <trkpt lat="10.3090420" lon="123.8714810">
    <ele>41.3</ele>
    <time>2025-12-13T21:32:02Z</time>
   </trkpt>
   <trkpt lat="10.3090350" lon="123.8713850">
    <ele>41.7</ele>
    <time>2025-12-13T21:32:11Z</time>
   </trkpt>
   <trkpt lat="10.3089870" lon="123.8712510">
    <ele>42.1</ele>
    <time>2025-12-13T21:32:23Z</time>
   </trkpt>
   <trkpt lat="10.3089810" lon="123.8711210">
    <ele>42.6</ele>
    <time>2025-12-13T21:32:35Z</time>
   </trkpt>
   <trkpt lat="10.3090130" lon="123.8708960">
    <ele>42.7</ele>
    <time>2025-12-13T21:32:57Z</time>
   </trkpt>
   <trkpt lat="10.3090500" lon="123.8707940">
    <ele>42.1</ele>
    <time>2025-12-13T21:33:08Z</time>
   </trkpt>
   <trkpt lat="10.3090280" lon="123.8706800">
    <ele>41.2</ele>
    <time>2025-12-13T21:33:19Z</time>
   </trkpt>
   <trkpt lat="10.3090470" lon="123.8706370">
    <ele>40.9</ele>
    <time>2025-12-13T21:33:23Z</time>
   </trkpt>
   <trkpt lat="10.3091310" lon="123.8705410">
    <ele>40.3</ele>
    <time>2025-12-13T21:33:32Z</time>
   </trkpt>
   <trkpt lat="10.3095880" lon="123.8703260">
    <ele>41.4</ele>
    <time>2025-12-13T21:34:21Z</time>
   </trkpt>
   <trkpt lat="10.3096120" lon="123.8702820">
    <ele>41.6</ele>
    <time>2025-12-13T21:34:27Z</time>
   </trkpt>
   <trkpt lat="10.3097020" lon="123.8702360">
    <ele>42.1</ele>
    <time>2025-12-13T21:34:35Z</time>
   </trkpt>
   <trkpt lat="10.3097420" lon="123.8701710">
    <ele>42.4</ele>
    <time>2025-12-13T21:34:43Z</time>
   </trkpt>
   <trkpt lat="10.3098550" lon="123.8701070">
    <ele>43.0</ele>
    <time>2025-12-13T21:34:56Z</time>
   </trkpt>
   <trkpt lat="10.3102200" lon="123.8698080">
    <ele>45.5</ele>
    <time>2025-12-13T21:35:40Z</time>
   </trkpt>
   <trkpt lat="10.3102560" lon="123.8697960">
    <ele>45.7</ele>
    <time>2025-12-13T21:35:44Z</time>
   </trkpt>
   <trkpt lat="10.3103410" lon="123.8696900">
    <ele>46.4</ele>
    <time>2025-12-13T21:35:56Z</time>
   </trkpt>
   <trkpt lat="10.3103630" lon="123.8696210">
    <ele>46.5</ele>
    <time>2025-12-13T21:36:03Z</time>
   </trkpt>
   <trkpt lat="10.3103890" lon="123.8696080">
    <ele>46.7</ele>
    <time>2025-12-13T21:36:06Z</time>
   </trkpt>
   <trkpt lat="10.3104540" lon="123.8695040">
    <ele>47.6</ele>
    <time>2025-12-13T21:36:18Z</time>
   </trkpt>
   <trkpt lat="10.3104980" lon="123.8694630">
    <ele>48.2</ele>
    <time>2025-12-13T21:36:26Z</time>
   </trkpt>
   <trkpt lat="10.3104980" lon="123.8694160">
    <ele>48.6</ele>
    <time>2025-12-13T21:36:30Z</time>
   </trkpt>
   <trkpt lat="10.3105490" lon="123.8692770">
    <ele>49.6</ele>
    <time>2025-12-13T21:36:43Z</time>
   </trkpt>
   <trkpt lat="10.3105410" lon="123.8691220">
    <ele>50.4</ele>
    <time>2025-12-13T21:36:58Z</time>
   </trkpt>
   <trkpt lat="10.3105670" lon="123.8690610">
    <ele>50.5</ele>
    <time>2025-12-13T21:37:05Z</time>
   </trkpt>
   <trkpt lat="10.3105610" lon="123.8690080">
    <ele>50.5</ele>
    <time>2025-12-13T21:37:10Z</time>
   </trkpt>
   <trkpt lat="10.3105980" lon="123.8688470">
    <ele>51.3</ele>
    <time>2025-12-13T21:37:23Z</time>
   </trkpt>
   <trkpt lat="10.3106390" lon="123.8688350">
    <ele>51.9</ele>
    <time>2025-12-13T21:37:28Z</time>
   </trkpt>
   <trkpt lat="10.3106680" lon="123.8688030">
    <ele>52.6</ele>
    <time>2025-12-13T21:37:33Z</time>
   </trkpt>
   <trkpt lat="10.3107920" lon="123.8687340">
    <ele>55.1</ele>
    <time>2025-12-13T21:37:49Z</time>
   </trkpt>
   <trkpt lat="10.3108280" lon="123.8686820">
    <ele>56.0</ele>
    <time>2025-12-13T21:37:55Z</time>
   </trkpt>
   <trkpt lat="10.3109420" lon="123.8686170">
    <ele>57.3</ele>
    <time>2025-12-13T21:38:09Z</time>
   </trkpt>
   <trkpt lat="10.3109980" lon="123.8686100">
    <ele>57.7</ele>
    <time>2025-12-13T21:38:14Z</time>
   </trkpt>
   <trkpt lat="10.3110560" lon="123.8686170">
    <ele>58.0</ele>
    <time>2025-12-13T21:38:19Z</time>
   </trkpt>
   <trkpt lat="10.3112360" lon="123.8686810">
    <ele>59.4</ele>
    <time>2025-12-13T21:38:38Z</time>
   </trkpt>
   <trkpt lat="10.3115310" lon="123.8687040">
    <ele>63.1</ele>
    <time>2025-12-13T21:39:07Z</time>
   </trkpt>
   <trkpt lat="10.3117230" lon="123.8686100">
    <ele>65.9</ele>
    <time>2025-12-13T21:39:28Z</time>
   </trkpt>
   <trkpt lat="10.3117700" lon="123.8686070">
    <ele>66.5</ele>
    <time>2025-12-13T21:39:32Z</time>
   </trkpt>
   <trkpt lat="10.3119500" lon="123.8685460">
    <ele>69.1</ele>
    <time>2025-12-13T21:39:53Z</time>
   </trkpt>
   <trkpt lat="10.3120060" lon="123.8684950">
    <ele>70.2</ele>
    <time>2025-12-13T21:40:00Z</time>
   </trkpt>
   <trkpt lat="10.3120690" lon="123.8684870">
    <ele>71.2</ele>
    <time>2025-12-13T21:40:06Z</time>
   </trkpt>
   <trkpt lat="10.3121450" lon="123.8684220">
    <ele>72.9</ele>
    <time>2025-12-13T21:40:17Z</time>
   </trkpt>
   <trkpt lat="10.3121940" lon="123.8683410">
    <ele>74.7</ele>
    <time>2025-12-13T21:40:26Z</time>
   </trkpt>
   <trkpt lat="10.3122550" lon="123.8683050">
    <ele>76.0</ele>
    <time>2025-12-13T21:40:34Z</time>
   </trkpt>
   <trkpt lat="10.3124430" lon="123.8683040">
    <ele>79.3</ele>
    <time>2025-12-13T21:40:55Z</time>
   </trkpt>
   <trkpt lat="10.3124950" lon="123.8683160">
    <ele>80.2</ele>
    <time>2025-12-13T21:41:01Z</time>
   </trkpt>
   <trkpt lat="10.3125480" lon="123.8682710">
    <ele>81.5</ele>
    <time>2025-12-13T21:41:08Z</time>
   </trkpt>
   <trkpt lat="10.3126500" lon="123.8682460">
    <ele>83.3</ele>
    <time>2025-12-13T21:41:19Z</time>
   </trkpt>
   <trkpt lat="10.3127730" lon="123.8681620">
    <ele>86.1</ele>
    <time>2025-12-13T21:41:38Z</time>
   </trkpt>
   <trkpt lat="10.3128130" lon="123.8681170">
    <ele>87.2</ele>
    <time>2025-12-13T21:41:46Z</time>
   </trkpt>
   <trkpt lat="10.3128570" lon="123.8681040">
    <ele>88.0</ele>
    <time>2025-12-13T21:41:52Z</time>
   </trkpt>
   <trkpt lat="10.3129370" lon="123.8680040">
    <ele>90.5</ele>
    <time>2025-12-13T21:42:06Z</time>
   </trkpt>
   <trkpt lat="10.3129640" lon="123.8679410">
    <ele>91.8</ele>
    <time>2025-12-13T21:42:12Z</time>
   </trkpt>
   <trkpt lat="10.3130710" lon="123.8678750">
    <ele>94.1</ele>
    <time>2025-12-13T21:42:28Z</time>
   </trkpt>
   <trkpt lat="10.3131620" lon="123.8677560">
    <ele>96.9</ele>
    <time>2025-12-13T21:42:45Z</time>
   </trkpt>
   <trkpt lat="10.3133750" lon="123.8675800">
    <ele>101.7</ele>
    <time>2025-12-13T21:43:17Z</time>
   </trkpt>
   <trkpt lat="10.3134610" lon="123.8675360">
    <ele>103.2</ele>
    <time>2025-12-13T21:43:27Z</time>
   </trkpt>
   <trkpt lat="10.3134800" lon="123.8675040">
    <ele>103.7</ele>
    <time>2025-12-13T21:43:31Z</time>
   </trkpt>
   <trkpt lat="10.3134770" lon="123.8674470">
    <ele>104.4</ele>
    <time>2025-12-13T21:43:41Z</time>
   </trkpt>
   <trkpt lat="10.3134970" lon="123.8674620">
    <ele>104.7</ele>
    <time>2025-12-13T21:43:48Z</time>
   </trkpt>
   <trkpt lat="10.3135150" lon="123.8674250">
    <ele>105.1</ele>
    <time>2025-12-13T21:44:13Z</time>
   </trkpt>
   <trkpt lat="10.3135640" lon="123.8674160">
    <ele>105.7</ele>
    <time>2025-12-13T21:44:20Z</time>
   </trkpt>
   <trkpt lat="10.3135850" lon="123.8673920">
    <ele>106.0</ele>
    <time>2025-12-13T21:44:26Z</time>
   </trkpt>
   <trkpt lat="10.3138880" lon="123.8672220">
    <ele>108.9</ele>
    <time>2025-12-13T21:45:08Z</time>
   </trkpt>
   <trkpt lat="10.3139920" lon="123.8671390">
    <ele>109.4</ele>
    <time>2025-12-13T21:45:49Z</time>
   </trkpt>
   <trkpt lat="10.3140350" lon="123.8670750">
    <ele>109.7</ele>
    <time>2025-12-13T21:45:54Z</time>
   </trkpt>
   <trkpt lat="10.3142830" lon="123.8669330">
    <ele>109.9</ele>
    <time>2025-12-13T21:46:16Z</time>
   </trkpt>
   <trkpt lat="10.3143790" lon="123.8668580">
    <ele>109.8</ele>
    <time>2025-12-13T21:46:25Z</time>
   </trkpt>
   <trkpt lat="10.3144440" lon="123.8668310">
    <ele>109.7</ele>
    <time>2025-12-13T21:46:31Z</time>
   </trkpt>
   <trkpt lat="10.3145690" lon="123.8667190">
    <ele>109.6</ele>
    <time>2025-12-13T21:46:43Z</time>
   </trkpt>
   <trkpt lat="10.3146170" lon="123.8666530">
    <ele>109.5</ele>
    <time>2025-12-13T21:46:49Z</time>
   </trkpt>
   <trkpt lat="10.3146250" lon="123.8666110">
    <ele>108.9</ele>
    <time>2025-12-13T21:46:53Z</time>
   </trkpt>
   <trkpt lat="10.3145800" lon="123.8664960">
    <ele>107.4</ele>
    <time>2025-12-13T21:47:04Z</time>
   </trkpt>
   <trkpt lat="10.3145520" lon="123.8663510">
    <ele>108.2</ele>
    <time>2025-12-13T21:47:17Z</time>
   </trkpt>
   <trkpt lat="10.3145040" lon="123.8662870">
    <ele>109.2</ele>
    <time>2025-12-13T21:47:25Z</time>
   </trkpt>
   <trkpt lat="10.3144560" lon="123.8661630">
    <ele>109.7</ele>
    <time>2025-12-13T21:47:37Z</time>
   </trkpt>
   <trkpt lat="10.3143910" lon="123.8661040">
    <ele>109.9</ele>
    <time>2025-12-13T21:47:45Z</time>
   </trkpt>
   <trkpt lat="10.3143770" lon="123.8660490">
    <ele>110.0</ele>
    <time>2025-12-13T21:47:50Z</time>
   </trkpt>
   <trkpt lat="10.3143850" lon="123.8659900">
    <ele>110.1</ele>
    <time>2025-12-13T21:47:56Z</time>
   </trkpt>
   <trkpt lat="10.3144260" lon="123.8658990">
    <ele>110.1</ele>
    <time>2025-12-13T21:48:05Z</time>
   </trkpt>
   <trkpt lat="10.3144140" lon="123.8657830">
    <ele>109.5</ele>
    <time>2025-12-13T21:48:16Z</time>
   </trkpt>
   <trkpt lat="10.3144540" lon="123.8657010">
    <ele>108.5</ele>
    <time>2025-12-13T21:48:26Z</time>
   </trkpt>
   <trkpt lat="10.3143820" lon="123.8655850">
    <ele>106.7</ele>
    <time>2025-12-13T21:48:41Z</time>
   </trkpt>
   <trkpt lat="10.3142770" lon="123.8655400">
    <ele>105.4</ele>
    <time>2025-12-13T21:48:53Z</time>
   </trkpt>
   <trkpt lat="10.3142310" lon="123.8654690">
    <ele>104.5</ele>
    <time>2025-12-13T21:49:00Z</time>
   </trkpt>
   <trkpt lat="10.3141710" lon="123.8654150">
    <ele>103.4</ele>
    <time>2025-12-13T21:49:07Z</time>
   </trkpt>
   <trkpt lat="10.3141040" lon="123.8654070">
    <ele>102.1</ele>
    <time>2025-12-13T21:49:15Z</time>
   </trkpt>
   <trkpt lat="10.3140920" lon="123.8653850">
    <ele>101.5</ele>
    <time>2025-12-13T21:49:18Z</time>
   </trkpt>
   <trkpt lat="10.3140380" lon="123.8653540">
    <ele>99.9</ele>
    <time>2025-12-13T21:49:26Z</time>
   </trkpt>
   <trkpt lat="10.3140340" lon="123.8653050">
    <ele>98.6</ele>
    <time>2025-12-13T21:49:33Z</time>
   </trkpt>
   <trkpt lat="10.3140780" lon="123.8652170">
    <ele>96.3</ele>
    <time>2025-12-13T21:49:44Z</time>
   </trkpt>
   <trkpt lat="10.3140790" lon="123.8651580">
    <ele>95.3</ele>
    <time>2025-12-13T21:49:53Z</time>
   </trkpt>
   <trkpt lat="10.3139400" lon="123.8650910">
    <ele>93.8</ele>
    <time>2025-12-13T21:50:10Z</time>
   </trkpt>
   <trkpt lat="10.3138610" lon="123.8649410">
    <ele>92.5</ele>
    <time>2025-12-13T21:50:28Z</time>
   </trkpt>
   <trkpt lat="10.3138420" lon="123.8648070">
    <ele>91.8</ele>
    <time>2025-12-13T21:50:45Z</time>
   </trkpt>
   <trkpt lat="10.3138600" lon="123.8647040">
    <ele>92.6</ele>
    <time>2025-12-13T21:50:57Z</time>
   </trkpt>
   <trkpt lat="10.3138880" lon="123.8646460">
    <ele>94.1</ele>
    <time>2025-12-13T21:51:10Z</time>
   </trkpt>
   <trkpt lat="10.3138630" lon="123.8646580">
    <ele>94.9</ele>
    <time>2025-12-13T21:51:35Z</time>
   </trkpt>
   <trkpt lat="10.3138530" lon="123.8646270">
    <ele>95.9</ele>
    <time>2025-12-13T21:51:43Z</time>
   </trkpt>
   <trkpt lat="10.3138730" lon="123.8645840">
    <ele>97.3</ele>
    <time>2025-12-13T21:51:49Z</time>
   </trkpt>
   <trkpt lat="10.3138820" lon="123.8644740">
    <ele>100.5</ele>
    <time>2025-12-13T21:52:03Z</time>
   </trkpt>
   <trkpt lat="10.3139030" lon="123.8644470">
    <ele>101.5</ele>
    <time>2025-12-13T21:52:08Z</time>
   </trkpt>
   <trkpt lat="10.3138910" lon="123.8644140">
    <ele>102.5</ele>
    <time>2025-12-13T21:52:12Z</time>
   </trkpt>
   <trkpt lat="10.3139590" lon="123.8642650">
    <ele>107.2</ele>
    <time>2025-12-13T21:52:36Z</time>
   </trkpt>
   <trkpt lat="10.3139430" lon="123.8642390">
    <ele>108.1</ele>
    <time>2025-12-13T21:52:40Z</time>
   </trkpt>
   <trkpt lat="10.3138890" lon="123.8642630">
    <ele>109.7</ele>
    <time>2025-12-13T21:52:48Z</time>
   </trkpt>
   <trkpt lat="10.3138140" lon="123.8642670">
    <ele>111.9</ele>
    <time>2025-12-13T21:52:57Z</time>
   </trkpt>
   <trkpt lat="10.3138170" lon="123.8642870">
    <ele>112.8</ele>
    <time>2025-12-13T21:53:23Z</time>
   </trkpt>
   <trkpt lat="10.3137110" lon="123.8642890">
    <ele>116.1</ele>
    <time>2025-12-13T21:53:39Z</time>
   </trkpt>
   <trkpt lat="10.3136990" lon="123.8642590">
    <ele>117.1</ele>
    <time>2025-12-13T21:53:44Z</time>
   </trkpt>
   <trkpt lat="10.3137760" lon="123.8641200">
    <ele>121.5</ele>
    <time>2025-12-13T21:54:01Z</time>
   </trkpt>
   <trkpt lat="10.3137590" lon="123.8640760">
    <ele>122.9</ele>
    <time>2025-12-13T21:54:06Z</time>
   </trkpt>
   <trkpt lat="10.3137290" lon="123.8640750">
    <ele>123.9</ele>
    <time>2025-12-13T21:54:11Z</time>
   </trkpt>
   <trkpt lat="10.3136870" lon="123.8640390">
    <ele>125.6</ele>
    <time>2025-12-13T21:54:20Z</time>
   </trkpt>
   <trkpt lat="10.3136500" lon="123.8639730">
    <ele>127.9</ele>
    <time>2025-12-13T21:54:35Z</time>
   </trkpt>
   <trkpt lat="10.3136520" lon="123.8639500">
    <ele>128.4</ele>
    <time>2025-12-13T21:55:40Z</time>
   </trkpt>
   <trkpt lat="10.3137430" lon="123.8638290">
    <ele>131.3</ele>
    <time>2025-12-13T21:56:02Z</time>
   </trkpt>
   <trkpt lat="10.3137830" lon="123.8636890">
    <ele>133.1</ele>
    <time>2025-12-13T21:56:17Z</time>
   </trkpt>
   <trkpt lat="10.3138290" lon="123.8636110">
    <ele>134.4</ele>
    <time>2025-12-13T21:56:28Z</time>
   </trkpt>
   <trkpt lat="10.3138350" lon="123.8635560">
    <ele>135.3</ele>
    <time>2025-12-13T21:56:34Z</time>
   </trkpt>
   <trkpt lat="10.3138540" lon="123.8635290">
    <ele>135.9</ele>
    <time>2025-12-13T21:56:38Z</time>
   </trkpt>
   <trkpt lat="10.3139150" lon="123.8634920">
    <ele>137.5</ele>
    <time>2025-12-13T21:56:46Z</time>
   </trkpt>
   <trkpt lat="10.3140040" lon="123.8633670">
    <ele>141.4</ele>
    <time>2025-12-13T21:57:05Z</time>
   </trkpt>
   <trkpt lat="10.3140070" lon="123.8633350">
    <ele>142.2</ele>
    <time>2025-12-13T21:57:09Z</time>
   </trkpt>
   <trkpt lat="10.3140490" lon="123.8633100">
    <ele>143.4</ele>
    <time>2025-12-13T21:57:16Z</time>
   </trkpt>
   <trkpt lat="10.3141020" lon="123.8632480">
    <ele>145.4</ele>
    <time>2025-12-13T21:57:26Z</time>
   </trkpt>
   <trkpt lat="10.3140900" lon="123.8631810">
    <ele>147.3</ele>
    <time>2025-12-13T21:57:37Z</time>
   </trkpt>
   <trkpt lat="10.3141820" lon="123.8630580">
    <ele>152.0</ele>
    <time>2025-12-13T21:59:10Z</time>
   </trkpt>
   <trkpt lat="10.3142370" lon="123.8629150">
    <ele>155.8</ele>
    <time>2025-12-13T21:59:25Z</time>
   </trkpt>
   <trkpt lat="10.3142380" lon="123.8628130">
    <ele>157.8</ele>
    <time>2025-12-13T21:59:36Z</time>
   </trkpt>
   <trkpt lat="10.3141960" lon="123.8625730">
    <ele>161.6</ele>
    <time>2025-12-13T22:00:01Z</time>
   </trkpt>
   <trkpt lat="10.3141200" lon="123.8624510">
    <ele>163.2</ele>
    <time>2025-12-13T22:00:14Z</time>
   </trkpt>
   <trkpt lat="10.3141300" lon="123.8622610">
    <ele>166.8</ele>
    <time>2025-12-13T22:00:33Z</time>
   </trkpt>
   <trkpt lat="10.3141180" lon="123.8621710">
    <ele>169.3</ele>
    <time>2025-12-13T22:00:44Z</time>
   </trkpt>
   <trkpt lat="10.3141370" lon="123.8621450">
    <ele>170.2</ele>
    <time>2025-12-13T22:00:51Z</time>
   </trkpt>
   <trkpt lat="10.3141800" lon="123.8621510">
    <ele>171.4</ele>
    <time>2025-12-13T22:00:58Z</time>
   </trkpt>
   <trkpt lat="10.3141470" lon="123.8621430">
    <ele>172.5</ele>
    <time>2025-12-13T22:07:21Z</time>
   </trkpt>
   <trkpt lat="10.3141380" lon="123.8621150">
    <ele>173.2</ele>
    <time>2025-12-13T22:07:25Z</time>
   </trkpt>
   <trkpt lat="10.3141890" lon="123.8620920">
    <ele>174.0</ele>
    <time>2025-12-13T22:07:30Z</time>
   </trkpt>
   <trkpt lat="10.3143580" lon="123.8620640">
    <ele>176.8</ele>
    <time>2025-12-13T22:07:48Z</time>
   </trkpt>
   <trkpt lat="10.3144350" lon="123.8620670">
    <ele>178.2</ele>
    <time>2025-12-13T22:07:56Z</time>
   </trkpt>
   <trkpt lat="10.3146240" lon="123.8620040">
    <ele>182.1</ele>
    <time>2025-12-13T22:08:18Z</time>
   </trkpt>
   <trkpt lat="10.3147000" lon="123.8619970">
    <ele>184.0</ele>
    <time>2025-12-13T22:08:30Z</time>
   </trkpt>
   <trkpt lat="10.3147790" lon="123.8620280">
    <ele>186.0</ele>
    <time>2025-12-13T22:08:39Z</time>
   </trkpt>
   <trkpt lat="10.3148490" lon="123.8620100">
    <ele>187.8</ele>
    <time>2025-12-13T22:08:48Z</time>
   </trkpt>
   <trkpt lat="10.3149420" lon="123.8620100">
    <ele>189.9</ele>
    <time>2025-12-13T22:09:25Z</time>
   </trkpt>
   <trkpt lat="10.3150240" lon="123.8619560">
    <ele>191.8</ele>
    <time>2025-12-13T22:09:55Z</time>
   </trkpt>
   <trkpt lat="10.3150600" lon="123.8619040">
    <ele>192.8</ele>
    <time>2025-12-13T22:10:02Z</time>
   </trkpt>
   <trkpt lat="10.3151480" lon="123.8618390">
    <ele>194.5</ele>
    <time>2025-12-13T22:10:12Z</time>
   </trkpt>
   <trkpt lat="10.3152230" lon="123.8618520">
    <ele>196.0</ele>
    <time>2025-12-13T22:10:20Z</time>
   </trkpt>
   <trkpt lat="10.3152880" lon="123.8618040">
    <ele>197.8</ele>
    <time>2025-12-13T22:10:32Z</time>
   </trkpt>
   <trkpt lat="10.3153440" lon="123.8618170">
    <ele>198.9</ele>
    <time>2025-12-13T22:10:40Z</time>
   </trkpt>
   <trkpt lat="10.3155010" lon="123.8617420">
    <ele>201.5</ele>
    <time>2025-12-13T22:11:00Z</time>
   </trkpt>
   <trkpt lat="10.3155750" lon="123.8617480">
    <ele>202.6</ele>
    <time>2025-12-13T22:11:10Z</time>
   </trkpt>
   <trkpt lat="10.3155700" lon="123.8617400">
    <ele>202.9</ele>
    <time>2025-12-13T22:11:16Z</time>
   </trkpt>
   <trkpt lat="10.3156000" lon="123.8617260">
    <ele>203.5</ele>
    <time>2025-12-13T22:11:46Z</time>
   </trkpt>
   <trkpt lat="10.3156630" lon="123.8617170">
    <ele>204.8</ele>
    <time>2025-12-13T22:12:00Z</time>
   </trkpt>
   <trkpt lat="10.3157030" lon="123.8616740">
    <ele>205.9</ele>
    <time>2025-12-13T22:12:07Z</time>
   </trkpt>
   <trkpt lat="10.3157540" lon="123.8616610">
    <ele>207.0</ele>
    <time>2025-12-13T22:12:14Z</time>
   </trkpt>
   <trkpt lat="10.3158120" lon="123.8616220">
    <ele>208.5</ele>
    <time>2025-12-13T22:12:23Z</time>
   </trkpt>
   <trkpt lat="10.3158960" lon="123.8615150">
    <ele>211.7</ele>
    <time>2025-12-13T22:12:40Z</time>
   </trkpt>
   <trkpt lat="10.3159060" lon="123.8615260">
    <ele>212.2</ele>
    <time>2025-12-13T22:12:45Z</time>
   </trkpt>
   <trkpt lat="10.3159360" lon="123.8615130">
    <ele>213.2</ele>
    <time>2025-12-13T22:12:50Z</time>
   </trkpt>
   <trkpt lat="10.3159920" lon="123.8615260">
    <ele>214.9</ele>
    <time>2025-12-13T22:12:58Z</time>
   </trkpt>
   <trkpt lat="10.3160710" lon="123.8614670">
    <ele>218.3</ele>
    <time>2025-12-13T22:14:27Z</time>
   </trkpt>
   <trkpt lat="10.3161210" lon="123.8614520">
    <ele>220.0</ele>
    <time>2025-12-13T22:14:33Z</time>
   </trkpt>
   <trkpt lat="10.3161910" lon="123.8614050">
    <ele>222.7</ele>
    <time>2025-12-13T22:14:42Z</time>
   </trkpt>
   <trkpt lat="10.3162490" lon="123.8613910">
    <ele>224.8</ele>
    <time>2025-12-13T22:14:51Z</time>
   </trkpt>
   <trkpt lat="10.3162910" lon="123.8613230">
    <ele>227.5</ele>
    <time>2025-12-13T22:15:00Z</time>
   </trkpt>
   <trkpt lat="10.3163430" lon="123.8612860">
    <ele>229.7</ele>
    <time>2025-12-13T22:15:08Z</time>
   </trkpt>
   <trkpt lat="10.3164460" lon="123.8612450">
    <ele>233.6</ele>
    <time>2025-12-13T22:16:01Z</time>
   </trkpt>
   <trkpt lat="10.3164480" lon="123.8612750">
    <ele>235.0</ele>
    <time>2025-12-13T22:16:17Z</time>
   </trkpt>
   <trkpt lat="10.3164400" lon="123.8612200">
    <ele>237.1</ele>
    <time>2025-12-13T22:17:16Z</time>
   </trkpt>
   <trkpt lat="10.3164850" lon="123.8611800">
    <ele>239.2</ele>
    <time>2025-12-13T22:17:30Z</time>
   </trkpt>
   <trkpt lat="10.3167080" lon="123.8610730">
    <ele>249.1</ele>
    <time>2025-12-13T22:18:14Z</time>
   </trkpt>
   <trkpt lat="10.3167770" lon="123.8610730">
    <ele>251.7</ele>
    <time>2025-12-13T22:18:24Z</time>
   </trkpt>
   <trkpt lat="10.3167570" lon="123.8610780">
    <ele>252.8</ele>
    <time>2025-12-13T22:18:40Z</time>
   </trkpt>
   <trkpt lat="10.3168300" lon="123.8610950">
    <ele>255.1</ele>
    <time>2025-12-13T22:19:31Z</time>
   </trkpt>
   <trkpt lat="10.3168420" lon="123.8610770">
    <ele>255.8</ele>
    <time>2025-12-13T22:19:51Z</time>
   </trkpt>
   <trkpt lat="10.3169500" lon="123.8611720">
    <ele>259.6</ele>
    <time>2025-12-13T22:20:15Z</time>
   </trkpt>
   <trkpt lat="10.3170330" lon="123.8611900">
    <ele>261.6</ele>
    <time>2025-12-13T22:20:25Z</time>
   </trkpt>
   <trkpt lat="10.3170830" lon="123.8612270">
    <ele>263.1</ele>
    <time>2025-12-13T22:20:32Z</time>
   </trkpt>
   <trkpt lat="10.3172130" lon="123.8612330">
    <ele>266.0</ele>
    <time>2025-12-13T22:20:52Z</time>
   </trkpt>
   <trkpt lat="10.3172980" lon="123.8612520">
    <ele>268.4</ele>
    <time>2025-12-13T22:21:03Z</time>
   </trkpt>
   <trkpt lat="10.3173720" lon="123.8612950">
    <ele>270.8</ele>
    <time>2025-12-13T22:21:12Z</time>
   </trkpt>
   <trkpt lat="10.3173920" lon="123.8612780">
    <ele>271.6</ele>
    <time>2025-12-13T22:21:15Z</time>
   </trkpt>
   <trkpt lat="10.3174100" lon="123.8612850">
    <ele>272.2</ele>
    <time>2025-12-13T22:21:20Z</time>
   </trkpt>
   <trkpt lat="10.3174930" lon="123.8611430">
    <ele>277.9</ele>
    <time>2025-12-13T22:24:43Z</time>
   </trkpt>
   <trkpt lat="10.3175300" lon="123.8610320">
    <ele>281.8</ele>
    <time>2025-12-13T22:25:02Z</time>
   </trkpt>
   <trkpt lat="10.3176120" lon="123.8609320">
    <ele>286.4</ele>
    <time>2025-12-13T22:26:34Z</time>
   </trkpt>
   <trkpt lat="10.3176230" lon="123.8607620">
    <ele>291.4</ele>
    <time>2025-12-13T22:26:54Z</time>
   </trkpt>
   <trkpt lat="10.3176520" lon="123.8606970">
    <ele>293.4</ele>
    <time>2025-12-13T22:27:02Z</time>
   </trkpt>
   <trkpt lat="10.3177950" lon="123.8605520">
    <ele>298.7</ele>
    <time>2025-12-13T22:27:23Z</time>
   </trkpt>
   <trkpt lat="10.3178330" lon="123.8604850">
    <ele>300.6</ele>
    <time>2025-12-13T22:27:33Z</time>
   </trkpt>
   <trkpt lat="10.3179120" lon="123.8604200">
    <ele>302.8</ele>
    <time>2025-12-13T22:27:46Z</time>
   </trkpt>
   <trkpt lat="10.3180170" lon="123.8602580">
    <ele>306.0</ele>
    <time>2025-12-13T22:28:08Z</time>
   </trkpt>
   <trkpt lat="10.3180800" lon="123.8602030">
    <ele>307.0</ele>
    <time>2025-12-13T22:28:25Z</time>
   </trkpt>
   <trkpt lat="10.3180270" lon="123.8602670">
    <ele>307.7</ele>
    <time>2025-12-13T22:28:38Z</time>
   </trkpt>
   <trkpt lat="10.3180430" lon="123.8602930">
    <ele>308.0</ele>
    <time>2025-12-13T22:28:47Z</time>
   </trkpt>
   <trkpt lat="10.3180820" lon="123.8601530">
    <ele>308.4</ele>
    <time>2025-12-13T23:47:58Z</time>
   </trkpt>
   <trkpt lat="10.3181000" lon="123.8601450">
    <ele>308.5</ele>
    <time>2025-12-13T23:47:59Z</time>
   </trkpt>
   <trkpt lat="10.3181050" lon="123.8601700">
    <ele>308.5</ele>
    <time>2025-12-13T23:48:04Z</time>
   </trkpt>
   <trkpt lat="10.3181780" lon="123.8600800">
    <ele>308.5</ele>
    <time>2025-12-13T23:48:18Z</time>
   </trkpt>
   <trkpt lat="10.3182430" lon="123.8600420">
    <ele>308.6</ele>
    <time>2025-12-13T23:48:26Z</time>
   </trkpt>
   <trkpt lat="10.3182570" lon="123.8600180">
    <ele>308.6</ele>
    <time>2025-12-13T23:48:29Z</time>
   </trkpt>
   <trkpt lat="10.3183220" lon="123.8599930">
    <ele>308.7</ele>
    <time>2025-12-13T23:48:42Z</time>
   </trkpt>
   <trkpt lat="10.3182930" lon="123.8599950">
    <ele>308.7</ele>
    <time>2025-12-13T23:49:06Z</time>
   </trkpt>
   <trkpt lat="10.3183130" lon="123.8599630">
    <ele>308.8</ele>
    <time>2025-12-13T23:50:50Z</time>
   </trkpt>
   <trkpt lat="10.3183530" lon="123.8599420">
    <ele>308.8</ele>
    <time>2025-12-13T23:50:59Z</time>
   </trkpt>
   <trkpt lat="10.3184280" lon="123.8598320">
    <ele>309.3</ele>
    <time>2025-12-13T23:51:24Z</time>
   </trkpt>
   <trkpt lat="10.3185020" lon="123.8597980">
    <ele>310.1</ele>
    <time>2025-12-13T23:51:40Z</time>
   </trkpt>
   <trkpt lat="10.3185400" lon="123.8597430">
    <ele>310.8</ele>
    <time>2025-12-13T23:51:48Z</time>
   </trkpt>
   <trkpt lat="10.3186300" lon="123.8596890">
    <ele>312.1</ele>
    <time>2025-12-13T23:52:02Z</time>
   </trkpt>
   <trkpt lat="10.3187500" lon="123.8595400">
    <ele>315.6</ele>
    <time>2025-12-13T23:52:20Z</time>
   </trkpt>
   <trkpt lat="10.3188320" lon="123.8594720">
    <ele>316.9</ele>
    <time>2025-12-13T23:52:29Z</time>
   </trkpt>
   <trkpt lat="10.3189230" lon="123.8594580">
    <ele>317.6</ele>
    <time>2025-12-13T23:52:41Z</time>
   </trkpt>
   <trkpt lat="10.3189680" lon="123.8594280">
    <ele>318.0</ele>
    <time>2025-12-13T23:52:48Z</time>
   </trkpt>
   <trkpt lat="10.3190500" lon="123.8594200">
    <ele>318.8</ele>
    <time>2025-12-13T23:52:55Z</time>
   </trkpt>
   <trkpt lat="10.3191700" lon="123.8593700">
    <ele>319.7</ele>
    <time>2025-12-13T23:53:10Z</time>
   </trkpt>
   <trkpt lat="10.3192400" lon="123.8593610">
    <ele>319.9</ele>
    <time>2025-12-13T23:53:20Z</time>
   </trkpt>
   <trkpt lat="10.3195350" lon="123.8592420">
    <ele>320.5</ele>
    <time>2025-12-13T23:53:40Z</time>
   </trkpt>
   <trkpt lat="10.3195450" lon="123.8592270">
    <ele>320.7</ele>
    <time>2025-12-13T23:53:45Z</time>
   </trkpt>
   <trkpt lat="10.3195880" lon="123.8592630">
    <ele>317.2</ele>
    <time>2025-12-13T23:54:02Z</time>
   </trkpt>
   <trkpt lat="10.3197130" lon="123.8592810">
    <ele>313.8</ele>
    <time>2025-12-13T23:54:37Z</time>
   </trkpt>
   <trkpt lat="10.3198000" lon="123.8593410">
    <ele>312.1</ele>
    <time>2025-12-13T23:54:53Z</time>
   </trkpt>
   <trkpt lat="10.3199440" lon="123.8594640">
    <ele>310.4</ele>
    <time>2025-12-13T23:55:08Z</time>
   </trkpt>
   <trkpt lat="10.3199950" lon="123.8595720">
    <ele>306.1</ele>
    <time>2025-12-13T23:55:17Z</time>
   </trkpt>
   <trkpt lat="10.3200180" lon="123.8595900">
    <ele>305.8</ele>
    <time>2025-12-13T23:55:21Z</time>
   </trkpt>
   <trkpt lat="10.3200170" lon="123.8595070">
    <ele>308.0</ele>
    <time>2025-12-13T23:55:49Z</time>
   </trkpt>
   <trkpt lat="10.3200520" lon="123.8594340">
    <ele>309.7</ele>
    <time>2025-12-13T23:55:59Z</time>
   </trkpt>
   <trkpt lat="10.3200550" lon="123.8593820">
    <ele>310.9</ele>
    <time>2025-12-13T23:56:07Z</time>
   </trkpt>
   <trkpt lat="10.3201080" lon="123.8593020">
    <ele>313.1</ele>
    <time>2025-12-13T23:56:17Z</time>
   </trkpt>
   <trkpt lat="10.3200860" lon="123.8592200">
    <ele>315.2</ele>
    <time>2025-12-13T23:56:30Z</time>
   </trkpt>
   <trkpt lat="10.3200950" lon="123.8591150">
    <ele>317.7</ele>
    <time>2025-12-13T23:56:43Z</time>
   </trkpt>
   <trkpt lat="10.3199700" lon="123.8589860">
    <ele>320.8</ele>
    <time>2025-12-13T23:57:01Z</time>
   </trkpt>
   <trkpt lat="10.3198590" lon="123.8589320">
    <ele>322.2</ele>
    <time>2025-12-13T23:57:33Z</time>
   </trkpt>
   <trkpt lat="10.3197870" lon="123.8588660">
    <ele>322.7</ele>
    <time>2025-12-13T23:57:38Z</time>
   </trkpt>
   <trkpt lat="10.3197080" lon="123.8588280">
    <ele>322.8</ele>
    <time>2025-12-13T23:57:47Z</time>
   </trkpt>
   <trkpt lat="10.3196550" lon="123.8587630">
    <ele>322.6</ele>
    <time>2025-12-13T23:57:54Z</time>
   </trkpt>
   <trkpt lat="10.3194480" lon="123.8586450">
    <ele>320.6</ele>
    <time>2025-12-13T23:58:23Z</time>
   </trkpt>
   <trkpt lat="10.3192900" lon="123.8584940">
    <ele>318.1</ele>
    <time>2025-12-13T23:58:45Z</time>
   </trkpt>
   <trkpt lat="10.3192770" lon="123.8585110">
    <ele>317.8</ele>
    <time>2025-12-13T23:58:51Z</time>
   </trkpt>
   <trkpt lat="10.3192750" lon="123.8584970">
    <ele>317.6</ele>
    <time>2025-12-13T23:58:55Z</time>
   </trkpt>
   <trkpt lat="10.3191940" lon="123.8584550">
    <ele>316.5</ele>
    <time>2025-12-13T23:59:05Z</time>
   </trkpt>
   <trkpt lat="10.3191780" lon="123.8584370">
    <ele>316.2</ele>
    <time>2025-12-13T23:59:07Z</time>
   </trkpt>
   <trkpt lat="10.3191610" lon="123.8583530">
    <ele>314.8</ele>
    <time>2025-12-13T23:59:24Z</time>
   </trkpt>
   <trkpt lat="10.3190800" lon="123.8582470">
    <ele>311.8</ele>
    <time>2025-12-13T23:59:42Z</time>
   </trkpt>
   <trkpt lat="10.3189790" lon="123.8582020">
    <ele>309.1</ele>
    <time>2025-12-13T23:59:56Z</time>
   </trkpt>
   <trkpt lat="10.3188950" lon="123.8581050">
    <ele>306.3</ele>
    <time>2025-12-14T00:00:14Z</time>
   </trkpt>
   <trkpt lat="10.3188360" lon="123.8580960">
    <ele>305.2</ele>
    <time>2025-12-14T00:00:23Z</time>
   </trkpt>
   <trkpt lat="10.3188100" lon="123.8580620">
    <ele>305.1</ele>
    <time>2025-12-14T00:00:28Z</time>
   </trkpt>
   <trkpt lat="10.3188060" lon="123.8580180">
    <ele>305.1</ele>
    <time>2025-12-14T00:00:33Z</time>
   </trkpt>
   <trkpt lat="10.3188460" lon="123.8579550">
    <ele>305.2</ele>
    <time>2025-12-14T00:00:42Z</time>
   </trkpt>
   <trkpt lat="10.3188580" lon="123.8579650">
    <ele>305.2</ele>
    <time>2025-12-14T00:00:46Z</time>
   </trkpt>
   <trkpt lat="10.3188300" lon="123.8580350">
    <ele>305.3</ele>
    <time>2025-12-14T00:01:07Z</time>
   </trkpt>
   <trkpt lat="10.3188420" lon="123.8580200">
    <ele>305.4</ele>
    <time>2025-12-14T00:01:11Z</time>
   </trkpt>
   <trkpt lat="10.3188310" lon="123.8580120">
    <ele>305.4</ele>
    <time>2025-12-14T00:01:21Z</time>
   </trkpt>
   <trkpt lat="10.3189140" lon="123.8579500">
    <ele>305.5</ele>
    <time>2025-12-14T00:01:33Z</time>
   </trkpt>
   <trkpt lat="10.3189900" lon="123.8579560">
    <ele>305.6</ele>
    <time>2025-12-14T00:01:44Z</time>
   </trkpt>
   <trkpt lat="10.3190280" lon="123.8579430">
    <ele>305.6</ele>
    <time>2025-12-14T00:01:57Z</time>
   </trkpt>
   <trkpt lat="10.3190520" lon="123.8579550">
    <ele>305.6</ele>
    <time>2025-12-14T00:02:01Z</time>
   </trkpt>
   <trkpt lat="10.3190530" lon="123.8579400">
    <ele>305.6</ele>
    <time>2025-12-14T00:02:06Z</time>
   </trkpt>
   <trkpt lat="10.3190750" lon="123.8579330">
    <ele>305.6</ele>
    <time>2025-12-14T00:02:13Z</time>
   </trkpt>
   <trkpt lat="10.3191750" lon="123.8579510">
    <ele>303.8</ele>
    <time>2025-12-14T00:02:40Z</time>
   </trkpt>
   <trkpt lat="10.3192410" lon="123.8579410">
    <ele>302.4</ele>
    <time>2025-12-14T00:02:50Z</time>
   </trkpt>
   <trkpt lat="10.3192830" lon="123.8579720">
    <ele>301.2</ele>
    <time>2025-12-14T00:02:56Z</time>
   </trkpt>
   <trkpt lat="10.3193040" lon="123.8579670">
    <ele>300.7</ele>
    <time>2025-12-14T00:02:59Z</time>
   </trkpt>
   <trkpt lat="10.3193320" lon="123.8579830">
    <ele>299.8</ele>
    <time>2025-12-14T00:03:02Z</time>
   </trkpt>
   <trkpt lat="10.3193100" lon="123.8579090">
    <ele>297.7</ele>
    <time>2025-12-14T00:03:22Z</time>
   </trkpt>
   <trkpt lat="10.3193670" lon="123.8578310">
    <ele>294.9</ele>
    <time>2025-12-14T00:03:33Z</time>
   </trkpt>
   <trkpt lat="10.3194100" lon="123.8578010">
    <ele>293.4</ele>
    <time>2025-12-14T00:03:40Z</time>
   </trkpt>
   <trkpt lat="10.3194020" lon="123.8577750">
    <ele>292.6</ele>
    <time>2025-12-14T00:03:45Z</time>
   </trkpt>
   <trkpt lat="10.3194180" lon="123.8577220">
    <ele>291.0</ele>
    <time>2025-12-14T00:03:55Z</time>
   </trkpt>
   <trkpt lat="10.3194020" lon="123.8576560">
    <ele>289.2</ele>
    <time>2025-12-14T00:04:04Z</time>
   </trkpt>
   <trkpt lat="10.3194280" lon="123.8576310">
    <ele>288.1</ele>
    <time>2025-12-14T00:04:10Z</time>
   </trkpt>
   <trkpt lat="10.3194200" lon="123.8576130">
    <ele>287.6</ele>
    <time>2025-12-14T00:04:17Z</time>
   </trkpt>
   <trkpt lat="10.3194550" lon="123.8575520">
    <ele>285.7</ele>
    <time>2025-12-14T00:04:25Z</time>
   </trkpt>
   <trkpt lat="10.3194390" lon="123.8575350">
    <ele>284.9</ele>
    <time>2025-12-14T00:04:28Z</time>
   </trkpt>
   <trkpt lat="10.3194910" lon="123.8574730">
    <ele>282.3</ele>
    <time>2025-12-14T00:04:37Z</time>
   </trkpt>
   <trkpt lat="10.3195160" lon="123.8574540">
    <ele>281.4</ele>
    <time>2025-12-14T00:04:41Z</time>
   </trkpt>
   <trkpt lat="10.3195110" lon="123.8574680">
    <ele>280.9</ele>
    <time>2025-12-14T00:04:45Z</time>
   </trkpt>
   <trkpt lat="10.3194830" lon="123.8574680">
    <ele>279.9</ele>
    <time>2025-12-14T00:05:08Z</time>
   </trkpt>
   <trkpt lat="10.3194850" lon="123.8574170">
    <ele>278.4</ele>
    <time>2025-12-14T00:05:13Z</time>
   </trkpt>
   <trkpt lat="10.3195070" lon="123.8573670">
    <ele>276.8</ele>
    <time>2025-12-14T00:05:19Z</time>
   </trkpt>
   <trkpt lat="10.3195780" lon="123.8572850">
    <ele>273.9</ele>
    <time>2025-12-14T00:05:37Z</time>
   </trkpt>
   <trkpt lat="10.3196350" lon="123.8572590">
    <ele>272.3</ele>
    <time>2025-12-14T00:05:46Z</time>
   </trkpt>
   <trkpt lat="10.3196510" lon="123.8572040">
    <ele>271.0</ele>
    <time>2025-12-14T00:05:54Z</time>
   </trkpt>
   <trkpt lat="10.3196970" lon="123.8571600">
    <ele>269.5</ele>
    <time>2025-12-14T00:06:03Z</time>
   </trkpt>
   <trkpt lat="10.3197110" lon="123.8571270">
    <ele>268.6</ele>
    <time>2025-12-14T00:06:10Z</time>
   </trkpt>
   <trkpt lat="10.3197290" lon="123.8571180">
    <ele>268.1</ele>
    <time>2025-12-14T00:06:14Z</time>
   </trkpt>
   <trkpt lat="10.3197340" lon="123.8571280">
    <ele>267.9</ele>
    <time>2025-12-14T00:06:18Z</time>
   </trkpt>
   <trkpt lat="10.3197180" lon="123.8571200">
    <ele>267.3</ele>
    <time>2025-12-14T00:06:50Z</time>
   </trkpt>
   <trkpt lat="10.3197190" lon="123.8570900">
    <ele>266.6</ele>
    <time>2025-12-14T00:06:55Z</time>
   </trkpt>
   <trkpt lat="10.3196790" lon="123.8569950">
    <ele>264.2</ele>
    <time>2025-12-14T00:07:18Z</time>
   </trkpt>
   <trkpt lat="10.3196000" lon="123.8568760">
    <ele>260.8</ele>
    <time>2025-12-14T00:07:36Z</time>
   </trkpt>
   <trkpt lat="10.3195610" lon="123.8568620">
    <ele>259.7</ele>
    <time>2025-12-14T00:07:42Z</time>
   </trkpt>
   <trkpt lat="10.3195450" lon="123.8568100">
    <ele>258.1</ele>
    <time>2025-12-14T00:07:50Z</time>
   </trkpt>
   <trkpt lat="10.3195850" lon="123.8567300">
    <ele>254.6</ele>
    <time>2025-12-14T00:08:32Z</time>
   </trkpt>
   <trkpt lat="10.3195630" lon="123.8566090">
    <ele>251.6</ele>
    <time>2025-12-14T00:08:58Z</time>
   </trkpt>
   <trkpt lat="10.3195940" lon="123.8565420">
    <ele>250.7</ele>
    <time>2025-12-14T00:09:05Z</time>
   </trkpt>
   <trkpt lat="10.3195910" lon="123.8564920">
    <ele>250.4</ele>
    <time>2025-12-14T00:09:11Z</time>
   </trkpt>
   <trkpt lat="10.3195710" lon="123.8564050">
    <ele>250.2</ele>
    <time>2025-12-14T00:09:23Z</time>
   </trkpt>
   <trkpt lat="10.3195610" lon="123.8564070">
    <ele>250.2</ele>
    <time>2025-12-14T00:09:25Z</time>
   </trkpt>
   <trkpt lat="10.3195560" lon="123.8563780">
    <ele>250.2</ele>
    <time>2025-12-14T00:09:29Z</time>
   </trkpt>
   <trkpt lat="10.3195080" lon="123.8563230">
    <ele>250.0</ele>
    <time>2025-12-14T00:09:40Z</time>
   </trkpt>
   <trkpt lat="10.3194920" lon="123.8562610">
    <ele>249.5</ele>
    <time>2025-12-14T00:09:48Z</time>
   </trkpt>
   <trkpt lat="10.3194600" lon="123.8562190">
    <ele>248.9</ele>
    <time>2025-12-14T00:09:55Z</time>
   </trkpt>
   <trkpt lat="10.3194540" lon="123.8560640">
    <ele>246.1</ele>
    <time>2025-12-14T00:10:10Z</time>
   </trkpt>
   <trkpt lat="10.3194100" lon="123.8560190">
    <ele>244.7</ele>
    <time>2025-12-14T00:10:16Z</time>
   </trkpt>
   <trkpt lat="10.3193740" lon="123.8560120">
    <ele>243.8</ele>
    <time>2025-12-14T00:10:22Z</time>
   </trkpt>
   <trkpt lat="10.3193170" lon="123.8559730">
    <ele>242.0</ele>
    <time>2025-12-14T00:10:38Z</time>
   </trkpt>
   <trkpt lat="10.3192960" lon="123.8559300">
    <ele>240.7</ele>
    <time>2025-12-14T00:10:42Z</time>
   </trkpt>
   <trkpt lat="10.3192930" lon="123.8558510">
    <ele>238.5</ele>
    <time>2025-12-14T00:10:55Z</time>
   </trkpt>
   <trkpt lat="10.3193070" lon="123.8558620">
    <ele>238.3</ele>
    <time>2025-12-14T00:11:03Z</time>
   </trkpt>
   <trkpt lat="10.3193290" lon="123.8558100">
    <ele>237.6</ele>
    <time>2025-12-14T00:11:07Z</time>
   </trkpt>
   <trkpt lat="10.3194120" lon="123.8558000">
    <ele>236.5</ele>
    <time>2025-12-14T00:11:16Z</time>
   </trkpt>
   <trkpt lat="10.3195120" lon="123.8558540">
    <ele>234.8</ele>
    <time>2025-12-14T00:11:31Z</time>
   </trkpt>
   <trkpt lat="10.3196270" lon="123.8558680">
    <ele>233.1</ele>
    <time>2025-12-14T00:11:45Z</time>
   </trkpt>
   <trkpt lat="10.3196760" lon="123.8559060">
    <ele>232.1</ele>
    <time>2025-12-14T00:11:54Z</time>
   </trkpt>
   <trkpt lat="10.3197080" lon="123.8559760">
    <ele>231.0</ele>
    <time>2025-12-14T00:12:03Z</time>
   </trkpt>
   <trkpt lat="10.3197580" lon="123.8560340">
    <ele>229.8</ele>
    <time>2025-12-14T00:12:15Z</time>
   </trkpt>
   <trkpt lat="10.3198040" lon="123.8561260">
    <ele>228.2</ele>
    <time>2025-12-14T00:12:25Z</time>
   </trkpt>
   <trkpt lat="10.3198300" lon="123.8562380">
    <ele>226.5</ele>
    <time>2025-12-14T00:12:40Z</time>
   </trkpt>
   <trkpt lat="10.3198580" lon="123.8562760">
    <ele>225.8</ele>
    <time>2025-12-14T00:12:47Z</time>
   </trkpt>
   <trkpt lat="10.3199150" lon="123.8563290">
    <ele>224.9</ele>
    <time>2025-12-14T00:12:55Z</time>
   </trkpt>
   <trkpt lat="10.3199090" lon="123.8563130">
    <ele>224.6</ele>
    <time>2025-12-14T00:13:00Z</time>
   </trkpt>
   <trkpt lat="10.3199950" lon="123.8563090">
    <ele>223.7</ele>
    <time>2025-12-14T00:13:11Z</time>
   </trkpt>
   <trkpt lat="10.3200210" lon="123.8562790">
    <ele>223.3</ele>
    <time>2025-12-14T00:13:21Z</time>
   </trkpt>
   <trkpt lat="10.3199980" lon="123.8562490">
    <ele>222.3</ele>
    <time>2025-12-14T00:13:27Z</time>
   </trkpt>
   <trkpt lat="10.3199770" lon="123.8562520">
    <ele>221.7</ele>
    <time>2025-12-14T00:13:32Z</time>
   </trkpt>
   <trkpt lat="10.3199510" lon="123.8562240">
    <ele>220.8</ele>
    <time>2025-12-14T00:13:49Z</time>
   </trkpt>
   <trkpt lat="10.3199630" lon="123.8561370">
    <ele>218.8</ele>
    <time>2025-12-14T00:14:27Z</time>
   </trkpt>
   <trkpt lat="10.3199880" lon="123.8561080">
    <ele>218.0</ele>
    <time>2025-12-14T00:14:39Z</time>
   </trkpt>
   <trkpt lat="10.3199720" lon="123.8560850">
    <ele>217.4</ele>
    <time>2025-12-14T00:14:45Z</time>
   </trkpt>
   <trkpt lat="10.3200010" lon="123.8560460">
    <ele>216.7</ele>
    <time>2025-12-14T00:14:50Z</time>
   </trkpt>
   <trkpt lat="10.3200060" lon="123.8559580">
    <ele>215.7</ele>
    <time>2025-12-14T00:15:00Z</time>
   </trkpt>
   <trkpt lat="10.3200730" lon="123.8559100">
    <ele>214.7</ele>
    <time>2025-12-14T00:15:08Z</time>
   </trkpt>
   <trkpt lat="10.3201190" lon="123.8557680">
    <ele>213.2</ele>
    <time>2025-12-14T00:15:23Z</time>
   </trkpt>
   <trkpt lat="10.3201910" lon="123.8557120">
    <ele>212.1</ele>
    <time>2025-12-14T00:15:40Z</time>
   </trkpt>
   <trkpt lat="10.3201850" lon="123.8556080">
    <ele>210.9</ele>
    <time>2025-12-14T00:15:56Z</time>
   </trkpt>
   <trkpt lat="10.3202090" lon="123.8555120">
    <ele>209.7</ele>
    <time>2025-12-14T00:16:07Z</time>
   </trkpt>
   <trkpt lat="10.3202870" lon="123.8554780">
    <ele>208.8</ele>
    <time>2025-12-14T00:16:20Z</time>
   </trkpt>
   <trkpt lat="10.3203150" lon="123.8554130">
    <ele>208.1</ele>
    <time>2025-12-14T00:16:34Z</time>
   </trkpt>
   <trkpt lat="10.3203040" lon="123.8553280">
    <ele>207.0</ele>
    <time>2025-12-14T00:16:45Z</time>
   </trkpt>
   <trkpt lat="10.3203440" lon="123.8552030">
    <ele>204.1</ele>
    <time>2025-12-14T00:17:00Z</time>
   </trkpt>
   <trkpt lat="10.3203390" lon="123.8551120">
    <ele>201.2</ele>
    <time>2025-12-14T00:17:14Z</time>
   </trkpt>
   <trkpt lat="10.3203030" lon="123.8550670">
    <ele>199.0</ele>
    <time>2025-12-14T00:17:29Z</time>
   </trkpt>
   <trkpt lat="10.3203200" lon="123.8550180">
    <ele>197.0</ele>
    <time>2025-12-14T00:17:38Z</time>
   </trkpt>
   <trkpt lat="10.3202710" lon="123.8549680">
    <ele>194.6</ele>
    <time>2025-12-14T00:17:47Z</time>
   </trkpt>
   <trkpt lat="10.3202510" lon="123.8548990">
    <ele>192.4</ele>
    <time>2025-12-14T00:18:00Z</time>
   </trkpt>
   <trkpt lat="10.3202840" lon="123.8548280">
    <ele>190.4</ele>
    <time>2025-12-14T00:18:31Z</time>
   </trkpt>
   <trkpt lat="10.3202800" lon="123.8548070">
    <ele>189.7</ele>
    <time>2025-12-14T00:18:38Z</time>
   </trkpt>
   <trkpt lat="10.3203190" lon="123.8547630">
    <ele>188.6</ele>
    <time>2025-12-14T00:18:55Z</time>
   </trkpt>
   <trkpt lat="10.3202860" lon="123.8547290">
    <ele>187.8</ele>
    <time>2025-12-14T00:19:14Z</time>
   </trkpt>
   <trkpt lat="10.3203170" lon="123.8547080">
    <ele>187.3</ele>
    <time>2025-12-14T00:19:25Z</time>
   </trkpt>
   <trkpt lat="10.3203350" lon="123.8546690">
    <ele>186.8</ele>
    <time>2025-12-14T00:19:34Z</time>
   </trkpt>
   <trkpt lat="10.3202760" lon="123.8545970">
    <ele>185.3</ele>
    <time>2025-12-14T00:19:46Z</time>
   </trkpt>
   <trkpt lat="10.3202730" lon="123.8545600">
    <ele>184.6</ele>
    <time>2025-12-14T00:19:52Z</time>
   </trkpt>
   <trkpt lat="10.3202940" lon="123.8545280">
    <ele>183.9</ele>
    <time>2025-12-14T00:20:00Z</time>
   </trkpt>
   <trkpt lat="10.3202950" lon="123.8544430">
    <ele>182.3</ele>
    <time>2025-12-14T00:20:15Z</time>
   </trkpt>
   <trkpt lat="10.3203230" lon="123.8543550">
    <ele>180.9</ele>
    <time>2025-12-14T00:20:36Z</time>
   </trkpt>
   <trkpt lat="10.3203570" lon="123.8543150">
    <ele>180.2</ele>
    <time>2025-12-14T00:20:45Z</time>
   </trkpt>
   <trkpt lat="10.3203200" lon="123.8541240">
    <ele>177.8</ele>
    <time>2025-12-14T00:21:17Z</time>
   </trkpt>
   <trkpt lat="10.3203300" lon="123.8540620">
    <ele>176.8</ele>
    <time>2025-12-14T00:21:29Z</time>
   </trkpt>
   <trkpt lat="10.3203930" lon="123.8539070">
    <ele>173.8</ele>
    <time>2025-12-14T00:22:10Z</time>
   </trkpt>
   <trkpt lat="10.3204260" lon="123.8538920">
    <ele>173.0</ele>
    <time>2025-12-14T00:22:36Z</time>
   </trkpt>
   <trkpt lat="10.3204430" lon="123.8539140">
    <ele>172.4</ele>
    <time>2025-12-14T00:24:07Z</time>
   </trkpt>
   <trkpt lat="10.3204680" lon="123.8539070">
    <ele>171.8</ele>
    <time>2025-12-14T00:24:12Z</time>
   </trkpt>
   <trkpt lat="10.3205220" lon="123.8538360">
    <ele>169.6</ele>
    <time>2025-12-14T00:24:23Z</time>
   </trkpt>
   <trkpt lat="10.3205800" lon="123.8537290">
    <ele>165.9</ele>
    <time>2025-12-14T00:24:44Z</time>
   </trkpt>
   <trkpt lat="10.3205800" lon="123.8536780">
    <ele>164.3</ele>
    <time>2025-12-14T00:24:53Z</time>
   </trkpt>
   <trkpt lat="10.3206410" lon="123.8535360">
    <ele>160.3</ele>
    <time>2025-12-14T00:25:17Z</time>
   </trkpt>
   <trkpt lat="10.3208120" lon="123.8533050">
    <ele>153.5</ele>
    <time>2025-12-14T00:26:00Z</time>
   </trkpt>
   <trkpt lat="10.3208380" lon="123.8531460">
    <ele>148.3</ele>
    <time>2025-12-14T00:26:24Z</time>
   </trkpt>
   <trkpt lat="10.3208120" lon="123.8530480">
    <ele>143.9</ele>
    <time>2025-12-14T00:26:42Z</time>
   </trkpt>
   <trkpt lat="10.3208290" lon="123.8529680">
    <ele>140.4</ele>
    <time>2025-12-14T00:27:19Z</time>
   </trkpt>
   <trkpt lat="10.3208530" lon="123.8529150">
    <ele>137.9</ele>
    <time>2025-12-14T00:27:25Z</time>
   </trkpt>
   <trkpt lat="10.3209130" lon="123.8528900">
    <ele>135.4</ele>
    <time>2025-12-14T00:27:36Z</time>
   </trkpt>
   <trkpt lat="10.3209240" lon="123.8527870">
    <ele>132.7</ele>
    <time>2025-12-14T00:28:17Z</time>
   </trkpt>
   <trkpt lat="10.3209350" lon="123.8527800">
    <ele>132.4</ele>
    <time>2025-12-14T00:28:24Z</time>
   </trkpt>
   <trkpt lat="10.3209070" lon="123.8527940">
    <ele>131.9</ele>
    <time>2025-12-14T00:28:58Z</time>
   </trkpt>
   <trkpt lat="10.3208980" lon="123.8527830">
    <ele>131.7</ele>
    <time>2025-12-14T00:29:13Z</time>
   </trkpt>
   <trkpt lat="10.3208640" lon="123.8527860">
    <ele>131.4</ele>
    <time>2025-12-14T00:29:19Z</time>
   </trkpt>
   <trkpt lat="10.3208860" lon="123.8527180">
    <ele>131.0</ele>
    <time>2025-12-14T00:29:32Z</time>
   </trkpt>
   <trkpt lat="10.3208740" lon="123.8526890">
    <ele>131.0</ele>
    <time>2025-12-14T00:29:36Z</time>
   </trkpt>
   <trkpt lat="10.3208060" lon="123.8526710">
    <ele>130.9</ele>
    <time>2025-12-14T00:29:45Z</time>
   </trkpt>
   <trkpt lat="10.3207230" lon="123.8525770">
    <ele>131.1</ele>
    <time>2025-12-14T00:30:10Z</time>
   </trkpt>
   <trkpt lat="10.3206540" lon="123.8525620">
    <ele>131.2</ele>
    <time>2025-12-14T00:30:16Z</time>
   </trkpt>
   <trkpt lat="10.3206280" lon="123.8525420">
    <ele>131.2</ele>
    <time>2025-12-14T00:30:21Z</time>
   </trkpt>
   <trkpt lat="10.3206210" lon="123.8524670">
    <ele>131.2</ele>
    <time>2025-12-14T00:30:32Z</time>
   </trkpt>
   <trkpt lat="10.3205090" lon="123.8524580">
    <ele>131.0</ele>
    <time>2025-12-14T00:30:43Z</time>
   </trkpt>
   <trkpt lat="10.3204570" lon="123.8524350">
    <ele>130.9</ele>
    <time>2025-12-14T00:30:49Z</time>
   </trkpt>
   <trkpt lat="10.3203290" lon="123.8522210">
    <ele>130.2</ele>
    <time>2025-12-14T00:31:22Z</time>
   </trkpt>
   <trkpt lat="10.3203290" lon="123.8521640">
    <ele>130.0</ele>
    <time>2025-12-14T00:31:26Z</time>
   </trkpt>
   <trkpt lat="10.3202670" lon="123.8520190">
    <ele>129.7</ele>
    <time>2025-12-14T00:31:39Z</time>
   </trkpt>
   <trkpt lat="10.3202870" lon="123.8519390">
    <ele>129.6</ele>
    <time>2025-12-14T00:31:48Z</time>
   </trkpt>
   <trkpt lat="10.3203120" lon="123.8516860">
    <ele>129.7</ele>
    <time>2025-12-14T00:32:11Z</time>
   </trkpt>
   <trkpt lat="10.3202850" lon="123.8516030">
    <ele>129.7</ele>
    <time>2025-12-14T00:32:19Z</time>
   </trkpt>
   <trkpt lat="10.3202970" lon="123.8515390">
    <ele>129.7</ele>
    <time>2025-12-14T00:32:29Z</time>
   </trkpt>
   <trkpt lat="10.3202720" lon="123.8515020">
    <ele>129.7</ele>
    <time>2025-12-14T00:32:36Z</time>
   </trkpt>
   <trkpt lat="10.3202330" lon="123.8514820">
    <ele>129.7</ele>
    <time>2025-12-14T00:32:41Z</time>
   </trkpt>
   <trkpt lat="10.3202180" lon="123.8513750">
    <ele>129.8</ele>
    <time>2025-12-14T00:32:49Z</time>
   </trkpt>
   <trkpt lat="10.3201840" lon="123.8513050">
    <ele>129.8</ele>
    <time>2025-12-14T00:32:54Z</time>
   </trkpt>
   <trkpt lat="10.3201800" lon="123.8511350">
    <ele>129.8</ele>
    <time>2025-12-14T00:33:08Z</time>
   </trkpt>
   <trkpt lat="10.3201600" lon="123.8509960">
    <ele>129.6</ele>
    <time>2025-12-14T00:33:24Z</time>
   </trkpt>
   <trkpt lat="10.3201340" lon="123.8509240">
    <ele>129.6</ele>
    <time>2025-12-14T00:33:35Z</time>
   </trkpt>
   <trkpt lat="10.3201440" lon="123.8508900">
    <ele>129.5</ele>
    <time>2025-12-14T00:33:40Z</time>
   </trkpt>
   <trkpt lat="10.3200960" lon="123.8508240">
    <ele>129.4</ele>
    <time>2025-12-14T00:33:52Z</time>
   </trkpt>
   <trkpt lat="10.3200880" lon="123.8507140">
    <ele>129.2</ele>
    <time>2025-12-14T00:34:02Z</time>
   </trkpt>
   <trkpt lat="10.3200770" lon="123.8507260">
    <ele>129.2</ele>
    <time>2025-12-14T00:34:04Z</time>
   </trkpt>
   <trkpt lat="10.3199980" lon="123.8507110">
    <ele>129.0</ele>
    <time>2025-12-14T00:34:12Z</time>
   </trkpt>
   <trkpt lat="10.3199600" lon="123.8506850">
    <ele>128.9</ele>
    <time>2025-12-14T00:34:17Z</time>
   </trkpt>
   <trkpt lat="10.3199370" lon="123.8507180">
    <ele>128.8</ele>
    <time>2025-12-14T00:34:24Z</time>
   </trkpt>
   <trkpt lat="10.3198850" lon="123.8507360">
    <ele>128.7</ele>
    <time>2025-12-14T00:34:29Z</time>
   </trkpt>
   <trkpt lat="10.3198410" lon="123.8507330">
    <ele>128.7</ele>
    <time>2025-12-14T00:34:32Z</time>
   </trkpt>
   <trkpt lat="10.3197690" lon="123.8506990">
    <ele>128.6</ele>
    <time>2025-12-14T00:34:38Z</time>
   </trkpt>
   <trkpt lat="10.3197240" lon="123.8506310">
    <ele>128.4</ele>
    <time>2025-12-14T00:34:51Z</time>
   </trkpt>
   <trkpt lat="10.3197460" lon="123.8505680">
    <ele>128.3</ele>
    <time>2025-12-14T00:34:57Z</time>
   </trkpt>
   <trkpt lat="10.3197150" lon="123.8504930">
    <ele>128.1</ele>
    <time>2025-12-14T00:35:06Z</time>
   </trkpt>
   <trkpt lat="10.3197210" lon="123.8504450">
    <ele>128.1</ele>
    <time>2025-12-14T00:35:13Z</time>
   </trkpt>
   <trkpt lat="10.3197010" lon="123.8503970">
    <ele>128.0</ele>
    <time>2025-12-14T00:35:19Z</time>
   </trkpt>
   <trkpt lat="10.3197050" lon="123.8503470">
    <ele>128.0</ele>
    <time>2025-12-14T00:35:24Z</time>
   </trkpt>
   <trkpt lat="10.3196210" lon="123.8501980">
    <ele>127.5</ele>
    <time>2025-12-14T00:35:39Z</time>
   </trkpt>
   <trkpt lat="10.3196180" lon="123.8500760">
    <ele>127.1</ele>
    <time>2025-12-14T00:35:52Z</time>
   </trkpt>
   <trkpt lat="10.3195680" lon="123.8500090">
    <ele>126.9</ele>
    <time>2025-12-14T00:36:00Z</time>
   </trkpt>
   <trkpt lat="10.3195830" lon="123.8499630">
    <ele>126.7</ele>
    <time>2025-12-14T00:36:05Z</time>
   </trkpt>
   <trkpt lat="10.3195440" lon="123.8497690">
    <ele>126.3</ele>
    <time>2025-12-14T00:36:21Z</time>
   </trkpt>
   <trkpt lat="10.3195460" lon="123.8497400">
    <ele>126.3</ele>
    <time>2025-12-14T00:36:23Z</time>
   </trkpt>
   <trkpt lat="10.3196160" lon="123.8496070">
    <ele>126.2</ele>
    <time>2025-12-14T00:36:40Z</time>
   </trkpt>
   <trkpt lat="10.3196020" lon="123.8495740">
    <ele>126.3</ele>
    <time>2025-12-14T00:36:46Z</time>
   </trkpt>
   <trkpt lat="10.3196040" lon="123.8495160">
    <ele>126.4</ele>
    <time>2025-12-14T00:37:02Z</time>
   </trkpt>
   <trkpt lat="10.3197120" lon="123.8493180">
    <ele>126.6</ele>
    <time>2025-12-14T00:37:35Z</time>
   </trkpt>
   <trkpt lat="10.3197040" lon="123.8492710">
    <ele>126.6</ele>
    <time>2025-12-14T00:37:41Z</time>
   </trkpt>
   <trkpt lat="10.3196750" lon="123.8492270">
    <ele>126.6</ele>
    <time>2025-12-14T00:37:53Z</time>
   </trkpt>
   <trkpt lat="10.3197570" lon="123.8491760">
    <ele>126.6</ele>
    <time>2025-12-14T00:38:06Z</time>
   </trkpt>
   <trkpt lat="10.3197250" lon="123.8490290">
    <ele>126.5</ele>
    <time>2025-12-14T00:38:22Z</time>
   </trkpt>
   <trkpt lat="10.3196750" lon="123.8489720">
    <ele>126.3</ele>
    <time>2025-12-14T00:38:30Z</time>
   </trkpt>
   <trkpt lat="10.3196570" lon="123.8488410">
    <ele>125.7</ele>
    <time>2025-12-14T00:38:45Z</time>
   </trkpt>
   <trkpt lat="10.3196300" lon="123.8488180">
    <ele>125.7</ele>
    <time>2025-12-14T00:38:51Z</time>
   </trkpt>
   <trkpt lat="10.3196220" lon="123.8488840">
    <ele>125.8</ele>
    <time>2025-12-14T00:38:59Z</time>
   </trkpt>
   <trkpt lat="10.3195560" lon="123.8489040">
    <ele>125.8</ele>
    <time>2025-12-14T00:39:08Z</time>
   </trkpt>
   <trkpt lat="10.3195520" lon="123.8488900">
    <ele>125.8</ele>
    <time>2025-12-14T00:39:13Z</time>
   </trkpt>
   <trkpt lat="10.3195410" lon="123.8489080">
    <ele>125.8</ele>
    <time>2025-12-14T00:39:16Z</time>
   </trkpt>
   <trkpt lat="10.3195570" lon="123.8489170">
    <ele>125.8</ele>
    <time>2025-12-14T00:39:22Z</time>
   </trkpt>
   <trkpt lat="10.3195240" lon="123.8488720">
    <ele>125.9</ele>
    <time>2025-12-14T00:39:53Z</time>
   </trkpt>
   <trkpt lat="10.3194960" lon="123.8488750">
    <ele>125.9</ele>
    <time>2025-12-14T00:40:06Z</time>
   </trkpt>
   <trkpt lat="10.3194860" lon="123.8488300">
    <ele>125.9</ele>
    <time>2025-12-14T00:40:14Z</time>
   </trkpt>
   <trkpt lat="10.3194540" lon="123.8488140">
    <ele>125.9</ele>
    <time>2025-12-14T00:40:28Z</time>
   </trkpt>
   <trkpt lat="10.3194720" lon="123.8488200">
    <ele>126.0</ele>
    <time>2025-12-14T00:40:32Z</time>
   </trkpt>
   <trkpt lat="10.3194610" lon="123.8488410">
    <ele>126.0</ele>
    <time>2025-12-14T00:40:38Z</time>
   </trkpt>
   <trkpt lat="10.3194080" lon="123.8488360">
    <ele>126.0</ele>
    <time>2025-12-14T00:40:45Z</time>
   </trkpt>
   <trkpt lat="10.3193370" lon="123.8488730">
    <ele>126.0</ele>
    <time>2025-12-14T00:40:51Z</time>
   </trkpt>
   <trkpt lat="10.3193180" lon="123.8489360">
    <ele>126.1</ele>
    <time>2025-12-14T00:40:57Z</time>
   </trkpt>
   <trkpt lat="10.3192850" lon="123.8489380">
    <ele>126.1</ele>
    <time>2025-12-14T00:41:01Z</time>
   </trkpt>
   <trkpt lat="10.3192880" lon="123.8489100">
    <ele>126.1</ele>
    <time>2025-12-14T00:41:08Z</time>
   </trkpt>
   <trkpt lat="10.3192220" lon="123.8488870">
    <ele>126.2</ele>
    <time>2025-12-14T00:41:29Z</time>
   </trkpt>
   <trkpt lat="10.3191240" lon="123.8489120">
    <ele>126.2</ele>
    <time>2025-12-14T00:41:38Z</time>
   </trkpt>
   <trkpt lat="10.3190970" lon="123.8489350">
    <ele>126.2</ele>
    <time>2025-12-14T00:41:42Z</time>
   </trkpt>
   <trkpt lat="10.3190460" lon="123.8489360">
    <ele>126.3</ele>
    <time>2025-12-14T00:41:59Z</time>
   </trkpt>
   <trkpt lat="10.3190580" lon="123.8489240">
    <ele>126.0</ele>
    <time>2025-12-14T00:42:01Z</time>
   </trkpt>
   <trkpt lat="10.3189410" lon="123.8488840">
    <ele>127.2</ele>
    <time>2025-12-14T00:42:21Z</time>
   </trkpt>
   <trkpt lat="10.3189050" lon="123.8488520">
    <ele>128.2</ele>
    <time>2025-12-14T00:42:25Z</time>
   </trkpt>
   <trkpt lat="10.3188550" lon="123.8488370">
    <ele>128.4</ele>
    <time>2025-12-14T00:42:30Z</time>
   </trkpt>
   <trkpt lat="10.3188260" lon="123.8487290">
    <ele>130.2</ele>
    <time>2025-12-14T00:42:40Z</time>
   </trkpt>
   <trkpt lat="10.3187770" lon="123.8486820">
    <ele>130.7</ele>
    <time>2025-12-14T00:42:48Z</time>
   </trkpt>
   <trkpt lat="10.3187380" lon="123.8487300">
    <ele>130.3</ele>
    <time>2025-12-14T00:42:58Z</time>
   </trkpt>
   <trkpt lat="10.3187080" lon="123.8487450">
    <ele>130.3</ele>
    <time>2025-12-14T00:43:00Z</time>
   </trkpt>
   <trkpt lat="10.3186030" lon="123.8487070">
    <ele>129.9</ele>
    <time>2025-12-14T00:43:12Z</time>
   </trkpt>
   <trkpt lat="10.3185000" lon="123.8487050">
    <ele>128.7</ele>
    <time>2025-12-14T00:43:20Z</time>
   </trkpt>
   <trkpt lat="10.3184400" lon="123.8486850">
    <ele>128.1</ele>
    <time>2025-12-14T00:43:26Z</time>
   </trkpt>
   <trkpt lat="10.3183950" lon="123.8487290">
    <ele>127.6</ele>
    <time>2025-12-14T00:43:32Z</time>
   </trkpt>
   <trkpt lat="10.3183580" lon="123.8487440">
    <ele>127.4</ele>
    <time>2025-12-14T00:43:39Z</time>
   </trkpt>
   <trkpt lat="10.3182350" lon="123.8487520">
    <ele>127.6</ele>
    <time>2025-12-14T00:43:53Z</time>
   </trkpt>
   <trkpt lat="10.3181500" lon="123.8487080">
    <ele>127.2</ele>
    <time>2025-12-14T00:44:04Z</time>
   </trkpt>
   <trkpt lat="10.3180690" lon="123.8487410">
    <ele>126.7</ele>
    <time>2025-12-14T00:44:15Z</time>
   </trkpt>
   <trkpt lat="10.3179040" lon="123.8487670">
    <ele>126.9</ele>
    <time>2025-12-14T00:44:34Z</time>
   </trkpt>
   <trkpt lat="10.3178660" lon="123.8487890">
    <ele>126.9</ele>
    <time>2025-12-14T00:44:40Z</time>
   </trkpt>
   <trkpt lat="10.3178660" lon="123.8487620">
    <ele>126.9</ele>
    <time>2025-12-14T00:44:47Z</time>
   </trkpt>
   <trkpt lat="10.3178490" lon="123.8487580">
    <ele>126.9</ele>
    <time>2025-12-14T00:44:53Z</time>
   </trkpt>
   <trkpt lat="10.3178220" lon="123.8487690">
    <ele>126.7</ele>
    <time>2025-12-14T00:44:57Z</time>
   </trkpt>
   <trkpt lat="10.3178300" lon="123.8487930">
    <ele>125.9</ele>
    <time>2025-12-14T00:45:04Z</time>
   </trkpt>
   <trkpt lat="10.3177750" lon="123.8487790">
    <ele>126.4</ele>
    <time>2025-12-14T00:45:13Z</time>
   </trkpt>
   <trkpt lat="10.3176980" lon="123.8488170">
    <ele>124.9</ele>
    <time>2025-12-14T00:45:25Z</time>
   </trkpt>
   <trkpt lat="10.3175720" lon="123.8487650">
    <ele>124.7</ele>
    <time>2025-12-14T00:45:41Z</time>
   </trkpt>
   <trkpt lat="10.3175330" lon="123.8487250">
    <ele>124.6</ele>
    <time>2025-12-14T00:45:50Z</time>
   </trkpt>
   <trkpt lat="10.3174630" lon="123.8485260">
    <ele>124.6</ele>
    <time>2025-12-14T00:46:12Z</time>
   </trkpt>
   <trkpt lat="10.3174120" lon="123.8484910">
    <ele>124.4</ele>
    <time>2025-12-14T00:46:19Z</time>
   </trkpt>
   <trkpt lat="10.3174050" lon="123.8484370">
    <ele>123.9</ele>
    <time>2025-12-14T00:46:28Z</time>
   </trkpt>
   <trkpt lat="10.3173760" lon="123.8484180">
    <ele>123.9</ele>
    <time>2025-12-14T00:46:33Z</time>
   </trkpt>
   <trkpt lat="10.3173430" lon="123.8483470">
    <ele>122.8</ele>
    <time>2025-12-14T00:46:38Z</time>
   </trkpt>
   <trkpt lat="10.3173350" lon="123.8483180">
    <ele>122.6</ele>
    <time>2025-12-14T00:46:40Z</time>
   </trkpt>
   <trkpt lat="10.3173570" lon="123.8482770">
    <ele>122.6</ele>
    <time>2025-12-14T00:46:44Z</time>
   </trkpt>
   <trkpt lat="10.3173510" lon="123.8482350">
    <ele>122.7</ele>
    <time>2025-12-14T00:46:49Z</time>
   </trkpt>
   <trkpt lat="10.3173660" lon="123.8482220">
    <ele>123.1</ele>
    <time>2025-12-14T00:46:53Z</time>
   </trkpt>
   <trkpt lat="10.3173530" lon="123.8481430">
    <ele>124.3</ele>
    <time>2025-12-14T00:47:07Z</time>
   </trkpt>
   <trkpt lat="10.3173410" lon="123.8481250">
    <ele>124.2</ele>
    <time>2025-12-14T00:47:10Z</time>
   </trkpt>
   <trkpt lat="10.3172690" lon="123.8480990">
    <ele>122.9</ele>
    <time>2025-12-14T00:47:19Z</time>
   </trkpt>
   <trkpt lat="10.3172310" lon="123.8480590">
    <ele>122.5</ele>
    <time>2025-12-14T00:47:23Z</time>
   </trkpt>
   <trkpt lat="10.3172520" lon="123.8479560">
    <ele>125.5</ele>
    <time>2025-12-14T00:47:33Z</time>
   </trkpt>
   <trkpt lat="10.3172370" lon="123.8479060">
    <ele>125.5</ele>
    <time>2025-12-14T00:47:39Z</time>
   </trkpt>
   <trkpt lat="10.3171890" lon="123.8478630">
    <ele>125.4</ele>
    <time>2025-12-14T00:47:46Z</time>
   </trkpt>
   <trkpt lat="10.3171250" lon="123.8478520">
    <ele>123.6</ele>
    <time>2025-12-14T00:47:57Z</time>
   </trkpt>
   <trkpt lat="10.3170940" lon="123.8478140">
    <ele>123.3</ele>
    <time>2025-12-14T00:48:06Z</time>
   </trkpt>
   <trkpt lat="10.3170230" lon="123.8477970">
    <ele>121.6</ele>
    <time>2025-12-14T00:48:15Z</time>
   </trkpt>
   <trkpt lat="10.3170360" lon="123.8477280">
    <ele>124.8</ele>
    <time>2025-12-14T00:48:23Z</time>
   </trkpt>
   <trkpt lat="10.3170190" lon="123.8477080">
    <ele>124.8</ele>
    <time>2025-12-14T00:48:28Z</time>
   </trkpt>
   <trkpt lat="10.3169460" lon="123.8477220">
    <ele>121.6</ele>
    <time>2025-12-14T00:48:38Z</time>
   </trkpt>
   <trkpt lat="10.3169040" lon="123.8477040">
    <ele>121.6</ele>
    <time>2025-12-14T00:48:49Z</time>
   </trkpt>
   <trkpt lat="10.3168640" lon="123.8476610">
    <ele>121.4</ele>
    <time>2025-12-14T00:49:00Z</time>
   </trkpt>
   <trkpt lat="10.3167980" lon="123.8476600">
    <ele>118.7</ele>
    <time>2025-12-14T00:49:08Z</time>
   </trkpt>
   <trkpt lat="10.3167580" lon="123.8476330">
    <ele>117.6</ele>
    <time>2025-12-14T00:49:14Z</time>
   </trkpt>
   <trkpt lat="10.3167670" lon="123.8475270">
    <ele>121.8</ele>
    <time>2025-12-14T00:49:26Z</time>
   </trkpt>
   <trkpt lat="10.3167100" lon="123.8474430">
    <ele>123.8</ele>
    <time>2025-12-14T00:49:40Z</time>
   </trkpt>
   <trkpt lat="10.3166790" lon="123.8474340">
    <ele>122.1</ele>
    <time>2025-12-14T00:49:47Z</time>
   </trkpt>
   <trkpt lat="10.3166750" lon="123.8474080">
    <ele>123.8</ele>
    <time>2025-12-14T00:49:53Z</time>
   </trkpt>
   <trkpt lat="10.3166470" lon="123.8474730">
    <ele>119.1</ele>
    <time>2025-12-14T00:50:01Z</time>
   </trkpt>
   <trkpt lat="10.3166170" lon="123.8474410">
    <ele>120.3</ele>
    <time>2025-12-14T00:51:06Z</time>
   </trkpt>
   <trkpt lat="10.3166260" lon="123.8473900">
    <ele>121.9</ele>
    <time>2025-12-14T00:51:22Z</time>
   </trkpt>
   <trkpt lat="10.3166550" lon="123.8473590">
    <ele>125.2</ele>
    <time>2025-12-14T00:51:26Z</time>
   </trkpt>
   <trkpt lat="10.3166480" lon="123.8473170">
    <ele>125.5</ele>
    <time>2025-12-14T00:51:33Z</time>
   </trkpt>
   <trkpt lat="10.3166720" lon="123.8473030">
    <ele>127.0</ele>
    <time>2025-12-14T00:51:36Z</time>
   </trkpt>
   <trkpt lat="10.3166590" lon="123.8473060">
    <ele>127.0</ele>
    <time>2025-12-14T00:51:39Z</time>
   </trkpt>
   <trkpt lat="10.3166520" lon="123.8472790">
    <ele>128.6</ele>
    <time>2025-12-14T00:51:48Z</time>
   </trkpt>
   <trkpt lat="10.3165950" lon="123.8472670">
    <ele>125.8</ele>
    <time>2025-12-14T00:51:51Z</time>
   </trkpt>
   <trkpt lat="10.3165710" lon="123.8472400">
    <ele>127.3</ele>
    <time>2025-12-14T00:51:54Z</time>
   </trkpt>
   <trkpt lat="10.3165370" lon="123.8472290">
    <ele>126.2</ele>
    <time>2025-12-14T00:51:58Z</time>
   </trkpt>
   <trkpt lat="10.3165310" lon="123.8472020">
    <ele>127.3</ele>
    <time>2025-12-14T00:52:02Z</time>
   </trkpt>
   <trkpt lat="10.3165450" lon="123.8471610">
    <ele>127.3</ele>
    <time>2025-12-14T00:52:08Z</time>
   </trkpt>
   <trkpt lat="10.3165310" lon="123.8470950">
    <ele>129.1</ele>
    <time>2025-12-14T00:52:17Z</time>
   </trkpt>
   <trkpt lat="10.3165050" lon="123.8470540">
    <ele>128.6</ele>
    <time>2025-12-14T00:52:24Z</time>
   </trkpt>
   <trkpt lat="10.3164570" lon="123.8470260">
    <ele>127.9</ele>
    <time>2025-12-14T00:52:30Z</time>
   </trkpt>
   <trkpt lat="10.3163560" lon="123.8470400">
    <ele>125.4</ele>
    <time>2025-12-14T00:52:42Z</time>
   </trkpt>
   <trkpt lat="10.3163390" lon="123.8470280">
    <ele>124.0</ele>
    <time>2025-12-14T00:52:46Z</time>
   </trkpt>
   <trkpt lat="10.3163030" lon="123.8470530">
    <ele>122.4</ele>
    <time>2025-12-14T00:52:56Z</time>
   </trkpt>
   <trkpt lat="10.3162800" lon="123.8469840">
    <ele>122.3</ele>
    <time>2025-12-14T00:53:08Z</time>
   </trkpt>
   <trkpt lat="10.3162770" lon="123.8468910">
    <ele>122.4</ele>
    <time>2025-12-14T00:53:18Z</time>
   </trkpt>
   <trkpt lat="10.3163100" lon="123.8468310">
    <ele>122.7</ele>
    <time>2025-12-14T00:53:28Z</time>
   </trkpt>
   <trkpt lat="10.3162820" lon="123.8467850">
    <ele>122.9</ele>
    <time>2025-12-14T00:53:43Z</time>
   </trkpt>
   <trkpt lat="10.3162540" lon="123.8466040">
    <ele>121.6</ele>
    <time>2025-12-14T00:54:02Z</time>
   </trkpt>
   <trkpt lat="10.3161840" lon="123.8464820">
    <ele>118.5</ele>
    <time>2025-12-14T00:54:14Z</time>
   </trkpt>
   <trkpt lat="10.3161770" lon="123.8464390">
    <ele>118.4</ele>
    <time>2025-12-14T00:54:19Z</time>
   </trkpt>
   <trkpt lat="10.3161260" lon="123.8463930">
    <ele>117.2</ele>
    <time>2025-12-14T00:54:27Z</time>
   </trkpt>
   <trkpt lat="10.3161140" lon="123.8463370">
    <ele>118.1</ele>
    <time>2025-12-14T00:54:33Z</time>
   </trkpt>
   <trkpt lat="10.3160080" lon="123.8462970">
    <ele>116.6</ele>
    <time>2025-12-14T00:54:48Z</time>
   </trkpt>
   <trkpt lat="10.3159100" lon="123.8462940">
    <ele>115.9</ele>
    <time>2025-12-14T00:54:58Z</time>
   </trkpt>
   <trkpt lat="10.3157330" lon="123.8460620">
    <ele>118.9</ele>
    <time>2025-12-14T00:55:30Z</time>
   </trkpt>
   <trkpt lat="10.3156830" lon="123.8460590">
    <ele>118.6</ele>
    <time>2025-12-14T00:55:35Z</time>
   </trkpt>
   <trkpt lat="10.3156460" lon="123.8460880">
    <ele>117.7</ele>
    <time>2025-12-14T00:55:42Z</time>
   </trkpt>
   <trkpt lat="10.3155930" lon="123.8460930">
    <ele>117.6</ele>
    <time>2025-12-14T00:55:48Z</time>
   </trkpt>
   <trkpt lat="10.3155250" lon="123.8460550">
    <ele>118.2</ele>
    <time>2025-12-14T00:56:01Z</time>
   </trkpt>
   <trkpt lat="10.3154530" lon="123.8460920">
    <ele>118.0</ele>
    <time>2025-12-14T00:56:13Z</time>
   </trkpt>
   <trkpt lat="10.3153740" lon="123.8461780">
    <ele>116.9</ele>
    <time>2025-12-14T00:56:28Z</time>
   </trkpt>
   <trkpt lat="10.3152340" lon="123.8461810">
    <ele>118.4</ele>
    <time>2025-12-14T00:56:53Z</time>
   </trkpt>
   <trkpt lat="10.3151800" lon="123.8462360">
    <ele>117.5</ele>
    <time>2025-12-14T00:57:02Z</time>
   </trkpt>
   <trkpt lat="10.3151380" lon="123.8462400">
    <ele>117.9</ele>
    <time>2025-12-14T00:57:07Z</time>
   </trkpt>
   <trkpt lat="10.3150640" lon="123.8462210">
    <ele>118.4</ele>
    <time>2025-12-14T00:57:18Z</time>
   </trkpt>
   <trkpt lat="10.3149700" lon="123.8462930">
    <ele>117.4</ele>
    <time>2025-12-14T00:57:35Z</time>
   </trkpt>
   <trkpt lat="10.3148470" lon="123.8462600">
    <ele>118.4</ele>
    <time>2025-12-14T00:57:54Z</time>
   </trkpt>
   <trkpt lat="10.3148340" lon="123.8462750">
    <ele>118.8</ele>
    <time>2025-12-14T00:58:00Z</time>
   </trkpt>
   <trkpt lat="10.3148420" lon="123.8462960">
    <ele>118.4</ele>
    <time>2025-12-14T00:58:07Z</time>
   </trkpt>
   <trkpt lat="10.3147080" lon="123.8463310">
    <ele>119.4</ele>
    <time>2025-12-14T00:58:37Z</time>
   </trkpt>
   <trkpt lat="10.3146890" lon="123.8463170">
    <ele>119.4</ele>
    <time>2025-12-14T00:58:40Z</time>
   </trkpt>
   <trkpt lat="10.3146200" lon="123.8463800">
    <ele>119.9</ele>
    <time>2025-12-14T00:59:05Z</time>
   </trkpt>
   <trkpt lat="10.3145720" lon="123.8463850">
    <ele>120.3</ele>
    <time>2025-12-14T00:59:13Z</time>
   </trkpt>
   <trkpt lat="10.3145200" lon="123.8463690">
    <ele>120.8</ele>
    <time>2025-12-14T00:59:18Z</time>
   </trkpt>
   <trkpt lat="10.3144960" lon="123.8463920">
    <ele>121.1</ele>
    <time>2025-12-14T00:59:39Z</time>
   </trkpt>
   <trkpt lat="10.3144180" lon="123.8463740">
    <ele>121.8</ele>
    <time>2025-12-14T00:59:47Z</time>
   </trkpt>
   <trkpt lat="10.3143410" lon="123.8463930">
    <ele>122.5</ele>
    <time>2025-12-14T00:59:58Z</time>
   </trkpt>
   <trkpt lat="10.3143280" lon="123.8463800">
    <ele>122.8</ele>
    <time>2025-12-14T01:00:02Z</time>
   </trkpt>
   <trkpt lat="10.3142930" lon="123.8463810">
    <ele>122.8</ele>
    <time>2025-12-14T01:00:07Z</time>
   </trkpt>
   <trkpt lat="10.3142670" lon="123.8463870">
    <ele>122.8</ele>
    <time>2025-12-14T01:00:12Z</time>
   </trkpt>
   <trkpt lat="10.3142550" lon="123.8464060">
    <ele>122.6</ele>
    <time>2025-12-14T01:00:27Z</time>
   </trkpt>
   <trkpt lat="10.3141740" lon="123.8463830">
    <ele>122.6</ele>
    <time>2025-12-14T01:00:38Z</time>
   </trkpt>
   <trkpt lat="10.3140570" lon="123.8464310">
    <ele>121.9</ele>
    <time>2025-12-14T01:01:00Z</time>
   </trkpt>
   <trkpt lat="10.3140020" lon="123.8464030">
    <ele>122.2</ele>
    <time>2025-12-14T01:01:07Z</time>
   </trkpt>
   <trkpt lat="10.3139850" lon="123.8464120">
    <ele>122.2</ele>
    <time>2025-12-14T01:01:11Z</time>
   </trkpt>
   <trkpt lat="10.3139470" lon="123.8463800">
    <ele>122.6</ele>
    <time>2025-12-14T01:01:17Z</time>
   </trkpt>
   <trkpt lat="10.3138850" lon="123.8463760">
    <ele>122.8</ele>
    <time>2025-12-14T01:01:23Z</time>
   </trkpt>
   <trkpt lat="10.3138000" lon="123.8464590">
    <ele>123.8</ele>
    <time>2025-12-14T01:01:35Z</time>
   </trkpt>
   <trkpt lat="10.3137730" lon="123.8464660">
    <ele>125.0</ele>
    <time>2025-12-14T01:01:41Z</time>
   </trkpt>
   <trkpt lat="10.3137630" lon="123.8465070">
    <ele>125.0</ele>
    <time>2025-12-14T01:01:46Z</time>
   </trkpt>
   <trkpt lat="10.3137460" lon="123.8465200">
    <ele>125.2</ele>
    <time>2025-12-14T01:01:48Z</time>
   </trkpt>
   <trkpt lat="10.3136330" lon="123.8465210">
    <ele>129.1</ele>
    <time>2025-12-14T01:01:57Z</time>
   </trkpt>
   <trkpt lat="10.3135880" lon="123.8465000">
    <ele>130.5</ele>
    <time>2025-12-14T01:02:03Z</time>
   </trkpt>
   <trkpt lat="10.3135870" lon="123.8465370">
    <ele>130.7</ele>
    <time>2025-12-14T01:02:11Z</time>
   </trkpt>
   <trkpt lat="10.3135880" lon="123.8465100">
    <ele>130.5</ele>
    <time>2025-12-14T01:02:19Z</time>
   </trkpt>
   <trkpt lat="10.3135900" lon="123.8465310">
    <ele>130.5</ele>
    <time>2025-12-14T01:02:58Z</time>
   </trkpt>
   <trkpt lat="10.3135610" lon="123.8465420">
    <ele>132.2</ele>
    <time>2025-12-14T01:03:02Z</time>
   </trkpt>
   <trkpt lat="10.3134940" lon="123.8465360">
    <ele>133.9</ele>
    <time>2025-12-14T01:03:12Z</time>
   </trkpt>
   <trkpt lat="10.3134320" lon="123.8465830">
    <ele>138.0</ele>
    <time>2025-12-14T01:03:24Z</time>
   </trkpt>
   <trkpt lat="10.3133450" lon="123.8465880">
    <ele>141.4</ele>
    <time>2025-12-14T01:03:35Z</time>
   </trkpt>
   <trkpt lat="10.3132170" lon="123.8466280">
    <ele>146.7</ele>
    <time>2025-12-14T01:03:50Z</time>
   </trkpt>
   <trkpt lat="10.3131030" lon="123.8466050">
    <ele>149.3</ele>
    <time>2025-12-14T01:04:04Z</time>
   </trkpt>
   <trkpt lat="10.3130910" lon="123.8466110">
    <ele>149.3</ele>
    <time>2025-12-14T01:04:07Z</time>
   </trkpt>
   <trkpt lat="10.3131000" lon="123.8466300">
    <ele>149.3</ele>
    <time>2025-12-14T01:04:12Z</time>
   </trkpt>
   <trkpt lat="10.3130810" lon="123.8466460">
    <ele>149.5</ele>
    <time>2025-12-14T01:04:17Z</time>
   </trkpt>
   <trkpt lat="10.3130200" lon="123.8466280">
    <ele>149.7</ele>
    <time>2025-12-14T01:04:25Z</time>
   </trkpt>
   <trkpt lat="10.3129910" lon="123.8466430">
    <ele>150.3</ele>
    <time>2025-12-14T01:04:29Z</time>
   </trkpt>
   <trkpt lat="10.3129860" lon="123.8466100">
    <ele>150.2</ele>
    <time>2025-12-14T01:04:34Z</time>
   </trkpt>
   <trkpt lat="10.3130020" lon="123.8465960">
    <ele>150.2</ele>
    <time>2025-12-14T01:04:36Z</time>
   </trkpt>
   <trkpt lat="10.3130450" lon="123.8465980">
    <ele>149.5</ele>
    <time>2025-12-14T01:04:39Z</time>
   </trkpt>
   <trkpt lat="10.3130980" lon="123.8466380">
    <ele>149.2</ele>
    <time>2025-12-14T01:04:43Z</time>
   </trkpt>
   <trkpt lat="10.3130720" lon="123.8466660">
    <ele>149.3</ele>
    <time>2025-12-14T01:04:47Z</time>
   </trkpt>
   <trkpt lat="10.3130440" lon="123.8466730">
    <ele>149.8</ele>
    <time>2025-12-14T01:04:48Z</time>
   </trkpt>
   <trkpt lat="10.3129730" lon="123.8466750">
    <ele>150.8</ele>
    <time>2025-12-14T01:04:50Z</time>
   </trkpt>
   <trkpt lat="10.3128060" lon="123.8466400">
    <ele>154.2</ele>
    <time>2025-12-14T01:04:58Z</time>
   </trkpt>
   <trkpt lat="10.3127760" lon="123.8466440">
    <ele>154.1</ele>
    <time>2025-12-14T01:05:01Z</time>
   </trkpt>
   <trkpt lat="10.3127310" lon="123.8466820">
    <ele>154.2</ele>
    <time>2025-12-14T01:05:06Z</time>
   </trkpt>
   <trkpt lat="10.3125990" lon="123.8466680">
    <ele>155.3</ele>
    <time>2025-12-14T01:05:30Z</time>
   </trkpt>
   <trkpt lat="10.3125560" lon="123.8467020">
    <ele>155.0</ele>
    <time>2025-12-14T01:05:39Z</time>
   </trkpt>
   <trkpt lat="10.3125140" lon="123.8467000">
    <ele>155.2</ele>
    <time>2025-12-14T01:05:44Z</time>
   </trkpt>
   <trkpt lat="10.3124720" lon="123.8467170">
    <ele>155.5</ele>
    <time>2025-12-14T01:05:53Z</time>
   </trkpt>
   <trkpt lat="10.3123890" lon="123.8467060">
    <ele>156.4</ele>
    <time>2025-12-14T01:06:00Z</time>
   </trkpt>
   <trkpt lat="10.3123190" lon="123.8467200">
    <ele>157.4</ele>
    <time>2025-12-14T01:06:09Z</time>
   </trkpt>
   <trkpt lat="10.3122510" lon="123.8466790">
    <ele>158.4</ele>
    <time>2025-12-14T01:06:20Z</time>
   </trkpt>
   <trkpt lat="10.3121570" lon="123.8467130">
    <ele>158.1</ele>
    <time>2025-12-14T01:06:32Z</time>
   </trkpt>
   <trkpt lat="10.3120690" lon="123.8466910">
    <ele>158.6</ele>
    <time>2025-12-14T01:06:40Z</time>
   </trkpt>
   <trkpt lat="10.3119450" lon="123.8467520">
    <ele>160.4</ele>
    <time>2025-12-14T01:06:58Z</time>
   </trkpt>
   <trkpt lat="10.3118750" lon="123.8467540">
    <ele>161.4</ele>
    <time>2025-12-14T01:07:12Z</time>
   </trkpt>
   <trkpt lat="10.3118560" lon="123.8467820">
    <ele>162.0</ele>
    <time>2025-12-14T01:07:17Z</time>
   </trkpt>
   <trkpt lat="10.3118150" lon="123.8467330">
    <ele>161.7</ele>
    <time>2025-12-14T01:07:36Z</time>
   </trkpt>
   <trkpt lat="10.3117540" lon="123.8467330">
    <ele>162.1</ele>
    <time>2025-12-14T01:07:42Z</time>
   </trkpt>
   <trkpt lat="10.3117260" lon="123.8467710">
    <ele>162.4</ele>
    <time>2025-12-14T01:07:56Z</time>
   </trkpt>
   <trkpt lat="10.3115370" lon="123.8467400">
    <ele>162.6</ele>
    <time>2025-12-14T01:08:19Z</time>
   </trkpt>
   <trkpt lat="10.3114520" lon="123.8466300">
    <ele>161.9</ele>
    <time>2025-12-14T01:08:35Z</time>
   </trkpt>
   <trkpt lat="10.3113330" lon="123.8465740">
    <ele>162.1</ele>
    <time>2025-12-14T01:08:47Z</time>
   </trkpt>
   <trkpt lat="10.3112050" lon="123.8464730">
    <ele>163.3</ele>
    <time>2025-12-14T01:09:05Z</time>
   </trkpt>
   <trkpt lat="10.3111640" lon="123.8464760">
    <ele>163.8</ele>
    <time>2025-12-14T01:09:13Z</time>
   </trkpt>
   <trkpt lat="10.3109330" lon="123.8463930">
    <ele>168.4</ele>
    <time>2025-12-14T01:09:53Z</time>
   </trkpt>
   <trkpt lat="10.3108810" lon="123.8463920">
    <ele>169.1</ele>
    <time>2025-12-14T01:10:02Z</time>
   </trkpt>
   <trkpt lat="10.3108670" lon="123.8464260">
    <ele>169.0</ele>
    <time>2025-12-14T01:10:31Z</time>
   </trkpt>
   <trkpt lat="10.3107630" lon="123.8464950">
    <ele>169.5</ele>
    <time>2025-12-14T01:10:51Z</time>
   </trkpt>
   <trkpt lat="10.3107730" lon="123.8465120">
    <ele>169.4</ele>
    <time>2025-12-14T01:10:59Z</time>
   </trkpt>
   <trkpt lat="10.3107700" lon="123.8464880">
    <ele>169.3</ele>
    <time>2025-12-14T01:11:35Z</time>
   </trkpt>
   <trkpt lat="10.3107620" lon="123.8465330">
    <ele>167.9</ele>
    <time>2025-12-14T01:14:22Z</time>
   </trkpt>
   <trkpt lat="10.3107340" lon="123.8465690">
    <ele>167.9</ele>
    <time>2025-12-14T01:14:34Z</time>
   </trkpt>
   <trkpt lat="10.3106460" lon="123.8465440">
    <ele>170.1</ele>
    <time>2025-12-14T01:14:45Z</time>
   </trkpt>
   <trkpt lat="10.3106310" lon="123.8465510">
    <ele>170.0</ele>
    <time>2025-12-14T01:14:47Z</time>
   </trkpt>
   <trkpt lat="10.3106030" lon="123.8465880">
    <ele>170.1</ele>
    <time>2025-12-14T01:14:54Z</time>
   </trkpt>
   <trkpt lat="10.3106080" lon="123.8466780">
    <ele>168.9</ele>
    <time>2025-12-14T01:15:05Z</time>
   </trkpt>
   <trkpt lat="10.3105780" lon="123.8467100">
    <ele>168.4</ele>
    <time>2025-12-14T01:15:09Z</time>
   </trkpt>
   <trkpt lat="10.3104550" lon="123.8467450">
    <ele>168.6</ele>
    <time>2025-12-14T01:15:23Z</time>
   </trkpt>
   <trkpt lat="10.3103750" lon="123.8467230">
    <ele>169.4</ele>
    <time>2025-12-14T01:15:35Z</time>
   </trkpt>
   <trkpt lat="10.3102250" lon="123.8467570">
    <ele>170.0</ele>
    <time>2025-12-14T01:15:51Z</time>
   </trkpt>
   <trkpt lat="10.3102080" lon="123.8467750">
    <ele>169.4</ele>
    <time>2025-12-14T01:15:55Z</time>
   </trkpt>
   <trkpt lat="10.3102180" lon="123.8468120">
    <ele>169.4</ele>
    <time>2025-12-14T01:16:01Z</time>
   </trkpt>
   <trkpt lat="10.3101890" lon="123.8468680">
    <ele>168.6</ele>
    <time>2025-12-14T01:16:09Z</time>
   </trkpt>
   <trkpt lat="10.3101190" lon="123.8469180">
    <ele>168.3</ele>
    <time>2025-12-14T01:16:19Z</time>
   </trkpt>
   <trkpt lat="10.3100850" lon="123.8469930">
    <ele>167.4</ele>
    <time>2025-12-14T01:16:31Z</time>
   </trkpt>
   <trkpt lat="10.3101020" lon="123.8470220">
    <ele>167.4</ele>
    <time>2025-12-14T01:16:37Z</time>
   </trkpt>
   <trkpt lat="10.3101110" lon="123.8471200">
    <ele>165.8</ele>
    <time>2025-12-14T01:16:50Z</time>
   </trkpt>
   <trkpt lat="10.3101710" lon="123.8470550">
    <ele>165.4</ele>
    <time>2025-12-14T01:17:01Z</time>
   </trkpt>
   <trkpt lat="10.3102080" lon="123.8470500">
    <ele>165.2</ele>
    <time>2025-12-14T01:17:06Z</time>
   </trkpt>
   <trkpt lat="10.3102840" lon="123.8471090">
    <ele>164.9</ele>
    <time>2025-12-14T01:17:16Z</time>
   </trkpt>
   <trkpt lat="10.3103250" lon="123.8471630">
    <ele>164.8</ele>
    <time>2025-12-14T01:17:24Z</time>
   </trkpt>
   <trkpt lat="10.3104680" lon="123.8472300">
    <ele>164.4</ele>
    <time>2025-12-14T01:17:44Z</time>
   </trkpt>
   <trkpt lat="10.3105730" lon="123.8472600">
    <ele>164.1</ele>
    <time>2025-12-14T01:17:54Z</time>
   </trkpt>
   <trkpt lat="10.3107430" lon="123.8472810">
    <ele>163.7</ele>
    <time>2025-12-14T01:18:10Z</time>
   </trkpt>
   <trkpt lat="10.3108690" lon="123.8473250">
    <ele>163.3</ele>
    <time>2025-12-14T01:18:25Z</time>
   </trkpt>
   <trkpt lat="10.3109400" lon="123.8473700">
    <ele>162.9</ele>
    <time>2025-12-14T01:18:34Z</time>
   </trkpt>
   <trkpt lat="10.3109990" lon="123.8473590">
    <ele>162.7</ele>
    <time>2025-12-14T01:18:45Z</time>
   </trkpt>
   <trkpt lat="10.3109550" lon="123.8473850">
    <ele>162.4</ele>
    <time>2025-12-14T01:19:57Z</time>
   </trkpt>
  </trkseg>
 </trk>
</gpx>